Name,Type,Address,Entity,Canton,Municipality,Latitude,Longitude,Phone,Email,Web address
Al Amel,Elementary,Osik 8,Federation Of Bosnia and Herzegovina,Canton Sarajevo,Ilidza,43.83444165,18.27962994,38733230294,,
Centar 'Vladimir Nazor',Elementary,Azize Ša?irbegovi? 80,Federation Of Bosnia and Herzegovina,Canton Sarajevo,,43.84837829,18.37751985,38733650196,,http://www.vladimirnazor.edu.ba
Centar za slijepu i slabovidnu djecu i omladinu,Elementary,Aleje Bosne srebrene 22,Federation Of Bosnia and Herzegovina,Canton Sarajevo,,43.84083387,18.33657861,38733473019,,http://www.czsd.edu.ba
Centar za slušnu i govornu rehabilitaciju,Elementary,Asima Ferhatovi?a 2,Federation Of Bosnia and Herzegovina,Canton Sarajevo,,43.87237479,18.41514587,38733664523,,http://www.cersig.edu.ba
?etvrta osnovna škola - Ilidža,Elementary,Put Famosa 33,Federation Of Bosnia and Herzegovina,Canton Sarajevo,Ilidza,43.79476516,18.32296371,38733698202,,http://www.oscetvrta.edu.ba
Deseta osnovna škola Ilidža,Elementary,Osik 210,Federation Of Bosnia and Herzegovina,Canton Sarajevo,Ilidza,43.84224997,18.27739835,38733564540,,
Deveta osnovna škola,Elementary,Rakovi?ka cesta 339,Federation Of Bosnia and Herzegovina,Canton Sarajevo,,43.85978209,18.227005,38733428415,,http://www.osdeveta.edu.ba
Druga osnovna škola,Elementary,"Školska 1, Hrasnica",Federation Of Bosnia and Herzegovina,Canton Sarajevo,Ilidza,43.79820354,18.31140876,38733514137,,http://www.osdruga.edu.ba
Francuska osnovna škola CIFS Sarajevo,Elementary,Paromlinska 66,Federation Of Bosnia and Herzegovina,Canton Sarajevo,,43.85474968,18.3726114,38733444405,,
Osnovna škola 'Aneks',Elementary,"Vrbovska bb, Sarajevo",Federation Of Bosnia and Herzegovina,Canton Sarajevo,,43.84322887,18.37163504,38733658883,,
Katolicki školski  centar - Osnovna škola Centar,Elementary,Mehmed paše Sokolovi?a 11,Federation Of Bosnia and Herzegovina,Canton Sarajevo,,43.86108944,18.42247367,38733665521,,http://www.ksc-sarajevo.edu.ba
Me?unarodna njema?ka škola Sarajevo - Internationale Deutsche Schule Sarajevo,Elementary,Buka 13,Federation Of Bosnia and Herzegovina,Canton Sarajevo,,43.8609328,18.4195447,38733560520,,http://idss.ba
Medjunarodna osnovna škola 'Richmond Park International Primary school',Elementary,Francuske revolucije bb,Federation Of Bosnia and Herzegovina,Canton Sarajevo,Ilidza,43.84802237,18.39425683,38733944140,,http://www.internationalschool.ba
OŠ 'Mehmed Handži?',Elementary,Lužani bb - Ilidža,Federation Of Bosnia and Herzegovina,Canton Sarajevo,,43.82668649,18.30249309,38733626077,,http://www.osmh.edu.ba
OŠ '?ulistan',Elementary,Lješevo - Ilijaš,Federation Of Bosnia and Herzegovina,Canton Sarajevo,,43.99147916,18.23356032,38733403321,,http://www.djulistan.edu.ba
OŠ 'Hadži?i',Elementary,Hadželi bb,Federation Of Bosnia and Herzegovina,Canton Sarajevo,,43.8250786,18.20876595,38733408811,,http://oshadzici.edu.ba
OŠ '6.mart' Hadži?i,Elementary,An?elka Lažeti?a 5,Federation Of Bosnia and Herzegovina,Canton Sarajevo,,43.82201123,18.19971085,38733420120,,http://www.os6mart.edu.ba
OŠ '9. maj' Hadži?i-Pazari?,Elementary,Bjelašni?ka 59,Federation Of Bosnia and Herzegovina,Canton Sarajevo,,43.78887144,18.15194607,38733417527,,http://www.os9majpa.edu.ba
OŠ 'Al-Walidein-Gazzaz',Elementary,Hasiba Brankovi?a 2,Federation Of Bosnia and Herzegovina,Canton Sarajevo,,43.83769589,18.3501023,38733235507,,http://www.osgazzaz.edu.ba
OŠ 'Aleksa Šanti?',Elementary,Branislava Nuši?a 95,Federation Of Bosnia and Herzegovina,Canton Sarajevo,,43.83578825,18.33770513,38733456533,,http://www.osas.edu.ba
OŠ 'Alija Nametak',Elementary,Zaima Šarca 15,Federation Of Bosnia and Herzegovina,Canton Sarajevo,,43.86530526,18.42203379,38733562297,,http://www.osansa.edu.ba
OŠ 'Avdo Smailovi?',Elementary,Adema Bu?e 63-b,Federation Of Bosnia and Herzegovina,Canton Sarajevo,,43.86154971,18.36440384,38733619155,,http://www.osasmailovic.edu.ba
OŠ 'Behaudin Selmanovi?',Elementary,"Viteška 6, Briješ?e, Sarajevo",Federation Of Bosnia and Herzegovina,Canton Sarajevo,,43.85783261,18.32325339,38733780020,,http://www.osbs.edu.ba
OŠ '?amil Sijari?',Elementary,Bra?e Muli? 16,Federation Of Bosnia and Herzegovina,Canton Sarajevo,,43.83066481,18.3403337,38733544301,,http://www.oscsijaricsa.edu.ba
OŠ '?engi? Vila I',Elementary,Fetaha Be?irbegovi?a 2,Federation Of Bosnia and Herzegovina,Canton Sarajevo,,43.85148863,18.36882949,38733653759,,http://www.oscvila1.edu.ba
OŠ 'Džemaludin ?auševi?',Elementary,Prvomajska 24,Federation Of Bosnia and Herzegovina,Canton Sarajevo,,43.84479578,18.35541844,38733611651,,http://www.oscausevic.edu.ba
OŠ 'Edhem Mulabdi?',Elementary,Konak 1,Federation Of Bosnia and Herzegovina,Canton Sarajevo,,43.85690427,18.43124986,38733236044,,http://www.osem.edu.ba
OŠ 'Fatima Guni?',Elementary,Nerkeza Smailagi?a 18,Federation Of Bosnia and Herzegovina,Canton Sarajevo,,43.84387497,18.34545135,38733545181,,http://www.osfg.edu.ba
OŠ 'Grbavica II',Elementary,Behdžeta Muteveli?a bb,Federation Of Bosnia and Herzegovina,Canton Sarajevo,,43.84978647,18.38928938,38733642642,,http://www.osgrbavica2.edu.ba
OŠ 'Grbavica I',Elementary,Grbavi?ka 14,Federation Of Bosnia and Herzegovina,Canton Sarajevo,,43.85241706,18.39707851,38733661278,,http://osgrbavica1.edu.ba
OŠ 'Hamdija Kreševljakovi?',Elementary,Carina 2,Federation Of Bosnia and Herzegovina,Canton Sarajevo,,43.86221498,18.44324469,38733272720,,http://www.oshk.edu.ba
OŠ 'Hasan Kaimija',Elementary,Cicin han 93,Federation Of Bosnia and Herzegovina,Canton Sarajevo,,43.84912107,18.41786027,38733559906,,http://www.oshkaimija.edu.ba
OŠ 'Hasan Kiki?',Elementary,Gorica 27,Federation Of Bosnia and Herzegovina,Canton Sarajevo,,43.86076067,18.41036618,38733445137,,http://www.oshkikic.edu.ba
OŠ 'Hašim Spahi?' Ilijaš,Elementary,Krajiška bb,Federation Of Bosnia and Herzegovina,Canton Sarajevo,,43.96020212,18.2681179,38733400996,,http://www.oshs.edu.ba
OŠ 'Hilmi ef. Šari?' Hadži?i-Tar?in,Elementary,Bratstva i jedinstva 38,Federation Of Bosnia and Herzegovina,Canton Sarajevo,,43.79309236,18.09267998,38733428395,,http://www.oshilmi.edu.ba
OŠ 'Hrasno',Elementary,Porodice Ribar 2,Federation Of Bosnia and Herzegovina,Canton Sarajevo,,43.84994896,18.38244438,38733647451,,http://www.oshrasno.edu.ba
OŠ 'Isa-beg Ishakovi?',Elementary,Kemala Kapetanovi?a 43,Federation Of Bosnia and Herzegovina,Canton Sarajevo,,43.85057566,18.38854909,38733652231,,http://www.isabeg.edu.ba
OŠ 'Isak Samokovlija',Elementary,Fra An?ela Zvizdovi?a 1,Federation Of Bosnia and Herzegovina,Canton Sarajevo,,43.85782101,18.40625703,38733212499,,http://www.osis.edu.ba
OŠ 'Izet Šabi?' Hotonj - Vogoš?a,Elementary,Donji Hotonj bb,Federation Of Bosnia and Herzegovina,Canton Sarajevo,,43.89844902,18.37167263,38733481090,,http://www.osizetsabic.edu.ba
OŠ 'Kova?i?i',Elementary,Zagreba?ka 22a,Federation Of Bosnia and Herzegovina,Canton Sarajevo,,43.8513571,18.39882731,38733615878,,http://www.oskovacici.edu.ba
OŠ 'Malta',Elementary,Marka Maruli?a 27,Federation Of Bosnia and Herzegovina,Canton Sarajevo,,43.85504753,18.37939739,38733613502,,http://www.osmalta.edu.ba
OŠ 'Mehmed beg Kapetanovi? Ljubušak',Elementary,Bra?e Begi? 19,Federation Of Bosnia and Herzegovina,Canton Sarajevo,,43.86748654,18.40596199,38733220491,,http://www.osmbklj.edu.ba
OŠ 'Mehmedalija Mak Dizdar',Elementary,Žrtava fašizma 14,Federation Of Bosnia and Herzegovina,Canton Sarajevo,,43.8465445,18.36530507,38733644897,,http://www.osmmdsa.edu.ba
OŠ 'Meša Selimovi?',Elementary,Geteova 16,Federation Of Bosnia and Herzegovina,Canton Sarajevo,,43.84446305,18.35139513,38733543113,,http://www.osmssa.edu.ba
OŠ 'Mirsad Prnjavorac' - Vogoš?a,Elementary,Jošani?ka 51,Federation Of Bosnia and Herzegovina,Canton Sarajevo,,43.90011886,18.34326267,38733430910,,http://www.osmp.edu.ba
OŠ 'Mula Mustafa Bašeskija',Elementary,Logavina 52,Federation Of Bosnia and Herzegovina,Canton Sarajevo,,43.86263656,18.42804193,38733238151,,http://www.osmmbsa.edu.ba
OŠ 'Musa ?azim ?ati?',Elementary,?ekaluša 53,Federation Of Bosnia and Herzegovina,Canton Sarajevo,,43.86345652,18.41543555,38733216567,,http://www.osmccsa.edu.ba
OŠ 'Mustafa Busuladži?',Elementary,Ahatovi?ka 41,Federation Of Bosnia and Herzegovina,Canton Sarajevo,,43.88137679,18.28667879,38733629574,,http://www.osdobrosevici.edu.ba
OŠ 'Nafija Sarajli?',Elementary,Patriotske lige 57,Federation Of Bosnia and Herzegovina,Canton Sarajevo,,43.87377855,18.41244757,38733209232,,http://www.osnsarajlic.edu.ba
OŠ 'Osman Nakaš',Elementary,Grada?a?ka 39,Federation Of Bosnia and Herzegovina,Canton Sarajevo,,43.84860267,18.3716619,38733641287,,http://www.osonakas.edu.ba
OŠ 'Osman Nuri Hadži?',Elementary,Lava Tolstoja 6,Federation Of Bosnia and Herzegovina,Canton Sarajevo,,43.82495266,18.3541739,38733460362,,http://www.osonh.edu.ba
OŠ 'Podlugovi' Ilijaš,Elementary,Žrtava genocida u Srebrenici 212,Federation Of Bosnia and Herzegovina,Canton Sarajevo,,43.9690673,18.25951338,38733401017,,http://www.ospodlugovi.edu.ba
OŠ 'Pofali?i',Elementary,Ivanjska 1,Federation Of Bosnia and Herzegovina,Canton Sarajevo,,43.85965831,18.38947177,38733644163,,http://www.ospofalici.edu.ba
OŠ 'Porodice ef. Rami?' - Vogoš?a,Elementary,Nova cesta 62,Federation Of Bosnia and Herzegovina,Canton Sarajevo,,43.92016109,18.31919789,38733430993,,http://www.osramic.edu.ba
OŠ 'Saburina',Elementary,Saburina 4,Federation Of Bosnia and Herzegovina,Canton Sarajevo,,43.86371566,18.43593836,38733538340,,http://www.ossaburina.edu.ba
OŠ 'Safvet beg Bašagi?',Elementary,Gimnazijska 1,Federation Of Bosnia and Herzegovina,Canton Sarajevo,,43.85686172,18.42371285,38733205923,,http://www.ossbb.edu.ba
OŠ 'Šejh Muhamed ef. Hadžijamakovi?',Elementary,Iza Hrida 11,Federation Of Bosnia and Herzegovina,Canton Sarajevo,,43.85373618,18.43701124,38733532324,,http://www.ossmeh.edu.ba
OŠ 'Skender Kulenovi?',Elementary,Bulevar Mimar Sinana bb,Federation Of Bosnia and Herzegovina,Canton Sarajevo,,43.82782428,18.34634185,38733451600,,http://www.os-sk.edu.ba
OŠ 'Sokolje',Elementary,Numan paše ?uprili?a do 17,Federation Of Bosnia and Herzegovina,Canton Sarajevo,,43.86620254,18.3164835,38733765540,,http://www.ossokolje.edu.ba
OŠ 'Srednje' Ilijaš,Elementary,Srednje bb,Federation Of Bosnia and Herzegovina,Canton Sarajevo,,44.00902137,18.43626022,38733489047,,http://www.ossrednje.edu.ba
OŠ 'Umihana ?uvidina',Elementary,Smaje Šikala 1,Federation Of Bosnia and Herzegovina,Canton Sarajevo,,43.85247122,18.3445394,38733541009,,http://www.osuc.edu.ba
OŠ 'Veleši?ki heroji',Elementary,Veleši?i 2,Federation Of Bosnia and Herzegovina,Canton Sarajevo,,43.86809373,18.39685857,38733214598,,http://www.osvh.edu.ba
OŠ 'Vladislav Skari?',Elementary,Terezija 48,Federation Of Bosnia and Herzegovina,Canton Sarajevo,,43.85330679,18.40929866,38733212031,,http://www.osvs.edu.ba
OŠ 'Vrhbosna',Elementary,Baruthana 60,Federation Of Bosnia and Herzegovina,Canton Sarajevo,,43.87716984,18.46026063,38733240100,,http://www.osvrhbosna.edu.ba
OŠ 'Zahid Baru?ija' - Vogoš?a,Elementary,Omladinska 14,Federation Of Bosnia and Herzegovina,Canton Sarajevo,,43.8982944,18.34886312,38733432650,,http://www.oszb.edu.ba
OŠ 'Zaim Kolar' - Trnovo,Elementary,Dej?i?i,Federation Of Bosnia and Herzegovina,Canton Sarajevo,,43.68646737,18.34131539,38733438001,,http://www.oszk.edu.ba
OŠ 'Zajko Deli?' - Vogoš?a,Elementary,Slatinski put 3,Federation Of Bosnia and Herzegovina,Canton Sarajevo,,43.88432303,18.38522315,38733426830,,http://www.oszd.edu.ba
Osma osnovna škola 'Amer ?enanovi?' - Ilidža,Elementary,Ilirska 2 ,Federation Of Bosnia and Herzegovina,Canton Sarajevo,,43.8229169,18.32060337,38733771316,,http://www.osmaosnovnail.edu.ba
Osnovna muzi?ka i baletska škola - Novo Sarajevo,Elementary,Kemala Kapetanovi?a 43,Federation Of Bosnia and Herzegovina,Canton Sarajevo,,43.85031647,18.38864565,38733651523,,http://www.osmbaletska.edu.ba
Osnovna muzi?ka škola  - Ilidža,Elementary,Josipa Slavenskog 24,Federation Of Bosnia and Herzegovina,Canton Sarajevo,Ilidza,43.83443391,18.30635548,38733623400,,http://www.muzickail.edu.ba
Osnovna muzi?ka škola 'Mladen Pozaji?',Elementary,Josipa Štadlera 1,Federation Of Bosnia and Herzegovina,Canton Sarajevo,,43.8603236,18.42482328,38733212410,,http://www.omsmp.edu.ba
Osnovna škola 'Maarif',Elementary,,Federation Of Bosnia and Herzegovina,Canton Sarajevo,,43.83717741,18.34920641,38762271004,,http://www.maarifschools.edu.ba
OŠ 'Silvije Strahimir Kranj?evi?',Elementary,Mehmed paše Sokolovi?a 2,Federation Of Bosnia and Herzegovina,Canton Sarajevo,,43.8608651,18.4214437,38733219825,,http://www.ossskranjcevic.edu.ba
Peta osnovna škola  - Ilidža,Elementary,Umihane ?uvidine 58,Federation Of Bosnia and Herzegovina,Canton Sarajevo,Ilidza,43.81097958,18.31111908,38733515177,,http://www.ospeta.edu.ba
Privatna osnovna škola 'Bloom',Elementary,"Nalina 16, Stari Grad Sarajevo",Federation Of Bosnia and Herzegovina,Canton Sarajevo,,43.85307856,18.44050884,38733207899,,http://www.bloom.edu.ba
Prva osnovna škola - Ilidža,Elementary,Mala aleja 15,Federation Of Bosnia and Herzegovina,Canton Sarajevo,Ilidza,43.81310091,18.28748345,38733639575,,http://www.osprvail.edu.ba
Quality Schools International - International School of Sarajevo (QSIS Sarajevo),Elementary,Omladinska 16,Federation Of Bosnia and Herzegovina,Canton Sarajevo,,43.89812432,18.34923863,38733424450,,
Sedma osnovna škola - Ilidža,Elementary,Blažuj 118,Federation Of Bosnia and Herzegovina,Canton Sarajevo,Ilidza,43.84795273,18.24521184,38733761630,,http://www.sedma-osnovna.edu.ba
Šesta osnovna škola  - Ilidža,Elementary,Barska bb ,Federation Of Bosnia and Herzegovina,Canton Sarajevo,Ilidza,43.84762002,18.30562591,38733623405,,http://www.ossesta.edu.ba
Tre?a osnovna škola - Ilidža,Elementary,Nasihe Kapidži? Hadži? 1,Federation Of Bosnia and Herzegovina,Canton Sarajevo,Ilidza,43.83376834,18.30261111,38733638479,,http://www.trecaosnovna.edu.ba
Zavod  'Mjedenica',Elementary,Mjedenica 34,Federation Of Bosnia and Herzegovina,Canton Sarajevo,,43.8554537,18.42464089,38733207963,,http://www.zamjed.edu.ba
OŠ 'Musa ?azim ?ati?',Elementary,Školska ulica 23,Federation Of Bosnia and Herzegovina,ZDK,Zenica,44.2040385,17.9067343,38732401106,,
Mak Dizdar,Elementary,?urukovi?a put 17,Federation Of Bosnia and Herzegovina,ZDK,Zenica,44.2033958,17.9190767,38732460348,,
OŠ 'Meša Selimovi?',Elementary,,Federation Of Bosnia and Herzegovina,ZDK,Zenica,44.1969917,17.9111923,38732408020,,
Arnauti,Elementary,,Federation Of Bosnia and Herzegovina,ZDK,Zenica,44.2011076,18.0509696,38732439021,,
Vladimir Nazor,Elementary,Sarajevska 20,Federation Of Bosnia and Herzegovina,ZDK,Zenica,44.195959,17.9084459,38732445210,,
Miroslav Krleza,Elementary,Travni?ka cesta 8,Federation Of Bosnia and Herzegovina,ZDK,Zenica,44.2008083,17.9003569,38732401536,,http://www.osmkze.com.ba/
Hasan Kikic - Tetovo,Elementary,Tetovska 391,Federation Of Bosnia and Herzegovina,ZDK,Zenica,44.2321035,17.8882179,38732460585,,
Skender Kulenovic,Elementary,Profesora M. ?auševi?a 1,Federation Of Bosnia and Herzegovina,ZDK,Zenica,44.1952676,17.9319063,38732426920,,
Alija Nametak - Pehare,Elementary,Ri?i?ki put,Federation Of Bosnia and Herzegovina,ZDK,Zenica,44.221499,17.91374,38732456156,,
Enver Colakovic - Janjici,Elementary,Sarajevska 210,Federation Of Bosnia and Herzegovina,ZDK,Zenica,44.158187,17.961556,38732453004,,
Hamza Humo - Babino,Elementary,Babino,Federation Of Bosnia and Herzegovina,ZDK,Zenica,44.235599,18.008291,38732436126,,
Camil Sijaric - Nemila,Elementary,Doglodska 7,Federation Of Bosnia and Herzegovina,ZDK,Zenica,44.332822,17.912249,38732465001,,http://oscsijaricsa.edu.ba/
Aleksa Santic - Perin Han,Elementary,Bistua Nuova 213,Federation Of Bosnia and Herzegovina,ZDK,Zenica,44.185641,17.96769,38732465035,,
Ahmed Muradbegovic - Stranjani,Elementary,Stranjani bb,Federation Of Bosnia and Herzegovina,ZDK,Zenica,44.230329,17.848248,38732434042,,
Osnovna muzicka skola,Elementary,Skolska 17,Federation Of Bosnia and Herzegovina,ZDK,Zenica,44.203211,17.905116,38732242307,,
Osnovna specijalna skola,Elementary,M. Tarabara 10,Federation Of Bosnia and Herzegovina,ZDK,Zenica,44.200381,17.907568,38732407985,,
Hamdija Kresevljakovic,Elementary,Ulica šehida b.b.,Federation Of Bosnia and Herzegovina,ZDK,Kakanj,44.123473,18.114953,38732552860,,
Resad Kadic - Brnjic,Elementary,Brnjic,Federation Of Bosnia and Herzegovina,ZDK,Kakanj,44.22844,18.104922,,,
Ahmed Muradbegovic,Elementary,,Federation Of Bosnia and Herzegovina,ZDK,Kakanj,44.23041,17.848149,38732434042,,
Mula Mustafa Baseskija,Elementary,Rudarska 19,Federation Of Bosnia and Herzegovina,ZDK,Kakanj,44.135864,18.125003,38732557440,,
Omer Music - Ricice,Elementary,Podbjelavi?i,Federation Of Bosnia and Herzegovina,ZDK,Kakanj,44.10133,18.150561,38732777118,,
15. April,Elementary,29. Novembra,Federation Of Bosnia and Herzegovina,ZDK,Kakanj,44.114436,18.108726,38732775443,,
Alija Nametak,Elementary,A.Bešlagi?a b.b.,Federation Of Bosnia and Herzegovina,ZDK,Žep?e,44.351857,17.991515,38732894291,,
Abdulvehab Ilhamija,Elementary,Zeljzno Polje,Federation Of Bosnia and Herzegovina,ZDK,Žep?e,44.405195,17.933023,38762670377,,
Zepce,Elementary,Stjepana Radica,Federation Of Bosnia and Herzegovina,ZDK,Žep?e,44.424381,18.03866,38762881724,,
Glazbena škola Katarina Kosa?a – Kotromani?,Elementary,Zagreba?ka,Federation Of Bosnia and Herzegovina,ZDK,Žep?e,44.426074,18.032024,38732880453,,
Prva osnovna škola - Zavidovici,Elementary,Safvet-bega Bašagi?a bb,Federation Of Bosnia and Herzegovina,ZDK,Zavidovi?i,44.437833,18.145461,38732878808,,
Druga osnovna škola - Zavidovici,Elementary,8. Marta,Federation Of Bosnia and Herzegovina,ZDK,Zavidovi?i,44.445782,18.143168,38732877728,,
Osnovna škola Kova?i,Elementary,Kovaci,Federation Of Bosnia and Herzegovina,ZDK,Zavidovi?i,44.4422,18.212264,38732871425,,
Vozu?a ,Elementary,Vozu?a ,Federation Of Bosnia and Herzegovina,ZDK,Zavidovi?i,44.379515,18.361034,38732856375,,
Hajdarevi?i,Elementary,Hajdarevi?i bb,Federation Of Bosnia and Herzegovina,ZDK,Zavidovi?i,44.469738,18.250745,38732465076,pkonak@bih.net.ba,
OŠ 'Gostovi?',Elementary,Gostovi? bb,Federation Of Bosnia and Herzegovina,ZDK,Zavidovi?i,44.418087,18.16544,38732465114,osgostovic@bih.net.ba,
Maglaj,Elementary,Aleja Ljiljana 11 ,Federation Of Bosnia and Herzegovina,ZDK,Maglaj,44.54442,18.09808,38732603465,,
Prva osnovna škola,Elementary,Aleja Ljiljana 46 ,Federation Of Bosnia and Herzegovina,ZDK,Maglaj,44.552342,18.100586,38732603386,,prvaosmaglaj.com.ba
Novi Šeher ,Elementary,Novi Šeher bb,Federation Of Bosnia and Herzegovina,ZDK,Maglaj,44.51285,18.025988,38732611803,,
Osnovna škola Mustafa Muli?,Elementary,Šije,Federation Of Bosnia and Herzegovina,ZDK,Tešanj,44.661939,18.070627,38732694004,,
Abdulvehab Ilhamija,Elementary,Kaloševi? ,Federation Of Bosnia and Herzegovina,ZDK,Tešanj,44.646225,17.905839,38732664178,,http://osaik.com.ba
Gazi Ferhat-beg,Elementary,Jablanica,Federation Of Bosnia and Herzegovina,ZDK,Tešanj,44.58722,18.022431,38732651087,,
9. Septembar,Elementary,Medakovo ,Federation Of Bosnia and Herzegovina,ZDK,Tešanj,44.637972,18.015077,38732662094,,
Rešad Kadi?,Elementary,Novo naselje ,Federation Of Bosnia and Herzegovina,ZDK,Tešanj,44.620045,17.986338,38732650274,,
1. Mart,Elementary,Jelah,Federation Of Bosnia and Herzegovina,ZDK,Tešanj,44.654262,17.962843,38732663210,,
Kulin Ban,Elementary,Tešanjka ,Federation Of Bosnia and Herzegovina,ZDK,Tešanj,44.672561,18.011593,38732662034,,
Džemal Bijedi?,Elementary,Miljanovci,Federation Of Bosnia and Herzegovina,ZDK,Tešanj,44.686158,17.929884,38732668888,,
Huso Hodži?,Elementary,Bra?e Pobri?,Federation Of Bosnia and Herzegovina,ZDK,Tešanj,44.608966,17.987963,38732656290,,
21. Mart,Elementary,Matuzi?i,Federation Of Bosnia and Herzegovina,ZDK,Doboj Jug,44.69649,18.048945,38732691909,,
Safvet-beg Bašagi?,Elementary,Donja Mahala 42,Federation Of Bosnia and Herzegovina,ZDK,Visoko,43.990358,18.177246,38732738423,,
Kulin Ban,Elementary,Gornje Rosulje 1,Federation Of Bosnia and Herzegovina,ZDK,Visoko,43.988052,18.176903,38732731050,,
Mula Mustafa Baseskija,Elementary,Donje Moštre,Federation Of Bosnia and Herzegovina,ZDK,Visoko,44.02354,18.131581,38732740987,,
Musa ?azim ?ati? ,Elementary,Veliko ?ajno,Federation Of Bosnia and Herzegovina,ZDK,Visoko,44.024401,18.201443,38732745815,,
Mehmedalija Mak Dzidar,Elementary,Dobrinje,Federation Of Bosnia and Herzegovina,ZDK,Visoko,44.049924,18.112573,38732748008,,
Avdo Smajlovi?,Elementary,Islamovi?a 6,Federation Of Bosnia and Herzegovina,ZDK,Visoko,43.990383,18.177623,38732738790,,
Alija Nametak,Elementary,Buci 74 ,Federation Of Bosnia and Herzegovina,ZDK,Visoko,43.961375,18.182033,38732720147,,
Safvet-beg Bašagi?,Elementary,Branilaca grada b.b.,Federation Of Bosnia and Herzegovina,ZDK,Breza,44.010181,18.255998,38732789030,,
Enver ?olakovi?,Elementary,Šehidska broj 32,Federation Of Bosnia and Herzegovina,ZDK,Breza,44.022596,18.265688,38732789350,,
Vareš ,Elementary,?ure ?akovi?a 50 ,Federation Of Bosnia and Herzegovina,ZDK,Vareš ,44.161919,18.325906,38732849250,,http://www.os-vares.com.ba/
Vareš Majdan,Elementary,Josipa ?upke 16,Federation Of Bosnia and Herzegovina,ZDK,Vareš ,44.137344,18.316105,38732843018,,
Olovo,Elementary,Prvomajska b.b.,Federation Of Bosnia and Herzegovina,ZDK,Olovo,44.129766,18.582563,38732825163,,
Hasan Kikic,Elementary,Solun,Federation Of Bosnia and Herzegovina,ZDK,Olovo,44.167008,18.543115,38732827002,,
Ivan fra Frano Juki?,Elementary,,Federation Of Bosnia and Herzegovina,ZDK,Usora,44.70012,17.976879,38732895272,,
Mustafa Ejubovi? - Šejh Jujo,Elementary,Šehovina bb,Federation Of Bosnia and Herzegovina,HNK,Mostar,43.332659,17.823106,38736576765,,https://modos.ba/
IV osnovna škola,Elementary,S.Šesti?a 23,Federation Of Bosnia and Herzegovina,HNK,Mostar,43.343524,17.815535,38736551463,,
VI osnovna škola,Elementary,A.Šanti?a 10,Federation Of Bosnia and Herzegovina,HNK,Mostar,43.344907,17.809512,38736580288,,
O.Š. Mujaga Komadina,Elementary,G.Vukovi?a 9,Federation Of Bosnia and Herzegovina,HNK,Mostar,43.334056,17.815334,38736578217,,
Centar za dje. i omla.sa pos.potr.Los Rosales,Elementary,Južni logor,Federation Of Bosnia and Herzegovina,HNK,Mostar,43.32435,17.823066,38736556581,,http://www.los-rosales.com/
Osnovna škola Blagaj - Mostar,Elementary,Blagaj bb,Federation Of Bosnia and Herzegovina,HNK,,43.258782,17.88797,38736572479,,
Osnovna škola Gnojnice - Mostar,Elementary,Gnojnice bb,Federation Of Bosnia and Herzegovina,HNK,,43.302486,17.844604,38736584598,,
O.Š. Omer Maksumi?-Podveležje-Mostar,Elementary,Podveležje bb,Federation Of Bosnia and Herzegovina,HNK,,43.308737,17.91155,38736560291,,
Osnovna škola Zalik - Mostar,Elementary,Sjeverni logor bb,Federation Of Bosnia and Herzegovina,HNK,,43.357502,17.812034,38736571113,,http://oszalik.com.ba/
Osnovna škola Vrap?i?i - Mostar,Elementary,Vrap?i?i bb,Federation Of Bosnia and Herzegovina,HNK,,43.373499,17.850007,38736582162,,
O.Š.Bijelo Polje - Potoci - Mostar,Elementary,Potoci bb,Federation Of Bosnia and Herzegovina,HNK,,43.401493,17.888932,38736556841,,
Osnovna škola Drežnica - Mostar,Elementary,Drežnica bb,Federation Of Bosnia and Herzegovina,HNK,,43.525465,17.715817,38736586235,,
O.Š.Suljo ?ili? - Jablanica,Elementary,Bokulja 28,Federation Of Bosnia and Herzegovina,HNK,,43.662493,17.756499,38736752801,,http://www.suljocilic.com.ba/
O.Š. Alija Isakovi? - Prozor,Elementary,Prozor bb,Federation Of Bosnia and Herzegovina,HNK,,43.820266,17.611894,38736770513,,
Prva osnovna škola - Konjic,Elementary,3. Mart,Federation Of Bosnia and Herzegovina,HNK,Konjic,43.654491,17.954709,38736734031,,
Druga osnovna škola - Konjic,Elementary,Musala bb,Federation Of Bosnia and Herzegovina,HNK,Konjic,43.650867,17.964467,38736726192,,
Osnovna škola ?elebi?i - Konjic,Elementary,?elebi?i bb,Federation Of Bosnia and Herzegovina,HNK,Konjic,43.684325,17.897218,38736721464,,
Osnovna škola Parsovi?i - Konjic,Elementary,Parsovi?i bb Polje,Federation Of Bosnia and Herzegovina,HNK,Konjic,43.770805,17.813957,38736741197,,
Osnovna škola Š?ipe - Prozor-Rama,Elementary,Š?ipe bb Polje,Federation Of Bosnia and Herzegovina,HNK,,43.82441,17.743661,38736285106,,
Osnovna škola Seonica - Konjic,Elementary,Seonica bb Polje,Federation Of Bosnia and Herzegovina,HNK,Konjic,43.738777,17.84135,38736742457,,
Osnovna škola Glavati?evo - Konjic,Elementary,Glavati?evo bb,Federation Of Bosnia and Herzegovina,HNK,Konjic,43.503452,18.104726,38736739044,,
Osnovna škola ?apljina - ?apljina,Elementary,Petra Krešimira IV,Federation Of Bosnia and Herzegovina,HNK,,43.111055,17.701448,38736806275,,
Prva osnovna škola Stolac - Stolac,Elementary,Stolac bb,Federation Of Bosnia and Herzegovina,HNK,,43.083377, 17.959429,38736854006,,
Me?unarodna osnovna škola Mostar,Elementary,N. Šubi?a Zrinjskog 2,Federation Of Bosnia and Herzegovina,HNK,,43.358586,17.814563,38736833410,,
O.Š. Antuna Branka Šimi?a (I),Elementary,Kraljice Katarine 38,Federation Of Bosnia and Herzegovina,HNK,,43.337996,17.801907,38736330552,,
III Osnovna škola,Elementary,Trg hrvatskih velikana bb,Federation Of Bosnia and Herzegovina,HNK,Mostar,43.342735,17.802143,38736318451,,
O.Š. Ili?i,Elementary,Ili?i bb,Federation Of Bosnia and Herzegovina,HNK,Mostar,43.3448,17.775588,38736330732,,
O.Š. Ivana Gunduli?a (V i VI),Elementary,Rudarska 87,Federation Of Bosnia and Herzegovina,HNK,Mostar,43.353912,17.799376,38736347196,,
O.Š. Silvija S. Kranj?evi?a (VIII),Elementary,Bleiburških žrtava 35,Federation Of Bosnia and Herzegovina,HNK,Mostar,43.34965,17.791783,38736311160,,
O.Š. Cim,Elementary,Tre?e cimske bojne,Federation Of Bosnia and Herzegovina,HNK,Mostar,43.35098,17.782768,38736341712,,
O.Š Petra Bakule (X),Elementary,Kralja Tomislava 9,Federation Of Bosnia and Herzegovina,HNK,Mostar,43.347957,17.799453,38736328675,,
O.Š. Ilije Jakovljevi?a,Elementary,Ante Star?evi?a bb,Federation Of Bosnia and Herzegovina,HNK,Mostar,43.352497,17.803746,38736324919,,
O.Š. za djecu s posebnim potrebama,Elementary,Nikole Šubi?a Zrinjskog bb,Federation Of Bosnia and Herzegovina,HNK,Mostar,,,38736313250,,
O.Š. Bartola Kaši?a Rodo? (IX),Elementary,Rude Hrozni?eka 46,Federation Of Bosnia and Herzegovina,HNK,Mostar,43.316412,17.816866,38736350128,,
O.Š. Marina Drži?a Buna,Elementary,Buna bb,Federation Of Bosnia and Herzegovina,HNK,Mostar,,,38736480510,,
O.Š. Kruševo,Elementary,Kruševo bb,Federation Of Bosnia and Herzegovina,HNK,Mostar,43.285679,17.753615,38736486380,,
O.Š. fra Didaka Bunti?a ?itluk,Elementary,?itluk bb,Federation Of Bosnia and Herzegovina,HNK,,43.227897,17.698069,38736642086,,
O.Š. ?erin ?itluk,Elementary,?erin bb,Federation Of Bosnia and Herzegovina,HNK,,43.269807,17.636775,38736652554,,
O.Š. Bijakovi?i - ?itluk,Elementary,Bijakovi?i bb,Federation Of Bosnia and Herzegovina,HNK,,43.190858,17.680488,38736651102,,
O.Š. Vladimira Pavlovi?a ?apljina,Elementary,?apljina bb,Federation Of Bosnia and Herzegovina,HNK,,43.113285,17.702626,38736805091,,
O.Š. “Lipanjske zore“ Viši?i,Elementary,Viši?i bb,Federation Of Bosnia and Herzegovina,HNK,,43.064885,17.710916,38736814066,,
Osnovna škola Stolac - Stolac,Elementary,Stolac bb,Federation Of Bosnia and Herzegovina,HNK,,43.083376,17.959411,38736853443,,
Osnovna škola Crni?i - Stolac,Elementary,Crni?i bb,Federation Of Bosnia and Herzegovina,HNK,,43.126174,17.857986,38736862235,,
Osnovna škola Ravno - Ravno,Elementary,Ravno bb,Federation Of Bosnia and Herzegovina,HNK,,42.887737,17.963443,38736891525,,
O.Š. Kardinala Stepinca Neum,Elementary,Neum bb,Federation Of Bosnia and Herzegovina,HNK,,42.929304,17.616859,38736880017,,
O.Š. Marka Maruli?a Prozor,Elementary,Kralja Tomislava bb,Federation Of Bosnia and Herzegovina,HNK,,43.821866,17.607904,38736770070,,
O.Š. fra Jeronima Vladi?a Ripci - Prozor,Elementary,Ripci bb,Federation Of Bosnia and Herzegovina,HNK,,,,38736780675,,
O.Š. Ivana Mažurani?a Gra?ac - Rama,Elementary,Gra?ac bb,Federation Of Bosnia and Herzegovina,HNK,,43.728065,17.680841,38736784012,,
O.Š. Veselka Tenžere Uzdol - Rama,Elementary,Uzdol bb,Federation Of Bosnia and Herzegovina,HNK,,,,38736783004,,
Glazbena škola Brotnjo - ?itluk,Elementary,S.S.Kranj?evi?a 2,Federation Of Bosnia and Herzegovina,HNK,,43.227554,17.697559,38736644687,,
OŠ Harmani 1,Elementary,Harmanski Sokak 3,Federation Of Bosnia and Herzegovina,USK,,44.813877,15.867208,38737223292,os.harmani1@bih.net.ba,
OŠ Harmani 2,Elementary,Ešrefa Kova?evi?a bb,Federation Of Bosnia and Herzegovina,USK,,44.811716,15.865522,38737220198,harmani_2@hotmail.com,
OŠ Prekounje,Elementary,Safvet-bega Bašagi?a 26,Federation Of Bosnia and Herzegovina,USK,,44.817292,15.876488,38737311030,skola_prekounje@hotmail.com,
OŠ Gornje Prekounje Ripac,Elementary,Vejzovac bb,Federation Of Bosnia and Herzegovina,USK,,44.813933,15.883303,38737319231,os.gornjep@hotmail.com,
OŠ Kamenica,Elementary,Mula Mustafe Bašeskije bb,Federation Of Bosnia and Herzegovina,USK,,44.843671,15.829912,38737388142,os.kamenica@gmail.com,
OŠ Gata Ilidza Vrsta,Elementary,"Gata, Biha?",Federation Of Bosnia and Herzegovina,USK,,44.931559,15.810354,38737370310,skolagata.gata@gmail.com,
OŠ Brekovica,Elementary,Brekovica bb,Federation Of Bosnia and Herzegovina,USK,,44.880411,15.885134,38737302131,os.brekovica@bih.net.ba,
OŠ Kulen Vakuf - Orašac,Elementary,Trg žrtava 12. juni,Federation Of Bosnia and Herzegovina,USK,,44.627411,16.070285,38737365651,os.kulenvakuf.orasac@bih.net.ba,
KŠC 'Ivan Pavao II',Elementary,Ceravci bb,Federation Of Bosnia and Herzegovina,USK,,44.816814,15.850486,38737350850,ksc-bihac@net.hr,
Medjunarodna osnovna škola 'Richmond Park International Primary school' - Biha?,Elementary,Safvet-bega Bašagi?a,Federation Of Bosnia and Herzegovina,USK,,44.818598,15.877278,38737312902,bihac@rps.edu.ba,
Prva osnovna škola,Elementary,Trg Avde ?uka 36,Federation Of Bosnia and Herzegovina,USK,,44.882873,16.158731,38737471107,prvaosnovna_bk@yahoo.com,
Druga osnovna škola,Elementary,Zahum bb,Federation Of Bosnia and Herzegovina,USK,,44.885751,16.160608,38737472066,druga_osnovna_skola@hotmail.com,
OŠ 'Jezerski',Elementary,Jezerski bb,Federation Of Bosnia and Herzegovina,USK,,44.976092,16.09199,38737481063,osjezerski@hotmail.com,
OŠ Otoka,Elementary,Oto?kih heroja bb,Federation Of Bosnia and Herzegovina,USK,,44.962609,16.181094,38737477003,juotoka@bih.net.ba,
OŠ Ahmet Hromadži?,Elementary,V Korpusa bb,Federation Of Bosnia and Herzegovina,USK,,44.552688,16.368356,38737881047,skola.bp@bih.net.bos.buzim@bih.net.ba,
OŠ Bužim,Elementary,Generala Izeta Nani?a 35,Federation Of Bosnia and Herzegovina,USK,,45.063648,16.028758,38737410114,os.buzim@bih.net.ba,
OŠ Konjodor,Elementary,Konjodor bb,Federation Of Bosnia and Herzegovina,USK,,45.005641,16.0289,38737425089,os_konjodor@hotmail.com,
OŠ Mirsad Salki?,Elementary,?ava bb,Federation Of Bosnia and Herzegovina,USK,,45.027206,16.092354,38737423265,osmirsad.salkic@gmail.com,
OŠ Cazin I,Elementary,Hasana Mujeyinovi?a,Federation Of Bosnia and Herzegovina,USK,,44.96396,15.937528,38737514221,osnovna.skola.cazin.1@gmail.com,
OŠ Cazin II,Elementary,?uprija bb,Federation Of Bosnia and Herzegovina,USK,,44.967161,15.925122,38737539032,oscazin2@gmail.com,
OŠ ?orali?i,Elementary,?orali?i bb,Federation Of Bosnia and Herzegovina,USK,,44.982997,15.883709,38737536598,juoscoralici@gmail.com,
OŠ Gornja Koprivna,Elementary,Gornja Koprivna bb,Federation Of Bosnia and Herzegovina,USK,,45.01093,15.954915,38737550673,os.gornjakoprivna@bih.net.ba,
OŠ Liskovac,Elementary,Liskovac bb Pe?igrad,Federation Of Bosnia and Herzegovina,USK,,45.04447,15.846904,38737551008,mirsada.beganovic@hotmail.com,
OŠ Ostrožac,Elementary,Ostrožac bb,Federation Of Bosnia and Herzegovina,USK,,44.908346,15.93171,38737531159,juosostrozac@hotmail.com,
OŠ Pe?igrad,Elementary,Pe?igrad bb,Federation Of Bosnia and Herzegovina,USK,,45.053939,15.89726,38737540204,ospecigrad@hotmail.com,
OŠ Skokovi,Elementary,Skokovi bb,Federation Of Bosnia and Herzegovina,USK,,45.029848,15.915172,38737547302,os.skokovi@gmail.com,
OŠ Stijena,Elementary,Stijena bb,Federation Of Bosnia and Herzegovina,USK,,44.943729,16.020051,38737543536,osstijena@hotmail.com,
OŠ Šturli?,Elementary,Šturli? bb,Federation Of Bosnia and Herzegovina,USK,,45.058561,15.782533,38737555002,os.sturlic@gmail.com,
OŠ Trža?ka Raštela,Elementary,Trža?ka raštela bb,Federation Of Bosnia and Herzegovina,USK,,44.975897,15.78447,38737520033,juosrastela1@hotmail.com ,
OŠ Klju?,Elementary,Kulina bana bb,Federation Of Bosnia and Herzegovina,USK,,44.53332,16.77713,38737660127,os.kljuc@bih.net.ba,
OŠ Velagi?,Elementary,Velagi?i bb,Federation Of Bosnia and Herzegovina,USK,,44.559153,16.723689,38737647712,ju.os.velagici@gmail.com,
OŠ Sanica,Elementary,Sanica,Federation Of Bosnia and Herzegovina,USK,,44.615467,16.642678,38737671008,skola.sanica@hotmail.com,
Prva osnovna škola,Elementary,Ibrahima Mržljaka 27,Federation Of Bosnia and Herzegovina,USK,,45.185166,15.80441,38737773811,prvaosnovnaskola.vk@gmail.com,
OŠ 25. Novembar,Elementary,Biha?kih brigada 7,Federation Of Bosnia and Herzegovina,USK,,45.183053,15.811749,38737770208,os.25.novembar@bih.net.ba,
OŠ Crvarevac,Elementary,"Crvarevac, Zborište bb",Federation Of Bosnia and Herzegovina,USK,,45.128627,15.992269,38737725632,juos.crvarevac@yahoo.se,
OŠ Donja Vidovska,Elementary,Donja Vidovska,Federation Of Bosnia and Herzegovina,USK,,45.128313,15.815685,38737723331,os.donjavidovska@hotmail.com ,
OŠ Sead ?ehi?,Elementary,"Grahovo, Mala Kladuša",Federation Of Bosnia and Herzegovina,USK,,45.141381,15.842332,38737720504,osseadcehic@hotmail.com,
OŠ Podzvizd,Elementary,Podzvizd bb,Federation Of Bosnia and Herzegovina,USK,,45.18082,15.873527,38737718923,podzvizd@bih.net.ba,
OŠ Fadil Bilal,Elementary,Šumatac bb,Federation Of Bosnia and Herzegovina,USK,,45.097419,15.858521,38737713448,os.fadilbilal@bih.net.ba,
OŠ Todorovska Slapnica,Elementary,Todorovska slapnica bb Vrnogra?,Federation Of Bosnia and Herzegovina,USK,,45.129923,15.909253,38737728388,os.todslapnica@bih.net.ba,
OŠ Todorovo,Elementary,Todorovo bb,Federation Of Bosnia and Herzegovina,USK,,45.084282,15.92986,38737716858,os_todorovo@hotmail.com,
OŠ 1. Mart,Elementary,Vrnogra? bb,Federation Of Bosnia and Herzegovina,USK,,45.16342,15.954978,38737710481,os1mart.vrnograc@gmail.com ,
OŠ 5. Oktobar,Elementary,"Naselje 17, Viteške bb",Federation Of Bosnia and Herzegovina,USK,,44.768872,16.655601,38737686172,oss.5.oktobar@bih.net.ba,
OŠ Hasan Kiki?,Elementary,Klju?ka 23,Federation Of Bosnia and Herzegovina,USK,,44.763475,16.668178,38737685271,hasankikic_sa@hotmail.com,
OŠ Prva sanska škola,Elementary,Banjalu?ka bb,Federation Of Bosnia and Herzegovina,USK,,44.768522,16.673879,38737689437,os.prvasanskaskola@hotmail.com,
OŠ Mahala,Elementary,Hamzibegova mahala bb,Federation Of Bosnia and Herzegovina,USK,,44.75623,16.668927,38737681989,os.mahala@gmail.com,
OŠ Skender Kulenovi?,Elementary,Donji kamengrad bb,Federation Of Bosnia and Herzegovina,USK,,44.787172,16.574918,38737695040,skulenovic@live.com,
OŠ Fajtovci,Elementary,Fajtovci,Federation Of Bosnia and Herzegovina,USK,,44.79045,16.51349,38737698404,sekretar@osfajtovci.com,
OŠ Vrhpolje,Elementary,Vrhpolje bb,Federation Of Bosnia and Herzegovina,USK,,44.685326,16.735685,38737692809,vrhpolje.skola@gmail.com,
Osnovna muzi?ka škola 'Avdo Smailovi?',Elementary,Seada Sofovi?a Sofe bb,Federation Of Bosnia and Herzegovina,BPK,,43.667971,18.97571,38738222422,muzicka.gorazde@gmail.com,
Osnovna škola 'Pra?a',Elementary,Trg Kemala Keme Hrve 1,Federation Of Bosnia and Herzegovina,BPK,,43.76259,18.763757,38738799104,juospraca@bih.net.ba,
Osnovna škola 'Hasan Tur?alo Brzi',Elementary,Omladinska 1,Federation Of Bosnia and Herzegovina,BPK,,43.639995,18.816293,3873824022,osbrzi@bih.net.ba,
Osnovna škola 'Fahrudin Fahro Baš?elija',Elementary,,Federation Of Bosnia and Herzegovina,BPK,Goražde,43.664339,18.972435,38738240750, juosffb@bih.net.ba,
Osnovna škola 'Husein ef. ?ozo',Elementary,Seada Sofovi?a Sofe 4,Federation Of Bosnia and Herzegovina,BPK,Goražde,43.668007,18.975281,38738221215,oshed@bih.net.ba,http://oshed.com.ba/
Osnovna škola 'Mehmedalija Mak Dizdar',Elementary,,Federation Of Bosnia and Herzegovina,BPK,,43.626841,18.958362,38738230553,mak000@bih.net.ba,
Osnovna škola 'Mehmedalija Mak Dizdar',Elementary,,Federation Of Bosnia and Herzegovina,BPK,,43.618621,18.912935,38738230553,mak000@bih.net.ba,
Osnovna škola 'Ustikolina',Elementary,,Federation Of Bosnia and Herzegovina,BPK,,43.581596,18.790197,38738518139,os_ustikolina@hotmail.com,
Osnovna škola 'Mehmedalija Mak Dizdar',Elementary,,Federation Of Bosnia and Herzegovina,BPK,,43.665531,18.886515,38738825163,mak000@bih.net.ba,
Osnovna škola Marka Maruli?a – Ljubuški,Elementary,Zrinsko-frankopanska bb,Federation Of Bosnia and Herzegovina,ZHK,,43.196112,17.543845,38739833724,os.marko.marulic.ljubuski@tel.net.ba ,http://os-markamarulica.info/
Osnovna škola Ivane Brli? Mažurani? – Ljubuški,Elementary,Humac,Federation Of Bosnia and Herzegovina,ZHK,,43.182619,17.526955,38739831315,oshumac@tel.net.ba ,
Osnovna škola Tina Ujevi?a – Vitina,Elementary,Vitina,Federation Of Bosnia and Herzegovina,ZHK,,43.239555,17.480938,38739841651,os.vitina@tel.net.ba ,
Osnovna škola Ante Brune Buši?a - Rakitno,Elementary,Pokle?ani bb,Federation Of Bosnia and Herzegovina,ZHK,,43.549905,17.42871,38739692410, os.abb@rakitno.net ,
Osnovna škola Franica Dall'era – Vir,Elementary,Me?et bb,Federation Of Bosnia and Herzegovina,ZHK,,43.52391,17.204688,38739691291,os.vir@tel.net.ba ,
Osnovna škola Ivana Mažurani?a- Posušje,Elementary,Šimuna ?uture 16,Federation Of Bosnia and Herzegovina,ZHK,,43.472142,17.330803,38739681023,o.s.posusje@tel.net.ba ,
Osnovna škola Ru?era Boškovi?a -Grude,Elementary,Ivana Alilovi?a bb,Federation Of Bosnia and Herzegovina,ZHK,,43.3694,17.415917,38739662329,os.grude@tel.net ,
Osnovna škola Antuna Branka i Stanislava Šimi?a - Drinovci,Elementary,Središte 203,Federation Of Bosnia and Herzegovina,ZHK,,43.360839,17.322715,38739672520,osdrinovci@gmail.com ,
Osnovna škola fra. Stipana Vrlji?a - Sovi?i,Elementary,,Federation Of Bosnia and Herzegovina,ZHK,,43.405752,17.322056,38739670062,os.sovici@tel.net.ba ,
Prva osnovna škola – Široki Brijeg,Elementary,Augusta Šenoe 6,Federation Of Bosnia and Herzegovina,ZHK,,43.377612,17.586251,38739703359,prvaosnovnasb@gmail.com ,
Druga osnovna škola – Široki Brijeg,Elementary,,Federation Of Bosnia and Herzegovina,ZHK,,43.378375,17.604844,38739704590,druga.ossb@yahoo.com ,
Osnovna škola Ko?erin,Elementary,Ko?erin bb,Federation Of Bosnia and Herzegovina,ZHK,,43.389618,17.484661,38739711213,oskocerin@gmail.com ,www.os-kocerin.com
Osnovna škola Biograci,Elementary,Biograci,Federation Of Bosnia and Herzegovina,ZHK,,43.323011,17.674317,38739713417,os.biograci@wic.ba,
Osnovna škola Vrani?,Elementary,Vrani? bb,Federation Of Bosnia and Herzegovina,ZHK,,43.42953,17.409632,38739694355,,
JU OŠ “Banovi?i” Banovi?i,Elementary,Omladinskih radnih brigada 4,Federation Of Bosnia and Herzegovina,TK,Banovi?i,44.404569,18.525017,38735876214,os.banovici@bih.net.ba,
JU OŠ 'Grivice' Banovi?i,Elementary,Boži?ka 4  Banovi?i,Federation Of Bosnia and Herzegovina,TK,Banovi?i,44.40847,18.526421,38735871150,juos.grivice@bih.net.ba,www.grivice.com
JU OŠ “Seona” Aljkovi?i,Elementary,Aljkovi?i bb,Federation Of Bosnia and Herzegovina,TK,Banovi?i,44.43451,18.377131,38735883440,os.seona@bih.net.ba,
JU OŠ 'Banovici Selo' Banovi?i Selo,Elementary,Banovi?i Selo bb,Federation Of Bosnia and Herzegovina,TK,Banovi?i,44.405161,18.443896,38735872105,banovici.s.s@bih.net.ba,www.skola-banovici-selo.com
JU OŠ “Treštenica” Treštenica,Elementary,Treštenica bb,Federation Of Bosnia and Herzegovina,TK,Banovi?i,44.436919,18.455906,38735890445,os.trestenica@bih.net.ba,
JU OŠ “?eli?” ?eli?,Elementary,Alije Izetbegovi?a 61,Federation Of Bosnia and Herzegovina,TK,?eli?,44.721589,18.82079,38735660111,os.celic@gmail.com,
JU OŠ “Humci” Humci,Elementary,Odreda Vjetrenik 8 Donji Humci,Federation Of Bosnia and Herzegovina,TK,?eli?,44.685577,18.698846,38735669750,kitovnica@yahoo.com,
JU OŠ “Vraži?i” Vraži?i,Elementary,Vraži?i bb,Federation Of Bosnia and Herzegovina,TK,?eli?,44.738314,18.754755,38735663090,skola_vrazici@bih.net.ba,www.osvrazici.com.ba
JU OŠ “Brijesnica” Brijesnica Velika,Elementary,Brijesnica Velika bb,Federation Of Bosnia and Herzegovina,TK,Doboj - istok,44.722301,18.207595,38735723454,juosvbrijesnica@bih.net.ba,www.osbrijesnica.com.ba
JU OŠ “Klokotnica” Klokotnica,Elementary,Klokotnica bb,Federation Of Bosnia and Herzegovina,TK,Doboj - istok,44.725784,18.187209,38735722121,skola.klokotnica@bih.net.ba,www.juosklokotnica.edu.ba
JU OŠ “Gornja Orahovica” Gornja Orahovica,Elementary,Gornja Orahovica bb,Federation Of Bosnia and Herzegovina,TK,Gra?anica,44.687641,18.395285,38735710250,juos_gorahovica@yahoo.com,
JU Druga osnovna škola Gra?anica,Elementary,Patriotske lige bb,Federation Of Bosnia and Herzegovina,TK,Gra?anica,44.695515,18.298807,38735708333,drugaosgracanica@bih.net.ba,www.drugaosgracanica.com.ba
JU OŠ “Doborovci” Doborovci,Elementary,Doborovci bb,Federation Of Bosnia and Herzegovina,TK,Gra?anica,44.752376,18.396375,38735798061,juosdoborovci@bih.net.ba,
JU OŠ “Džakule” Džakule,Elementary,Džakule bb,Federation Of Bosnia and Herzegovina,TK,Gra?anica,44.773951,18.389486,38735719663,juosdzakule@wirac.ba,
JU OŠ “Lukavica” Lukavica,Elementary,Lukavica bb,Federation Of Bosnia and Herzegovina,TK,Gra?anica,44.763922,18.185549,38735729106,skola000@bih.net.ba ,
JU OŠ “Maleši?i” Maleši?i,Elementary,Malešici bb,Federation Of Bosnia and Herzegovina,TK,Gra?anica,44.737378,18.274446,38735796061,juosmalesici@hotmail.com,www.juosmalesicicjb.net
JU OŠ “Miri?ina” Miri?ina,Elementary,Miri?ina bb,Federation Of Bosnia and Herzegovina,TK,Gra?anica,44.61949,18.405118,38735716336,juosmiricina@yahoo.com,
JU OŠ “Orahovica” Orahovica Donja,Elementary,Orahovica Donja  bb,Federation Of Bosnia and Herzegovina,TK,Gra?anica,44.642924,18.375821,38735712144,juosdorahovica@yahoo.com,
JU OŠ “Soko” Soko,Elementary,Soko bb,Federation Of Bosnia and Herzegovina,TK,Gra?anica,44.742408,18.338827,38735790282,juossoko@gmail.com,
JU OŠ “Stjepan Polje” Stjepan Polje,Elementary,Stjepan Polje bb,Federation Of Bosnia and Herzegovina,TK,Gra?anica,44.706715,18.250396,38735792019,osnovna.sk@bih.net.ba,www.osstjepanpolje.4t.com
JU OŠ “Hasan Kiki?” Gra?anica,Elementary,111 gra?ani?ke brigade 2,Federation Of Bosnia and Herzegovina,TK,Gra?anica,44.706367,18.311401,38735700430,has-ki@bih.net.ba,www.oshk.gracanica.net
JU OŠ “Hasan Kiki?” Grada?ac,Elementary,Vida 1 ,Federation Of Bosnia and Herzegovina,TK,Grada?ac,44.874386,18.407242,38735823615,oshkgra1@bih.net.ba,www.oshasankikic.com
JU OŠ 'Dr. Safvet-beg Bašagi?' Grada?ac,Elementary,Žrtava Srebrenice bb,Federation Of Bosnia and Herzegovina,TK,Grada?ac,44.877419,18.432307,38735821250,dauf@bih.net.ba,www.sbbgra.org
JU OŠ “Edhem Mulabdi?” Me?i?a Donja,Elementary,Me?i?a Donja bb,Federation Of Bosnia and Herzegovina,TK,Grada?ac,44.802607,18.411862,38735869026,skolaemc@bih.net.ba,
JU OŠ “Hamdija Kreševljakovi?” Kamberi,Elementary,Kamberi bb – Mionica II,Federation Of Bosnia and Herzegovina,TK,Grada?ac,44.860209,18.488101,38735857243,juos.hk@gmail.com,
JU OŠ “Ivan Goran Kova?i?” Grada?ac,Elementary,Husein-kapetana Gradaš?evi?a 53,Federation Of Bosnia and Herzegovina,TK,Grada?ac,44.877829,18.422798,38735821240,senad.hecim@gmail.com,www.kovacic.com
JU OŠ “Musa ?azim ?ati?” Zelinja Donja,Elementary,Zelinja Donja 196,Federation Of Bosnia and Herzegovina,TK,Grada?ac,44.827775,18.39417,38735829800,os_sk_ze@bih.net.ba,www.geocities.com/musa2001.ba
JU OŠ “Mebmed-beg Kapetanovi? Ljubušak” Srnice Donje,Elementary,Srnice Donje bb,Federation Of Bosnia and Herzegovina,TK,Grada?ac,44.7921,18.47477,38735858004,juos.ljubusak@bih.net.ba,
JU OŠ “Kalesija” Kalesija,Elementary,Patriotske lige bb,Federation Of Bosnia and Herzegovina,TK,Kalesija,44.442586,18.875858,38735610080,os.kalesija@neon.ba,www.os.kalesija.com
JU OŠ “Rainci Gornji” Rainci Gornji,Elementary,Rainci Gornji bb,Federation Of Bosnia and Herzegovina,TK,Kalesija,44.466504,18.815642,38735638099,osrainci@bih.net.ba,www.os-raincigornji.npage.eu
JU OŠ “Tojši?i” Tojši?i,Elementary,Centar bb Tojši?i,Federation Of Bosnia and Herzegovina,TK,Kalesija,44.479957,18.787837,38735635635,juos.toj@bih.net.ba  ,www.ostojsici.com
JU OŠ “Vukovije” Vukovije,Elementary,Gornje Vukovije bb,Federation Of Bosnia and Herzegovina,TK,Kalesija,44.465915,18.765116,38735611670,osvukovije@hotmail.com,
JU OŠ „Memi?i” Memi?i,Elementary,Memi?i bb,Federation Of Bosnia and Herzegovina,TK,Kalesija,44.425909,18.927379,38735615218,skolamemici@gmail.com,
JU OŠ “Kladanj” Kladanj,Elementary,Kladanjskih brigada 28,Federation Of Bosnia and Herzegovina,TK,Kladanj,44.228546,18.696358,38735621094,kladanj@bih.net.ba,www.os-kladanj.edu.ba
JU OŠ “Stupari” Stupari,Elementary,Stupari bb,Federation Of Bosnia and Herzegovina,TK,Kladanj,44.31152,18.679273,38735622400,osstupari@gmail.com,
JU OŠ “Lukavac Mjesto” Lukavac,Elementary,Tuzlanskog partizanskog odreda bb,Federation Of Bosnia and Herzegovina,TK,Lukavac,44.540973,18.527405,38735553732,ooslukavacmjesto@hotmail.com,
JU OŠ “Lukavac Grad” Lukavac,Elementary,Derviša Suši?a bb Lukavac,Federation Of Bosnia and Herzegovina,TK,Lukavac,44.531936,18.537617,38735554199,os.lukavacgrad@bih.net.ba ,www.lukavac-grad.com.ba
JU OŠ “Gnojnica” Gnojnica,Elementary,Gnojnica bb,Federation Of Bosnia and Herzegovina,TK,Lukavac,44.61804,18.445958,38735575230,osgnojnica@gmail.com,
JU OŠ “Poljice” Poljice,Elementary,Poljice bb,Federation Of Bosnia and Herzegovina,TK,Lukavac,44.479519,18.489287,38735540698,skolapoljice@gmail.com,www.poljice.ba
JU OŠ “Prokosovi?i” Prokosovi?i,Elementary,Prokosovi?i bb,Federation Of Bosnia and Herzegovina,TK,Lukavac,44.514528,18.485009,38735561123,osprokosovici@yahoo.com,www.osprokosovici.info
JU OŠ “Pura?i?” Pura?i?,Elementary,Školska bb Pura?i?,Federation Of Bosnia and Herzegovina,TK,Lukavac,44.546265,18.478248,38735562255,os.puracic.bb@gmail.com,
JU OŠ “Dobošnica” Dobošnica,Elementary,Donja Dobošnica bb,Federation Of Bosnia and Herzegovina,TK,Lukavac,44.583926,18.447438,38735577078,os.dobos@yahoo.com,
JU OŠ “Turija” Turija,Elementary,Turija bb,Federation Of Bosnia and Herzegovina,TK,Lukavac,44.513011,18.419287,38735564087,osturija@yahoo.com,
JU OŠ “Sapna” Sapna,Elementary,206. viteške brigade bb,Federation Of Bosnia and Herzegovina,TK,Sapna,44.490905,19.002049,38735599015,os.sapna@bih.net.ba,www.os.sapna.ba
JU Druga osnovna škola Srebrenik,Elementary,Meše Selimovi?a bb,Federation Of Bosnia and Herzegovina,TK,Srebrenik,44.705867,18.498955,38735647091,druga.osnovna@bih.net.ba,
JU OŠ “Duboki Potok” Duboki Potok,Elementary,Duboki Potok bb,Federation Of Bosnia and Herzegovina,TK,Srebrenik,44.666876,18.502342,38735653098,os.dpotok@osdpotok.edu.ba,
JU OŠ “Podorašje” Podorašje,Elementary,Podorašje bb,Federation Of Bosnia and Herzegovina,TK,Srebrenik,44.637708,18.590248,38735651979,os.pod@hotmail.com,
JU OŠ “Špionica” Špionica,Elementary,Špionica bb,Federation Of Bosnia and Herzegovina,TK,Srebrenik,44.756729,18.486892,38735650022,spionica27@gmail.com,
JU Prva osnovna škola Srebrenik,Elementary,Alije Izetbegovi?a 2,Federation Of Bosnia and Herzegovina,TK,Srebrenik,44.705474,18.489802,38735647260,besacica@yahoo.com,www.prvaos.net
JU OŠ “Rapatnica” Rapatnica,Elementary,Novo naselje Luka bb,Federation Of Bosnia and Herzegovina,TK,Srebrenik,44.701375,18.475391,38735696054,o.s.rapatnica@bih.net.ba,
JU OŠ “Sladna” Sladna,Elementary,Sladna bb,Federation Of Bosnia and Herzegovina,TK,Srebrenik,44.728928,18.426061,38735654254,ossladna@hotmail.com ,
JU OŠ “Tinja” Tinja,Elementary,Tinja bb,Federation Of Bosnia and Herzegovina,TK,Srebrenik,44.637214,18.554244,38735651619,os.tinja@bih.net.ba,
JU OŠ “Teo?ak” Teo?ak,Elementary,Teo?ak,Federation Of Bosnia and Herzegovina,TK,Teo?ak,44.601499,18.981005,38735755517,os.teocak@bih.net.ba,www.osteocak.com.ba
JU Osnovna muzicka škola Tuzla,Elementary,Ludvika Kube 1,Federation Of Bosnia and Herzegovina,TK,Tuzla,44.536494,18.683811,38735252005,omskola.tz@gmail.com,
JU OŠ “Breške” Breške,Elementary,Breške bb,Federation Of Bosnia and Herzegovina,TK,Tuzla,44.611165,18.653685,38735812218,osbreske@gmail.com,
JU OŠ “Bukinje” Bukinje,Elementary,Vojka Milovanovi?a 46 Bukinje,Federation Of Bosnia and Herzegovina,TK,Tuzla,44.522869,18.600756,38735215414,os.bukinje@gmail.com,
JU OŠ “Husino” Tuzla,Elementary,27.jula 9,Federation Of Bosnia and Herzegovina,TK,Tuzla,44.513768,18.614469,38735802015,nedimsivcevic@yahoo.com ,www.husino.ioskole.net
JU OŠ “Jala” Tuzla,Elementary,Muharema Fizovi?a 2,Federation Of Bosnia and Herzegovina,TK,Tuzla,44.531495,18.686771,38735272598,os_jala@hotmail.com,
JU OŠ “Kiseljak” Kiseljak,Elementary,1. Maja 117,Federation Of Bosnia and Herzegovina,TK,Tuzla,44.490267,18.569868,38735382184,oskiseljak@hotmail.com,
JU OŠ “Kreka” Tuzla,Elementary,Bosne Srebrene 119,Federation Of Bosnia and Herzegovina,TK,Tuzla,44.533479,18.657529,38735227047,oskreka@yahoo.com,
JU OŠ „Lipnica” Lipnica,Elementary,S. Matijevi?a 2,Federation Of Bosnia and Herzegovina,TK,Tuzla,44.570087,18.612136,38735806220,juos.lipnica@bih.net.ba,
JU OŠ “Miladije” Tuzla,Elementary,Hasana Kikica 7,Federation Of Bosnia and Herzegovina,TK,Tuzla,44.526031,18.641635,38735398075,os_miladije@hotmail.com,www.osmiladije.com
JU OŠ “Mramor” Mramor,Elementary,"Rudarska 149, Stari Mramor",Federation Of Bosnia and Herzegovina,TK,Tuzla,44.578139,18.563951,38735810414,adem_bajric@hotmail.com,www.freewebsmramoros.com
JU OŠ “Pasci” Pasci,Elementary,"Pasci Donji bb, Par Selo ",Federation Of Bosnia and Herzegovina,TK,Tuzla,44.49461,18.668881,38735318121,muhamed_odobasic@yahoo.com ,
JU OŠ “Pazar” Tuzla,Elementary,Pazar 1,Federation Of Bosnia and Herzegovina,TK,Tuzla,44.538888,18.669171,38735270045,os.pazar@bih.net.ba,www.ospazar.edu.ba
JU OŠ “Simin Han” Tuzla,Elementary,Sarajac 4,Federation Of Bosnia and Herzegovina,TK,Tuzla,44.52449,18.743863,38735312921,senadap@multicom.ba ,www.multicom.ba/siminhan
JU OŠ “Slavinovi?i” Tuzla,Elementary,Žarka Vukovi?a Pucara 15,Federation Of Bosnia and Herzegovina,TK,Tuzla,44.529701,18.717841,38735225765,osslavin@yahoo.com,
JU OŠ “Solina” Tuzla,Elementary,Veljka Luki?a Kurjaka 167,Federation Of Bosnia and Herzegovina,TK,Tuzla,44.567866,18.693296,38735269424,skola.solina@bih.net.ba,
JU OŠ “Tušanj” Tuzla,Elementary,4. Jula 29,Federation Of Bosnia and Herzegovina,TK,Tuzla,44.543089,18.66214,38735311051,tusanj@hotmail.com,www.os-tusanj.tk
JU OŠ “Br?anska Malta” Tuzla,Elementary,Miroslava Krleže 27,Federation Of Bosnia and Herzegovina,TK,Tuzla,44.538628,18.695868,38735362990,b.malta@bih.net.ba,
JU OŠ “Centar” Tuzla,Elementary,Mirze Delibaši?a 14,Federation Of Bosnia and Herzegovina,TK,Tuzla,44.536277,18.683784,38735275120,oscentar@bih.net.ba,
JU OŠ “Gornja Tuzla” Gornja Tuzla,Elementary,Abdurahmana Sara?evi?a 163,Federation Of Bosnia and Herzegovina,TK,Tuzla,44.556716,18.761571,38735391003,osgt@wispi.ba,
JU OŠ “Mejdan” Tuzla,Elementary,Muftije-efendije Kurta bb,Federation Of Bosnia and Herzegovina,TK,Tuzla,44.536334,18.664878,38735315370,osmejdan@bih.net.ba,http://mejdan.cjb.net
JU OŠ “Novi Grad” Tuzla,Elementary,DR.Ivana Ribara 17,Federation Of Bosnia and Herzegovina,TK,Tuzla,44.532055,18.694272,38735250851,ngrad@bih.net.ba,www.osngtz.edu.ba
JU OŠ “Podrinje” Mihatovi?i,Elementary,Mihatovi?i bb,Federation Of Bosnia and Herzegovina,TK,Tuzla,44.53948,18.564039,38735216285,skola.podrinje@gmail.com,
JU OŠ 'Sveti Franjo' Tuzla,Elementary,Klosterska 10,Federation Of Bosnia and Herzegovina,TK,Tuzla,44.536614,18.680785,38735300842,direktor.os@ksc-tuzla.edu.ba,www.ksc-tuzla.edu.ba
JU Zavod za odgoj i obrazovanje djece sa smetnjama u psihi?kom i tjelesnom razvoju Tuzla,Elementary,Kre?anska 5,Federation Of Bosnia and Herzegovina,TK,Tuzla,44.538119,18.658072,38735281427,muratovicdamir@gmail.com,
JU OŠ “Sjenjak” Tuzla,Elementary,Ismeta Mujezinovi?a bb,Federation Of Bosnia and Herzegovina,TK,Tuzla,44.533119,18.704398,38735261666,ossjenjak@yahoo.com,www.juossjenjak.com.ba
JU Centar za obrazovanje i vaspitanje i rehabilitaciju slušanja i govora,Elementary,Husinskih rudara 161,Federation Of Bosnia and Herzegovina,TK,Tuzla,44.526997,18.635152,38735312390,gest.tuz@bih.net.ba,
JU Druga osnovna škola Živinice,Elementary,Druga ulica 46,Federation Of Bosnia and Herzegovina,TK,Živinice,44.445891,18.654079,38735775045,drugaosz@yahoo.com,www.drugaos.tk
JU OŠ “Bašigovci” Bašigovci,Elementary,Bašigovci bb,Federation Of Bosnia and Herzegovina,TK,Živinice,44.412588,18.696996,38735769473,juosbasigovci@hotmail.com,www.osbasigovci.web1000.com
JU OŠ “Dubrave” Dubrave,Elementary,Dubrave Donje bb,Federation Of Bosnia and Herzegovina,TK,Živinice,44.473776,18.699586,38735813014,osdubrave@gmail.com,www.os-dubrave.web1000.com
JU OŠ “?ur?evik” ?ur?evik,Elementary,?ur?evik bb,Federation Of Bosnia and Herzegovina,TK,Živinice,44.399324,18.663844,38735762095,red_huso@yahoo.com,www.juosdjurdjevik.tk
JU OŠ “Gra?anica” Gra?anica,Elementary,Gracanica Selo kod Živinica,Federation Of Bosnia and Herzegovina,TK,Živinice,44.397756,18.766121,3.87E+10,aljo_osgracanica@yahoo.com,
JU OŠ “Šeri?i” Šeri?i,Elementary,Šerici bb,Federation Of Bosnia and Herzegovina,TK,Živinice,44.470691,18.557778,38735760221,osserici@gmail.com,www.osserici.com
JU OŠ “Viš?a” Viš?a,Elementary,Viš?a bb,Federation Of Bosnia and Herzegovina,TK,Živinice,44.41755,18.622219,38735767248,viscaos@live.com,
JU Prva osnovna škola Živinice,Elementary,II Krajiške brigade 19,Federation Of Bosnia and Herzegovina,TK,Živinice,44.454768,18.644405,38735740056,prvaosnovnaskolazivinice@yahoo.com,www.prvaosnovna.i8.com
JU OŠ “Živinice Gornje”,Elementary,Gornje Živinice,Federation Of Bosnia and Herzegovina,TK,Živinice,44.440688,18.617168,38735770224,o.s.g.zivinice@live.com,
Osnovna Škola 'Karaula' Travnik,Elementary,?osi?i bb,Federation Of Bosnia and Herzegovina,SBK,,44.26466233,17.50478476,38730535050,os.karaula@hotmail.com,
Druga Osnovna Škola Bugojno Bugojno,Elementary,Ul. Armije BiH br. 7,Federation Of Bosnia and Herzegovina,SBK,,44.05269226,17.44907579,38730251702,drosskola@bih.net.ba,
Osnovna Muzi?ka Škola 'Bugojno' Bugojno,Elementary,Slobode 149,Federation Of Bosnia and Herzegovina,SBK,,44.0527,17.449076,38730251181,osmuzicka.bu@bih.net.ba,
Prva Osnovna Škola Bugojno Bugojno,Elementary,Hendek VII/2,Federation Of Bosnia and Herzegovina,SBK,,44.05903961,17.45232082,38730251700,prvaosbu@bih.net.ba,
Tre?a Osnovna Škola Bugojno Bugojno,Elementary,Jakli? br. 2,Federation Of Bosnia and Herzegovina,SBK,,44.0476803,17.45222148,38730251701,trosjaklic@hotmail.com,
Osnovna Škola 'Gra?anica' Bugojno,Elementary,Gra?anica kod Bugojna,Federation Of Bosnia and Herzegovina,SBK,,44.00226076,17.49492172,38730281036,gracanca@bih.net.ba ,
Osnovna Škola 'Drvetine' Bugojno,Elementary,Drvetine - Bugojno,Federation Of Bosnia and Herzegovina,SBK,,44.10275601,17.45154429,38730277343,drvetine@hotmail.com,
Osnovna Škola 'Bristovi' Bugojno,Elementary,Rostovska bb,Federation Of Bosnia and Herzegovina,SBK,,44.06535522,17.47649152,38730250692,skola.bristovi@bih.net.ba,
Osnovna Škola 'Busova?a' Busova?a,Elementary,Nikole Šubi?a Zrinjskog bb,Federation Of Bosnia and Herzegovina,SBK,,44.10025714,17.87987545,38730733095,o.s.busovaca@gmail.com,
Osnovna Škola Ka?uni Busova?a,Elementary,Ka?uni bb,Federation Of Bosnia and Herzegovina,SBK,,44.06860358,17.93794775,38730591019,deno.1111@hotmail.com,
"Prva Osnovna Škola', Donji Vakuf Donji Vakuf",Elementary,Vrbaska bb,Federation Of Bosnia and Herzegovina,SBK,,44.14050759,17.40225425,38730205115,prvaosdonjivakuf@hotmail.com,
"Tre?a Osnovna Škola', Oborci Donji Vakuf",Elementary,Oborci bb,Federation Of Bosnia and Herzegovina,SBK,,44.19464502,17.41942178,38730261005,osoborci@bih.net.ba,
Osnovna Škola 'Muhsin Rizvi?' Fojnica,Elementary,Novo naselje 7,Federation Of Bosnia and Herzegovina,SBK,,43.9590903,17.90223652,38730831855,osmuhsinrizvic@bih.net.ba,
Osnovna Škola 'Gornji Vakuf' Gornji Vakuf - Uskoplje,Elementary,Omladinska bb,Federation Of Bosnia and Herzegovina,SBK,,43.93991548,17.59017375,38730265658,emirsin@yahoo.com,
Osnovna Škola 'Uskoplje' Gornji Vakuf - Uskoplje,Elementary,Bana Jela?i?a bb,Federation Of Bosnia and Herzegovina,SBK,,43.93734361,17.58189189,38730494018,os.uskoplje@tel.net.ba,
Osnovna Škola 'Gromiljak' Kiseljak,Elementary,Gromiljak bb,Federation Of Bosnia and Herzegovina,SBK,,43.96666803,18.0544354,38730877462,os.gromiljak@gmail.com,
Osnovna Škola 'Kiseljak 1' Bilalovac Kiseljak,Elementary,Bilalovac,Federation Of Bosnia and Herzegovina,SBK,,43.94220162,18.07753897,38730594005,oskiseljak1bilalovac@hotmail.com,
Osnovna Škola 'Dr. Boris ?ori?' Kreševo,Elementary,Fra Grge Marti?a 124,Federation Of Bosnia and Herzegovina,SBK,,43.86594657,18.04004456,38730806710,o.s.kresevo@gmail.com,
Osnovna Glazbena Škola Jakova Gotovca Novi Travnik Novi Travnik,Elementary,Stjepana Tomaševi?a bb,Federation Of Bosnia and Herzegovina,SBK,,44.17107685,17.65566999,38730791182,glazbena.skola-jakova.gotovca@tel.net.ba,
Osnovna Škola 'Novi Travnik' Novi Travnik,Elementary,Ljudevita Gaja bb,Federation Of Bosnia and Herzegovina,SBK,,44.17205946,17.65851731,38730793027,os.novi.travnik@tel.net.ba,
Osnovna Škola 'Safvet-Beg Bašagi?' Novi Travnik,Elementary,Omladinska bb,Federation Of Bosnia and Herzegovina,SBK,,44.16909292,17.65096017,38730525013,oskolasafvetn.tr@bih.net.ba,
Osnovna Muzi?ka Škola Travnik Travnik,Elementary,Luka?ka 6,Federation Of Bosnia and Herzegovina,SBK,,44.22493508,17.6634283,38730512130,muzickaskolatr@bih.net.ba,
Osnovna Škola 'Dolac' Travnik,Elementary,Dolac na Lašvi bb,Federation Of Bosnia and Herzegovina,SBK,,44.21725504,17.69059206,38730540737,os.skoladolac@bih.net.ba,
Osnovna Škola 'Gu?a Gora' Travnik,Elementary,Gu?a Gora bb,Federation Of Bosnia and Herzegovina,SBK,,44.24341613,17.73526607,38730560019,os.gucagora@bih.net.ba,
Osnovna Škola 'Han Bila' Travnik,Elementary,Han Bila bb,Federation Of Bosnia and Herzegovina,SBK,,44.23732548,17.75954881,38730562402,skola-hb@bih.net.ba,
Osnovna Škola 'Kalibunar' Travnik,Elementary,Vjekoslava Karas bb,Federation Of Bosnia and Herzegovina,SBK,,44.23189478,17.64176297,38730510442,oskola_kalibunar@bih.net.ba,
Osnovna Škola 'Mehuri?i' Travnik,Elementary,Mehuri?I bb,Federation Of Bosnia and Herzegovina,SBK,,44.27195943,17.73457461,38730564402,osmehurici@bih.net.ba,
Osnovna Škola 'Travnik' Travnik,Elementary,Školska bb,Federation Of Bosnia and Herzegovina,SBK,,44.22524549,17.65521634,38730518697,ostravnik@bih.net.ba,
Osnovna Škola 'Turbe' Travnik,Elementary,Aleja bb,Federation Of Bosnia and Herzegovina,SBK,,44.24123971,17.57118207,38730530092,osskola.turbe@bih.net.ba,
Osnovna Škola 'Bila' Vitez,Elementary,Marosi b.b.,Federation Of Bosnia and Herzegovina,SBK,,44.17728603,17.75794403,38730716243,skolabila@gmail.com,
Osnovna Škola 'Dubravica' Vitez,Elementary,22. Prosinca bb,Federation Of Bosnia and Herzegovina,SBK,,44.15204397,17.80926284,38730712775,skola.dubravica@gmail.com,
Osnovna Škola 'Vitez' Vitez,Elementary,Josipa Kurevije bb (H),Federation Of Bosnia and Herzegovina,SBK,,44.15121733,17.79022753,38730711579,osnovnaskola.vitez@gmail.com,
Osnovna Škola ''Vitez'' Vitez,Elementary,Josipa Kurevije bb (B),Federation Of Bosnia and Herzegovina,SBK,,44.15196934,17.789918,38730710998,os-vitez@tel.net.ba,
Osnovna Škola 'Nova Bila' Nova Bila,Elementary,Nova Bila bb,Federation Of Bosnia and Herzegovina,SBK,,44.18889596,17.73849308,38730708057,osnovabila@yahoo.com,
Prva Osnovna Škola' Bugojno Bugojno,Elementary,Jakli? V/2,Federation Of Bosnia and Herzegovina,SBK,,44.04787016,17.45268347,38730253440,posbugojno@yahoo.com,
Osnovna Škola 'Berta Ku?era' Jajce,Elementary,Fra Antuna Kneževi?a 8,Federation Of Bosnia and Herzegovina,SBK,,44.34199355,17.27431675,38730654297,bertajajce@gmail.com,
Osnovna Škola '13. Rujan' Jajce,Elementary,Volijak bb,Federation Of Bosnia and Herzegovina,SBK,,44.34581829,17.26409989,38730654133,os.13.rujan@tel.net.ba,
Osnovna Škola 'Bra?a Jezer?i?' Divi?ani - Jajce Jajce,Elementary,Divi?ani,Federation Of Bosnia and Herzegovina,SBK,,44.36607371,17.32592996,38730654612,os.divicani@gmail.com,
Osnovna Škola 'Voljevac' Gornji Vakuf - Uskoplje,Elementary,Voljevac bb,Federation Of Bosnia and Herzegovina,SBK,,43.87805999,17.66073242,38730260567,osvoljevac@bih.net.ba,
Osnovna Škola 'Paji? Polje' Gornji Vakuf - Uskoplje,Elementary,Paji? Polje bb,Federation Of Bosnia and Herzegovina,SBK,,43.97709984,17.52589563,38730286827,ppolje@bih.net.ba,
Osnovna Škola 'Hasan Kjafija-Pruš?ak' Donji Vakuf,Elementary,Prusac bb,Federation Of Bosnia and Herzegovina,SBK,,44.09374231,17.37797801,38730271162,drugaosprusac@gmail.com,
?etvrta Osnovna Škola' Donji Vakuf,Elementary,Torlakovac,Federation Of Bosnia and Herzegovina,SBK,,44.23065759,17.31285772,38730275111,os.torlakovac@bih.net.ba,
Osnovna Škola 'Edhem Mulabdi?' Novi Travnik,Elementary,Opara,Federation Of Bosnia and Herzegovina,SBK,,44.0923753,17.65155679,38730527002,skola-opara@hotmail.com,
Osnovna Škola 'Mehmedalija Mak Dizdar' Novi Travnik,Elementary,Vodovod bb,Federation Of Bosnia and Herzegovina,SBK,,44.14617837,17.61290269,38730542931,os.mak@bih.net.ba,
Osnovna Škola 'Musa ?azim ?ati?' Novi Travnik,Elementary,Trenica,Federation Of Bosnia and Herzegovina,SBK,,44.14847575,17.66956171,38730529451,skolatrenica@bih.net.ba,
Osnovna Škola 'Fra Marijan Šunji?' Novi Travnik,Elementary,Stojkovi?i,Federation Of Bosnia and Herzegovina,SBK,,44.18676556,17.68548924,38730791063,osstojkovici@net.hr,
Osnovna Škola 'Ivan Goran Kova?i?' Gojevi?i-Fojnica Fojnica,Elementary,Gojevi?i bb,Federation Of Bosnia and Herzegovina,SBK,,43.91357275,17.94488459,38730803206,os.igk-gojevici@tel.net.ba,
"Osnovna Škola 'Dubravica', Preo?ica Vitez",Elementary,Preo?ica bb,Federation Of Bosnia and Herzegovina,SBK,,44.19113512,17.8142452,38730545442,os_dubravica@yahoo.com,
Osnovna Škola 'Kaonik' Busova?a,Elementary,Kaonik bb,Federation Of Bosnia and Herzegovina,SBK,,44.1185935,17.87487899,38730736058,oskaonik@gmail.com,
"Osnovna Škola 'Kiseljak 2', Zabr?e Kiseljak",Elementary,Zabr?e bb,Federation Of Bosnia and Herzegovina,SBK,,43.83991347,18.11435722,38730596200,oskis2zabrdje@bih.net.ba,
Osnovna Škola 'Kiseljak' Kiseljak,Elementary,Josipa bana Jela?i?a 42/A,Federation Of Bosnia and Herzegovina,SBK,,43.94220162,18.07753897,38730877358,os.kiseljak@tel.net.ba,
Osnovna Škola 'Brestovsko' Kiseljak,Elementary,Dugo Polje 52,Federation Of Bosnia and Herzegovina,SBK,,44.00749747,18.02830487,38730876063,os.brestovsko1@tel.net.ba,
Osnovna Škola 'Lepenica' Kiseljak,Elementary,Kuliješ 36,Federation Of Bosnia and Herzegovina,SBK,,43.87045781,18.14587146,38730873154,os.lepenica@tel.net.ba,
Osnovna Škola 'Vitovlje' Travnik,Elementary,Vitovlje bb,Federation Of Bosnia and Herzegovina,SBK,,44.3306805,17.4941484,38730539555,osvitovlje01@hotmail.com,
Osnovna Muzi?ka Škola Novi Travnik Novi Travnik,Elementary,Mehmeda Spahe 11 C,Federation Of Bosnia and Herzegovina,SBK,,44.17032508,17.65329312,38730525533,omsnovitravnik2010@gmail.com,
Katoli?ki Školski Centar 'Petar Barbari?' - Osnovna Škola Travnik Travnik,Elementary,Školska 1,Federation Of Bosnia and Herzegovina,SBK,,44.22539641,17.66188083,38730518823,ksctr@bih.net.ba,
Osnovna Škola ''Jajce'' Jajce,Elementary,Kruš?ica bb,Federation Of Bosnia and Herzegovina,SBK,,44.12957,17.786982,38730279568,osjajcekruscica@gmail.com,
Mješovita Srednja Škola Bugojno Bugojno,High School,Zlatnih Ljiljana bb,Federation Of Bosnia and Herzegovina,SBK,,44.05502348,17.44782234,38730260112,gimnazija_bug@yahoo.com,
Srednja Stru?na  Škola Bugojno,High School,Ciglane II,Federation Of Bosnia and Herzegovina,SBK,,44.05253224,17.43733308,38730252207,srednjastrucna@yahoo.com,
Srednja Tehni?ka Škola Bugojno,High School,Ciglane II,Federation Of Bosnia and Herzegovina,SBK,,44.05238396,17.4387525,38730251915,tehskolabu@hotmail.com,
Srednja Škola 'Busova?a' Busova?a,High School,Kulina bana bb,Federation Of Bosnia and Herzegovina,SBK,,44.10086168,17.87916574,38730732042,ssbusovaca@gmail.com,
Srednja Mješovita Škola 'Zijah Dizdarevi?' Fojnica,High School,Novo naselje 7,Federation Of Bosnia and Herzegovina,SBK,,43.96068638,17.90201776,38730544370,smszijahdizdarevic@gmail.com,
Srednja Škola 'Nikola Šop' Jajce,High School,Fra Antuna Kneževi?a 27,Federation Of Bosnia and Herzegovina,SBK,,44.34301168,17.27555469,38730654174,gimnazija.nikola.sop@tel.net.ba,
Srednja Strukovna Škola 'Jajce' Jajce,High School,Berte Ku?ere 3,Federation Of Bosnia and Herzegovina,SBK,,44.34712272,17.25353151,38730654273,ss-skola-jajce@tel.net.ba,
Srednja Strukovna Škola Fojnica U Kiseljaku Kiseljak,High School,Žrtava domovinskog rata 5,Federation Of Bosnia and Herzegovina,SBK,,43.94220162,18.07753897,38730879113,srednjaskolafoj@yahoo.com,
Srednja Škola 'Ivan Goran Kova?i?' Kiseljak Kiseljak,High School,Ul. Žrtava domovinskog rata 5,Federation Of Bosnia and Herzegovina,SBK,,43.94348196,18.07979395,38730879002,srednjaskolakis@yahoo.com,
Srednja Škola 'Kreševo' Kreševo,High School,Troska 2A,Federation Of Bosnia and Herzegovina,SBK,,43.86855,18.0539,38730800202,ss.kresevo@tel.net.ba,
Mješovita Srednja Škola' Novi Travnik Novi Travnik,High School,Omladinska bb,Federation Of Bosnia and Herzegovina,SBK,,44.1694029,17.64830704,38730525407,jasmina_ntr@hotmail.com,
Srednja Glazbena Škola Jakova Gotovca Novi Travnik,High School,Ljudevita Gaja bb,Federation Of Bosnia and Herzegovina,SBK,,44.17177899,17.6578985,38730791076,sr.gl.sk.jakova.gotovca@tel.net.ba,
Srednja Škola 'Novi Travnik' Novi Travnik,High School,Ljudevita Gaja bb,Federation Of Bosnia and Herzegovina,SBK,,44.1717231,17.65731864,38730793504,ss-novi.travnik@tel.net.ba,
Mješovita Srednja Ekonomsko-Ugostiteljska Škola Travnik,High School,Školska 3,Federation Of Bosnia and Herzegovina,SBK,,44.22569446,17.6569607,38730541621,mseus@bih.net.ba,
Mješovita Srednja Škola 'Travnik' Travnik,High School,Školska 3,Federation Of Bosnia and Herzegovina,SBK,,44.22535026,17.66231183,38730511059,mss.travnik@bih.net.ba,
Mješovita Srednja Tehni?ka Škola Travnik Travnik,High School,Školska bb,Federation Of Bosnia and Herzegovina,SBK,,44.22570087,17.65685096,38730510280,psecurity@msts-travnik.net,
Srednja Škola 'Vitez' Vitez,High School,Ilije Petrovi?a bb,Federation Of Bosnia and Herzegovina,SBK,,44.15107518,17.78905149,38730711336,ss.vitez@tel.net.ba,
Mješovita Srednja Škola 'Vitez' Vitez,High School,Ilije Petrovi?a bb,Federation Of Bosnia and Herzegovina,SBK,,44.15144823,17.78892773,38730717540,mss.vitez.kruscica@tel.net.ba,
Mješovita Srednja Škola ''Gornji Vakuf' Gornji Vakuf - Uskoplje,High School,Gradska bb,Federation Of Bosnia and Herzegovina,SBK,,43.93926314,17.58144622,38730265654,mssgv@yahoo.com,
Srednja Škola 'Uskoplje' Gornji Vakuf - Uskoplje,High School,Gradska bb,Federation Of Bosnia and Herzegovina,SBK,,43.93879365,17.58111609,38730494039,sskola.uskoplje@tel.net.ba,
"Mješovita Srednja Škola, Donji Vakuf Donji Vakuf",High School,Žrtava genocida u Srebrenici,Federation Of Bosnia and Herzegovina,SBK,,44.14045112,17.40191754,38730205355,mssdvakuf@bih.net.ba,
Srednja Škola 'Travnik' Nova Bila Travnik,High School,Nova Bila,Federation Of Bosnia and Herzegovina,SBK,,44.18918591,17.73756042,38730707486,ss.travnik@tel.net.ba,
Mješovita Srednja Škola Busova?a Busova?a,High School,Kulina bana bb,Federation Of Bosnia and Herzegovina,SBK,,44.10062683,17.88044054,38730593155,mail@mssbusovaca.com.ba,
Katoli?ki Školski Centar 'Petar Barbari?' - Gimnazija Travnik Travnik,High School,Školska 1,Federation Of Bosnia and Herzegovina,SBK,,44.22536681,17.66163326,38730518823,ksctr@bih.net.ba,
El?i Ibrahim-Pašina Medresa U Travniku Travnik,High School,Mostarska bb,Federation Of Bosnia and Herzegovina,SBK,,44.229,17.67408,38730548550,medresa@gmail.com,
Osnovna škola Orašje,Elementary,XI. ulica br. 2,Federation Of Bosnia and Herzegovina,PK,,45.034693,18.689056,38731712137,osnovnaskolaorasje@gmail.com,
Ru?era Boškovi?a,Elementary,Školska 33,Federation Of Bosnia and Herzegovina,PK,,45.043871,18.66735,38731713045,os.donja.mahala@tel.net.ba,www.tel.net.ba/oskola-d.mahala
Antuna Gustava Matoša,Elementary,J.B.Jela?i?a 141,Federation Of Bosnia and Herzegovina,PK,,44.979442,18.736075,38731731332,,www.tel.net.ba/os-vidovice
Stjepana Radi?a Oštra Luka-Bok,Elementary,Filipovi?i 55,Federation Of Bosnia and Herzegovina,PK,,45.008064,18.62237,38731772029,os.stjepanaradic.ol@tel.net.ba,
Bra?e Radi?a,Elementary,Posavskih branitelja 41,Federation Of Bosnia and Herzegovina,PK,,45.06435,18.576848,38731791055,os.domaljevac@tel.net.ba,
Fra Ilije Star?evi?a,Elementary,Vladimira Nazora 192,Federation Of Bosnia and Herzegovina,PK,,45.039436,18.640624,38731754077,osnovna.skola.tolisa@tel.net.ba,
Vladimira Nazora,Elementary,Nova ulica b.b.,Federation Of Bosnia and Herzegovina,PK,,45.017157,18.327455,38731761247,os.vladimir.nazor@tel.net.ba,www.tel.net.ba/osvnazora-odzak
Fra Martina Nedi?a,High School,XI. ulica b.b.,Federation Of Bosnia and Herzegovina,PK,,45.034525,18.690321,38731712131,sskola.orasje@skor.ba,www.skor.ba
Pere Ze?evi?a,High School,?emala Bijedi?a 13,Federation Of Bosnia and Herzegovina,PK,,45.015965,18.324321,38731761865,office@sskola-odzak.edu.ba,www.sskola-odzak.edu.ba
OŠ 'Ivan Goran Kova?i?',Elementary,,Federation Of Bosnia and Herzegovina,Kanton 10,Livno,43.821578,17.004511,,,
OŠ 'Fra Lovro Karaula',Elementary,,Federation Of Bosnia and Herzegovina,Kanton 10,Livno,43.82624,16.998913,,,
Osnovna glazbena škola 'Franjo S. Vilhar',Elementary,,Federation Of Bosnia and Herzegovina,Kanton 10,,43.82522,17.007039,,,
OŠ Stjepana Radi?a Prisoje,Elementary,,Federation Of Bosnia and Herzegovina,Kanton 10,,43.690622,17.085305,,,
OŠ Ivana Mažurani?a,Elementary,,Federation Of Bosnia and Herzegovina,Kanton 10,,43.715322,17.233692,,,
OŠ Fra Mije ?ui?a Bukovica,Elementary,,Federation Of Bosnia and Herzegovina,Kanton 10,,43.604218,17.305237,,,
Osnovna glazbena škola 'Tomislavgrad',Elementary,,Federation Of Bosnia and Herzegovina,Kanton 10,,43.71931,17.225479,,,
OŠ 'Drvar',Elementary,,Federation Of Bosnia and Herzegovina,Kanton 10,,44.373262,16.387648,,,
OŠ Fra Miroslava Džaje,Elementary,,Federation Of Bosnia and Herzegovina,Kanton 10,,43.991085,17.278532,,,
OŠ 'Fra Franjo Glavini?',Elementary,,Federation Of Bosnia and Herzegovina,Kanton 10,,44.049375,16.852048,,,
OŠ 'Grahovo',Elementary,,Federation Of Bosnia and Herzegovina,Kanton 10,,44.178352,16.362112,,,
OŠ „Branko ?opi?“,Elementary,Miše Stupara 24,RS,,Banja Luka,44.771341,17.201942,38751258302,os001@skolers.org,http://www.osbrankocopic.net/
OŠ „Dositej Obradovi?“,Elementary,Mirka Kova?evi?a 27,RS,,Banja Luka,44.76193,17.187714,38751461826,,
OŠ „Zmaj Jova Jovanovi?“,Elementary,Branka Zagorca 1,RS,,Banja Luka,44.762541,17.180008,38751431770,,http://www.oszmajjovajovanovic.edu.ba/
OŠ „Petar Petrovi? Njegoš”,Elementary,Stepe Stepanovi?a 28,RS,,Banja Luka,44.761988,17.194059,38751,os004@skolers.org,http://www.osppnjegos.rs.ba/
OŠ „Branislav Nuši?“,Elementary,Manja?kih ustanika 32,RS,,Banja Luka,44.747569,17.155416,38751412020,os005@skolers.org,https://osbranislavnusic.wordpress.com/
OŠ „Ivan Goran Kova?i?“,Elementary,Marka Lipovca 1,RS,,Banja Luka,44.797113,17.206315,38751345150,,
OŠ „Sveti Sava“,Elementary,Uži?ka bb,RS,,Banja Luka,44.777748,17.168144,38751288890,os007@skolers.org,http://www.ossvetisava.edu.ba/
OŠ „Jovan Cviji?“,Elementary,?ure Jakši?a 12,RS,,Banja Luka,44.766178,17.181435,38751212374,,
OŠ „Branko Radi?evi?“,Elementary,Vojvode S.Stepanovi?a 116,RS,,Banja Luka,44.76538,17.205805,38751436825,os009@skolers.org,http://brankoradicevic-bl.rs.ba/
OŠ „Ivo Andri?“,Elementary,Branka Radi?evi?a 16,RS,,Banja Luka,44.773685,17.187647,38751213196,os010@skolers.rs,http://osivoandric.org/
OŠ „Aleksa Šanti?“,Elementary,Trive Amelice 24,RS,,Banja Luka,44.785952,17.200237,38751327451,,http://skolasantic.com/
OŠ „Vuk S. Karadži?“,Elementary,Save Kova?evi?a bb,RS,,Banja Luka,44.769226,17.20503,38751254071,,
OŠ „Borisav Stankovi?“,Elementary,Ivana Kosan?i?a 2,RS,,Banja Luka,44.804969,17.210423,38751371126,,http://www.osbs.rs.sr/
OŠ „Georgi S. Rakovski“,Elementary,Dragiše Vasi?a 29,RS,,Banja Luka,44.77889,17.194085,38751309658,,http://www.georgistojkovrakovski.rs.ba/
OŠ „Mladen Stojanovi?“,Elementary,Bronzani Majdan bb,RS,,Bronzani Majdan,44.91308,17.305263,38751535517,os054@teol.net,http://osmladenstojanovic.com
OŠ „Miroslav Anti?“,Elementary,Bistrica bb,RS,,Bistrica,44.813971,17.051347,38751277057,,
OŠ „Janko Veselinovi?“,Elementary,Mišin Han bb,RS,,Donja Ivanjska,44.903316,17.113226,38751,,
OŠ „Desanka Maksimovi?“,Elementary,Drago?aj bb,RS,,Drago?aj,44.854685,17.160939,38751392166,,
OŠ „Milutin Boji?“,Elementary,Potkozarje bb,RS,,Potkozarje,44.915633,17.067602,38751395365,,
OŠ „Petar Ko?i?“,Elementary,Kola bb,RS,,Kola,44.695929,17.084168,38751,,
OŠ „Milan Raki?“,Elementary,Karanovac bb,RS,,Karanovac,44.698965,17.19477,38751,,
OŠ „Vojislav Ili?“,Elementary,Krupa na Vrbasu bb,RS,,Krupa na Vrbasu,44.617864,17.146216,38751,,
OŠ „?irilo i Metodije“,Elementary,Piskavica bb,RS,,Piskavica,44.867106,16.976512,38751,,
OŠ „?ura Jakši?“,Elementary,Suboti?ka 28,RS,,Srpski Milanovac,44.817663,17.197993,38751380980,os024@skolers.org,http://osdjurajaksicbl.org/
OŠ „Stanko Rakita“,Elementary,Jove G. Popovi?a 9,RS,,Vrbanja,44.759722,17.250562,38751424085,,
OŠ „Jovan Du?i?“,Elementary,Nenada Kosti?a 7,RS,,Zalužani,44.835576,17.217334,38751389381,,http://www.osjovanduciczaluzani.edu.ba
OŠ „Miloš Crnjanski“,Elementary,Zore Kova?evi? bb,RS,,Banja Luka,44.788165,17.18992,38751358121,,
Muzi?ka škola “Vlado Miloševi?“,Elementary,Jovana Du?i?a 23,RS,,Banja Luka,44.773929,17.186444,38751214739,,http://muzicka-skola.org/
"Centar za obrazovanje, vaspitanje i rehabilitaciju sluha i govora",Elementary,Jovana Raškovi?a 28a,RS,,Banja Luka,44.775048,17.179728,38751214491,,http://www.centar-ovrsg.com
Dje?iji dom “Rada Vranješevi?“,Elementary,Filipa Macure 25,RS,,Banja Luka,44.762148,17.176423,38751461932,,http://www.djecijidom.com/
Centar „Zaštiti me”,Elementary,Poljokanov park bb,RS,,Banja Luka,44.757097,17.174464,38751201708,,
OŠ „Danilo Borkovi?“,Elementary,Milana Tepi?a 19,RS,,Gradiška,45.1499,17.259792,38751,,
OŠ „Vasa ?ubrilovi?“,Elementary,Mihajla Pupina 10,RS,,Gradiška,45.145362,17.253029,38751813313,,
OŠ „Kozarska djeca“,Elementary,Kralja Dragutina 17,RS,,Gradiška,45.131799,17.233257,38751,,
OŠ „Mladen Stojanovi?“,Elementary,Gornji Podgradci bb,RS,,G.Podgradci,44.91308,17.305339,38751,,
OŠ „Petar Ko?i?“,Elementary,Nova Topola bb,RS,,Nova Topola,45.056533,17.306877,38751891010,,http://www.nova-topola.rs.ba
OŠ „Vuk S. Karadži?“,Elementary,Turjak bb,RS,,Turjak,45.007895,17.148624,38751,,
OŠ „Sveti Sava“,Elementary,Dubrave bb,RS,,Dubrave,45.096843,17.291473,38751860410,,
Osnovna muzi?ka škola „B. Smiljani?”,Elementary,Mladena Stojanovi?a bb,RS,,Gradiška,45.147364,17.250064,38751,,http://oms-brankosmiljanic.com/
OŠ „Miloš Duji?“,Elementary,Kralja Petra I Kara?or?evi?a,RS,,?elinac,44.727284,17.319974,38751551009,,
OŠ „Novak Pivaševi?“,Elementary,Stara Dubrava bb,RS,,Stara Dubrava,44.746847,17.568072,38751561255,,
OŠ „Mladen Stojanovi?“,Elementary,Jošavka bb,RS,,Jošavka,44.747547,17.418117,38751,,
OŠ „Sveti Sava“,Elementary,Svetosavska 2,RS,,Kotor Varoš,44.61869,17.371712,38751927220,,http://svetisava-kotorvaros.org/
OŠ „Petar Petrovi? Njegoš”,Elementary,Maslovare bb,RS,,Maslovare,44.563572,17.53503,38751,,
OŠ „Petar Ko?i?“,Elementary,Šiprage bb,RS,,Šiprage,44.466544,17.565291,38751,,
OŠ „Mladen Stojanovi?“,Elementary,Kara?or?eva bb,RS,,Laktaši,44.913038,17.305317,38751,,
OŠ „Georgios A. Papandreu“,Elementary,Aleksandrovac bb,RS,,Aleksandrovac,44.964634,17.316396,38751,,
OŠ „Holandija“,Elementary,Slatina bb,RS,,Slatina,44.829015,17.307982,38751,,
OŠ „Desanka Maksimovi?“,Elementary,Dositejeva 34,RS,,Trn,44.852278,17.239765,38751584487,,http://www.osdesankam-trn.org/
OŠ „Branko ?opi?“,Elementary,Rade Vranješevi? 1,RS,,Prnjavor,44.866569,17.670133,38751,,
OŠ „Nikola Tesla“,Elementary,Cara Lazara 26,RS,,Prnjavor,44.872527,17.660425,38751,,
OŠ „Vuk Karadži?“,Elementary,Donji Vija?ani bb,RS,,Donji Vija?ani,44.808824,17.604387,38751,,
OŠ „Sveti Sava“,Elementary,Gornji Smrti?i bb,RS,,Gornji Smrti?i,,,38751,,
OŠ „Ivo Andri?“,Elementary,Kulaši bb,RS,,Kulaši,44.768875,17.7414,38751,,
OŠ „Meša Selimovi?“,Elementary,Naseobina Lišnja 36,RS,,Naseobina Lišnja,44.886,17.560411,38751,,
OŠ „Miloš Crnjanski“,Elementary,Poto?ani bb,RS,,Poto?ani,44.872265,17.492096,38751,,
OŠ „Petar Ko?i?“,Elementary,Šibovska bb,RS,,Šibovska,44.960418,17.651117,38751,,
OŠ „Osnovna muzi?ka škola“,Elementary,Laze Lazarevi?a 4,RS,,Prnjavor,44.869806,17.665899,38751,,
OŠ „Dositej Obradovi?“,Elementary,Dujka Komjenovi? bb,RS,,Kneževo,44.489217,17.378132,38751,,
OŠ „Petar Ko?i?“,Elementary,Imnjani bb,RS,,Imnjani,44.608015,16.988989,38751,,
OŠ „Vuk Karadži?“,Elementary,Živinice bb,RS,,Živinice,44.529298,17.344752,38751,,
OŠ „Jovan Jovanovi? Zmaj“,Elementary,Mome Vidovi?a 14,RS,,Srbac,45.095787,17.51832,38751,,
OŠ „Vuk Karadži?“,Elementary,Sitneši bb,RS,,Sitneši,45.041663,17.566678,38751,,
OŠ „Dositej Obradovi?“,Elementary,Razboj Lijev?e bb,RS,,Razboj Lijev?e,45.061166,17.449926,38751,,
OŠ „Petar Ko?i?“,Elementary,Sime Šolaje 89,RS,,Mrkonji?-Grad,44.41245,17.085999,38751,,
OŠ „Ivan Goran Kova?i?“,Elementary,Njegoševa bb,RS,,Mrkonji?-Grad,44.41955,17.084986,38751,,
OŠ „Vuk Karadži?“,Elementary,Bara?i bb,RS,,Bara?i,44.320141,16.936731,38751,,
OŠ „Branko ?opi?“,Elementary,Bjelajce bb,RS,,Bjelajce,44.436262,17.150386,38751,,
OŠ „Nemanja Vlatkovi?“,Elementary,Omladinska 1,RS,,Šipovo,44.286235,17.087,38751,,
OŠ „Rade Marijanac“,Elementary,Strojice bb,RS,,Strojice,44.178659,17.161712,38751,,
OŠ „Drini?“,Elementary,Centar bb,RS,,Drini?,44.50695,16.467187,38751,,
OŠ „Vuk Karadži?“,Elementary,Vuka Karadži?a bb,RS,,Jezero,44.346951,17.165736,38751,,
OŠ „Nikola Ma?ki?“,Elementary,Donja Previja bb,RS,,Donja Previja,44.475486,16.820113,38751,,
OŠ „Desanka Maksimovi?“,Elementary,Ribnik bb,RS,,Ribnik,44.41673,16.816804,38751,,
OŠ „Petar Ko?i?“,Elementary,Sitnica bb,RS,,Sitnica,44.519639,16.933105,38751,,
OŠ „Branko ?opi?“,Elementary,Rudni?ka 13,RS,,Prijedor,44.976349,16.715734,38751,,
OŠ „Petar Ko?i?“,Elementary,Petog korpusa bb,RS,,Prijedor,44.979337,16.723473,38751,,
Specijalna škola “?. Natoševi?“,Elementary,Kralja Aleksandra 6,RS,,Prijedor,44.974592,16.7107,38751,,
OŠ „Dositej Obradovi?“,Elementary,Pe?ani bb,RS,,Prijedor,44.983709,16.704646,38751,,
OŠ „Desanka Maksimovi?“,Elementary,Branislava Nuši?a 7,RS,,Prijedor,44.980782,16.709544,38751,,
Muzi?ka škola,Elementary,Branislava Nuši?a 9,RS,,Prijedor,44.980495,16.710088,38751,,
OŠ „Jovan Cviji?“,Elementary,Brezi?ani bb,RS,,Brezi?ani,45.013506,16.65576,38751,,
OŠ „Petar Petrovi? Njegoš”,Elementary,Busnovi bb,RS,,Busnovi,44.855774,16.809317,38751,,
OŠ „Branko Radi?evi?“,Elementary,Petrovo bb,RS,,Petrovo,44.932862,16.73943,38751,,
OŠ „Jovan Du?i?“,Elementary,Lamovita 28,RS,,Lamovita,44.944852,16.927911,38751,,
OŠ „Mladen Stojanovi?“,Elementary,Drage Luki?a bb,RS,,Ljubija,44.918271,16.607222,38751,,
OŠ „Vuk Karadži?“,Elementary,Vuka Karadži?a bb,RS,,Omarska,44.890629,16.897794,38751,,
OŠ „?irilo i Metodije“,Elementary,Trnopolje bb,RS,,Trnopolje,44.934465,16.804293,38751,,
Dom za djecu i oml. ometenu u razvoju“,Elementary,Milana Vrhovca 117,RS,,?irkin Polje,44.980097,16.733373,38751,,
OŠ „Kozarac“,Elementary,Maršala Tita bb,RS,,Kozarac,44.974886,16.839998,38751,,
OŠ „Vuk Karadži?“,Elementary,Ive Andri?a bb,RS,,Novi Grad,45.047579,16.383436,38751,,
OŠ „Sveti Sava“,Elementary,Nikole Paši?a 13,RS,,Novi Grad,45.050096,16.375142,38751,,
OŠ „Branko ?opi?“,Elementary,Donji Agi?i bb,RS,,Donji Agi?i,44.952871,16.465068,38751,,
OŠ „Dragan Vujanovi?“,Elementary,Svodna bb,RS,,Svodna,45.037727,16.5375,38751,,
OŠ „Petar Me?ava“,Elementary,Vase Pelagi?a bb,RS,,Kostajnica,45.220048,16.541791,38751,,
OŠ „Sveti Sava“,Elementary,Dositejeva bb,RS,,Kozarska Dubica,45.180437,16.805912,38751,,
OŠ „Vuk Stefanovi? Karadži?“,Elementary,?akona Avakuma 15,RS,,Kozarska Dubica,45.179857,16.815049,38751,,
OŠ „Majka Knežopoljka“,Elementary,Knežica bb,RS,,Knežica,45.105507,16.677021,38751,,
OŠ „Petar Škundri?“,Elementary,Budimli? Japra bb,RS,,Budimli? Japra,44.88446,16.429031,38751,,
OŠ „Josif Pan?i?“,Elementary,Kozica bb,RS,,Kozica,44.69169,16.823555,38751,,
OŠ „Desanka Maksimovi?“,Elementary,Oštra Luka bb,RS,,Oštra Luka,44.859626,16.689663,38751,,
OŠ „Branko ?opi?“,Elementary,Donji Dubovik bb,RS,,Donji Dubovik,44.891317,16.322869,38751,,
OŠ „Vuk Stefanovi? Karadži?“,Elementary,Srpskih sokolova 2,RS,,Doboj,44.734953,18.089204,38751,,
OŠ „Dositej Obradovi?“,Elementary,Hilandarska 2,RS,,Doboj,44.73186,18.081878,38751,,
OŠ „Sveti Sava“,Elementary,Stevana Sin?eli?a 10,RS,,Doboj,44.728675,18.085413,38751,,
OŠ „Petar Petrovi? Njegoš”,Elementary,Br?ani bb,RS,,Boljani?,44.688314,18.220653,38751,,
OŠ „Radoje Domanovi?“,Elementary,Osje?ani bb,RS,,Osje?ani,44.833879,18.113899,38751,,
OŠ „?ura Jakši?“,Elementary,Podnovlje bb,RS,,Podnovlje,44.934487,18.112642,38751,,
OŠ „Milan Raki?“,Elementary,Rudanka bb,RS,,Rudanka,44.759377,18.035264,38751,,
OŠ „Petar Ko?i?“,Elementary,Sjenina Rijeka bb,RS,,Sjenina Rijeka,44.783653,18.161028,38751,,
OŠ „Desanka Maksimovi?“,Elementary,Rudarsko naselje,RS,,Stanari,44.751998,17.839979,38751,,
OŠ „Ozren“,Elementary,Paklenica Donja bb,RS,,Paklenica Donja,44.615685,18.104694,38751,,
Muzi?ka škola,Elementary,Vidovdanska bb,RS,,Doboj,44.7326,18.081893,38751,,
OŠ „Vuk Karadži?“,Elementary,Svetog Save bb,RS,,Tesli?,44.607803,17.846122,38751,,
OŠ „Petar Petrovi? Njegoš”,Elementary,Kara?or?eva 19,RS,,Tesli?,44.600993,17.862629,38751,,
OŠ „Dositej Obradovi?“,Elementary,Blatnica bb,RS,,Blatnica,44.485499,17.822533,38751,,
OŠ „Petar Ko?i?“,Elementary,Ugodnovi? bb,RS,,Ugodnovi?,44.489965,17.742127,38751,,
OŠ „Stevan Dušani?“,Elementary,Pribini? bb,RS,,Pribini?,44.611207,17.690615,38751,,
OŠ „Ivo Andri?“,Elementary,?uli?i bb,RS,,?uli?i,44.59677,17.817143,38751,,
OŠ „Jevrem Stankovi?“,Elementary,?e?ava bb,RS,,?e?ava,44.685599,17.770382,38751,,
OŠ „Vuk Karadži?“,Elementary,Vitkovci bb,RS,,Vitkovci,44.69106,17.881023,38751,,
OŠ „Sveti Sava“,Elementary,Vuka Karadži?a bb,RS,,Brod,45.140276,18.013301,38751,,
OŠ „Liješ?a“,Elementary,,RS,,Liješ?a,43.993341,19.555574,38751,,
OŠ „19. april“,Elementary,Svetog Save 4,RS,,Derventa,44.985329,17.903835,38751,,
OŠ „Nikola Tesla“,Elementary,Trg oslobo?enja 10,RS,,Derventa,44.976375,17.907378,38751,,
OŠ „Todor Doki?“,Elementary,Kalenderovci bb,RS,,Kalenderovci,44.936472,17.813782,38751,,
OŠ „?or?e Panzalovi?“,Elementary,Osinja 55,RS,,Osinja,44.854444,17.864992,38751,,
Zavod za slijepe i slabov. “Budu?nost“,Elementary,Stevana Nemanje 12,RS,,Derventa,44.974505,17.907817,38751,,
OŠ „Sveti Sava“,Elementary,Cara Lazara 7,RS,,Modri?a,44.956508,18.297335,38751,,
OŠ „Sutjeska“,Elementary,Maksima Gorkog 2,RS,,Modri?a,44.951223,18.305403,38751,,
OŠ „Vuk Karadži?“,Elementary,Petrovo bb,RS,,Petrovo,44.626061,18.360147,38751,,
OŠ „Sveti Sava“,Elementary,Bare bb,RS,,Kakmuž,44.648126,18.330843,38751,,
OŠ „Aleksa Šanti?“,Elementary,Branka Radi?evi?a 3,RS,,Vukosavlje,45.008732,18.268517,38751,,
OŠ „Šamac“,Elementary,Dositeja Obradovi?a 4,RS,,Šamac,45.057925,18.472245,38751,,
OŠ „Crkvina“,Elementary,Gornja Crkvina 1,RS,,Gornja Crkvina,45.031679,18.436827,38751,,
OŠ „Gornja Slatina“,Elementary,Gornja Slatina,RS,,Gornja Slatina,44.96508,18.471398,38751,,
OŠ „Obudovac“,Elementary,Obudovac bb,RS,,Obudovac,44.967439,18.597475,38751,,
OŠ „Donji Žabar“,Elementary,Donji Žabar bb,RS,,Donji Žabar,44.945468,18.642793,38751,,
OŠ „Vasa Pelagi?“,Elementary,Pelagi?evo bb,RS,,Pelagi?evo,44.905647,18.605764,38751,,
OŠ „Jovan Du?i?“,Elementary,Srpske vojske 104,RS,,Bijeljina,44.747236,19.221334,38751,,
OŠ „Vuk Karadži?“,Elementary,Vojvode Stepe 4,RS,,Bijeljina,44.742387,19.274067,38751,,
OŠ „Knez Ivo od Semberije“,Elementary,Neznanog junaka 46,RS,,Bijeljina,44.768007,19.195006,38751,,
OŠ „Sveti Sava“,Elementary,Svetog Save 26,RS,,Bijeljina,44.757883,19.213059,38751,,
OŠ „Petar Ko?i?“,Elementary,Brodac bb,RS,,Brodac,44.825172,19.304747,38751,,
OŠ „?irilo i Metodije“,Elementary,Glavi?ice bb,RS,,Glavi?ice,44.596829,19.174485,38751,,
OŠ „Stevan Nemanja“,Elementary,Gornji Dragaljevac bb,RS,,G. Dragaljevac,44.764626,19.03376,38751,,
OŠ „Meša Selimovi?“,Elementary,Kara?or?eva 250,RS,,Janja,44.662587,19.248933,38751,,
OŠ „Sveti Sava“,Elementary,Crnjelovo bb,RS,,Crnjelevo,44.841677,19.125423,38751,,
OŠ „Dositej Obradovi?“,Elementary,Suvo Polje bb,RS,,Suho Polje,44.691811,19.097331,38751,,
OŠ „Petar Petrovi? Njegoš”,Elementary,Velika Obarska bb,RS,,Velika Obarska,44.801057,19.170314,38751,,
Muzi?ka škola“S. S. Mokranjac“,Elementary,Kara?or?eva 5,RS,,Bijeljina,44.757442,19.218942,38751,,
OŠ „Dvorovi“,Elementary,Kara?or?eva bb,RS,,Dvorovi,44.805272,19.25863,38751,,
OŠ „Sveti Sava“,Elementary,Školska 3,RS,,Lopare,44.631904,18.845144,38751,,
OŠ „Veljko ?ubrilovi?“,Elementary,Priboj bb,RS,,Priboj,44.600484,18.928793,38751,,
OŠ „Dositej Obradovi?“,Elementary,Koraj bb,RS,,Koraj,44.704463,18.880596,38751,,
OŠ „Aleksa Šanti?“,Elementary,?irila i Metodija bb,RS,,Ugljevik,44.692045,18.997751,38751,,
OŠ „Filip Višnji?“,Elementary,Donja Trnova bb,RS,,Donja Trnova,44.652511,19.093309,38751,,
OŠ „Vuk Karadži?“,Elementary,Zabr?e bb,RS,,Zabr?e,44.706962,18.989023,38751,,
OŠ „Sveti Sava“,Elementary,Svetog Save 71a,RS,,Zvornik,44.382449,19.103217,38751,,
OŠ „Petar Ko?i?“,Elementary,Podrinjska bb,RS,,Kozluk,44.498383,19.112296,38751,,
OŠ „Nikola Tesla“,Elementary,Pilica bb,RS,,Pilica,44.581683,19.142051,38751,,
OŠ „Vuk Karadži?“,Elementary,Ro?evi? bb,RS,,Ro?evi?,44.53593,19.143928,38751,,
Muzi?ka škola,Elementary,Svetog Save 71a,RS,,Zvornik,44.382147,19.102864,38751,,
OŠ „Desanka Maksimovi?“,Elementary,?elopek bb,RS,,?elopek,44.432072,19.130726,38751,,
Dom za djecu i omladinu “Kiseljak“,Elementary,Zvornik bb,RS,,Zvornik,44.533574,19.052457,38751,,
OŠ „Aleksa Šanti?“,Elementary,Centar bb,RS,,Osmaci,44.391496,18.89967,38751,,
OŠ „Jovan Cviji?“,Elementary,,RS,,Drinja?a,44.288512,19.148077,38751,,
OŠ „Vuk Karadži?“,Elementary,Petra Ko?i?a bb,RS,,Bratunac,44.181996,19.335016,38751,,
OŠ „Branko Radi?evi?“,Elementary,Dositeja Obradovi?a bb,RS,,Bratunac,44.185507,19.330424,38751,,
OŠ „Petar Ko?i?“,Elementary,Kravica bb,RS,,Kravica,44.212625,19.198727,38751,,
OŠ „Vuk Karadži?“,Elementary,Svetosavska 30,RS,,Vlasenica,44.183968,18.937078,38751,,
OŠ „Bra?a Jakši?“,Elementary,J.J.Zmaja br. 3,RS,,Mili?i,44.168047,19.078298,38751,,
OŠ „Jovan Du?i?“,Elementary,Matije Nenadovi?a 5,RS,,Šekovi?i,44.298178,18.853599,38751,,
OŠ „Petar Petrovi? Njegoš”,Elementary,Milivoja Mi?i?a bb,RS,,Srebrenica,44.110056,19.294901,38751,,
OŠ „Kosta Todorovi?”,Elementary,Skelani bb,RS,,Skelani,43.971844,19.5334,38751,,
OŠ „Aleksa Šanti?“,Elementary,Druge sarajevske brigade 108,RS,,Vojkovi?i,43.793614,18.353521,38751,,
OŠ „Jovan Du?i?“,Elementary,Mladi?ka 3,RS,,Kasindo,43.801414,18.381488,38751,,
OŠ „Petar Petrovi? Njegoš”,Elementary,Draže Mihajlovi?a 38,RS,,Isto?no Sarajevo,43.821398,18.355068,38751,,
OŠ „Sveti Sava“,Elementary,Kara?or?eva 1,RS,,Lukavica,43.825284,18.364969,38751,,
Muzi?ka škola,Elementary,Draže Mihajlovi?a 40,RS,,Lukavica,43.830617,18.367309,38751,,
OŠ „Sokolac“,Elementary,Omladinska 2,RS,,Sokolac,43.932028,18.79419,38751,,
OŠ „Milan Ili? ?i?a Šumadijski“,Elementary,Aleksandra Kara?or?evi?a 10,RS,,Han Pijesak,44.304255,20.568816,38751,,
OŠ „Mokro“,Elementary,Mokro bb,RS,,Mokro,43.881727,18.609808,38751,,
OŠ „Pale“,Elementary,Milana Simovi?a 26,RS,,Pale,43.812912,18.569799,38751,,
OŠ „Srbija“,Elementary,Dobrovoljnih davalaca krvi bb,RS,,Pale,43.807573,18.576943,38751,,
OŠ „Trnovo“,Elementary,Trnovskog bataljona 33,RS,,Trnovo,43.666511,18.44756,38751,,
OŠ „Sveti Sava“,Elementary,Nemanjina bb,RS,,Fo?a,43.509806,18.775954,38751,,
OŠ „Veselin Masleša“,Elementary,Kara?or?eva 68A,RS,,Fo?a,43.504813,18.772346,38751,,
Muzi?ka škola,Elementary,Nemanjina bb,RS,,Fo?a,,,38751,,
OŠ „Rudo“,Elementary,Cara Dušana 36,RS,,Rudo,43.617914,19.369296,38751,,
OŠ „Boško Buha“,Elementary,Štrpci bb,RS,,Štrpci,43.637804,19.485556,38751,,
OŠ „Vuk Karadži?“,Elementary,Vojvode Putnika 16,RS,,Višegrad,43.785289,19.299654,38751,,
OŠ „Sveti Sava“,Elementary,Preobraženjska bb,RS,,Rogatica,43.79876,19.005488,38751,,
OŠ „Jovan Du?i?“,Elementary,Igumana Vasilija bb,RS,,?ajni?e,43.558611,19.070771,38751,,
OŠ „Ljutica Bogdan“,Elementary,Srpskih dobrovoljaca bb,RS,,Kalinovik,43.504676,18.443613,38751,,
OŠ „Jovan Jovanovi? Zmaj“,Elementary,Oktobarska 1,RS,,Trebinje,42.707755,18.344377,38751,,
OŠ „Sveti Vasilije Ostroški“,Elementary,Gori?ka 19,RS,,Trebinje,42.719505,18.357767,38751,,
OŠ „Vuk Karadži?“,Elementary,Miloša Crnjanskog 4,RS,,Trebinje,42.711335,18.35346,38751,,
Muzi?ka škola,Elementary,Miloša Obili?a 21,RS,,Trebinje,,,38751,,
OŠ „Sveti Sava“,Elementary,Svetosavska 23,RS,,Ljubinje,42.949003,18.090608,38751,,
OŠ „Sveti Sava“,Elementary,Hercegova?kih ustanaka bb,RS,,Bile?a,42.871939,18.427857,38751,,
Prva osnovna škola Br?ko,Elementary,Josipa Juraja Štrosmajera 1,Br?ko Distrikt,,Br?ko,44.873397,18.813739,38749215260,,
Druga osnovna škola Br?ko,Elementary,Vase Pelagi?a 6,Br?ko Distrikt,,Br?ko,44.86812,18.8088,38749212509,,
Tre?a osnovna škola Br?ko,Elementary,Reisa Džemaludina ?auševi?a bb,Br?ko Distrikt,,Br?ko,44.878036,18.799369,38749211101,,
?etvrta osnovna škola Br?ko,Elementary,Bulevar mira 4,Br?ko Distrikt,,Br?ko,44.876202,18.81128,38749216165,,http://www.ivosnovna.com/
Peta osnovna škola Br?ko,Elementary,Muderisa Ibrahimbegovi?a 75,Br?ko Distrikt,,Br?ko,44.87362,18.790843,38749213312,,
Šesta osnovna škola Brezovo Polje,Elementary,?aršija bb,Br?ko Distrikt,,,44.84459,18.955316,38749382001,,
Sedma osnovna škola Gornji Rahi?,Elementary,,Br?ko Distrikt,,,44.786506,18.697263,38749512222,,
Osma osnovna škola Brka,Elementary,,Br?ko Distrikt,,,44.831063,18.720401,38749500259,,
Deveta osnovna škola Mao?a,Elementary,,Br?ko Distrikt,,,44.773828,18.658605,38749520222,,
Deseta osnovna škola Bijela,Elementary,,Br?ko Distrikt,,,44.788598,18.561438,38749750342,,
Jedanaesta osnovna škola Zovik,Elementary,,Br?ko Distrikt,,,44.757738,18.711891,38749749143,,
Dvanaesta osnovna škola Ulice,Elementary,,Br?ko Distrikt,,,44.884385,18.687891,38749,,
Trinaesta osnovna škola Bukvik,Elementary,,Br?ko Distrikt,,,44.820914,18.655547,38749,,
?etrnaesta osnovna škola Krepši?,Elementary,,Br?ko Distrikt,,,,,38749,,
Osnovna muzi?ka škola Br?ko,Elementary,,Br?ko Distrikt,,Br?ko,44.872052,18.81122,38749212436,,
Gimnazija „Vaso Pelagi?“ Br?ko,High School,Trg pravde 3,Br?ko Distrikt,,Br?ko,44.872118,18.813117,38749211941,,
Ekonomska škola Br?ko,High School,Studentska 9,Br?ko Distrikt,,Br?ko,44.872134,18.813127,38749217812,,
Tehni?ka škola Br?ko,High School,Musala 44,Br?ko Distrikt,,Br?ko,44.879827,18.800648,38749217052,,
Poljoprivredna i medicinska škola Br?ko,High School,Vase Pelagi?a 2,Br?ko Distrikt,,Br?ko,44.868839,18.808589,38749214803,,
Centar za slijepu i slabovidnu djecu i omladinu,High School,,Federation Of Bosnia and Herzegovina,Canton Sarajevo,,43.84100412,18.33680391,38733473019,,www.czsd.edu.ba
Centar za slušnu i govornu rehabilitaciju,High School,,Federation Of Bosnia and Herzegovina,Canton Sarajevo,,43.87256815,18.41510296,38733440969,,www.cersig.edu.ba
?etvrta gimnazija,High School,,Federation Of Bosnia and Herzegovina,Canton Sarajevo,,43.82951159,18.30687046,38733636704,,www.cetvrta-gimnazija.edu.ba
Druga gimnazija,High School,,Federation Of Bosnia and Herzegovina,Canton Sarajevo,,43.86223432,18.41288209,38733667438,,www.2gimnazija.edu.ba
Elektrotehni?ka škola za energetiku,High School,,Federation Of Bosnia and Herzegovina,Canton Sarajevo,,43.85404178,18.39340925,38733235014,,www.etssa.edu.ba
Gazi Husrev-Begova Medresa,High School,,Federation Of Bosnia and Herzegovina,Canton Sarajevo,,43.85954614,18.4294045,38733534888,,www.medresasa.edu.ba
Gimnazija Dobrinja,High School,,Federation Of Bosnia and Herzegovina,Canton Sarajevo,,43.83164774,18.34347725,38733464948,,www.gdobrinja.edu.ba
Gimnazija Obala,High School,,Federation Of Bosnia and Herzegovina,Canton Sarajevo,,43.8568269,18.41592908,38733214960,,www.obala.edu.ba
Gimnazija „Richmond Park College“ Sarajevo,High School,,Federation Of Bosnia and Herzegovina,Canton Sarajevo,,43.81870582,18.31064701,38733944115,,www.sarajevocollege.ba
Katoli?ki školski centar - srednja medicinska škola,High School,,Federation Of Bosnia and Herzegovina,Canton Sarajevo,,43.8580879,18.41897607,38733218295,,www.ksc-sarajevo.edu.ba
Katoli?ki školski centar – Op?a realna gimnazija,High School,,Federation Of Bosnia and Herzegovina,Canton Sarajevo,,43.86111265,18.42236638,38733653506,,www.ksc-sarajevo.edu.ba
Me?unarodna gimnazija 'Richmond Park International Secondary School',High School,,Federation Of Bosnia and Herzegovina,Canton Sarajevo,,43.81925544,18.31048608,38733944130,,www.internationalschool.ba
Perzijsko-Bosanski koledž sa internatom,High School,,Federation Of Bosnia and Herzegovina,Canton Sarajevo,,43.99093113,18.23361397,38733402204,,www.pbk.edu.ba
Peta gimnazija,High School,,Federation Of Bosnia and Herzegovina,Canton Sarajevo,,43.83137299,18.34331632,38733235521,,www.peta-gimnazija.edu.ba
Prva bošnja?ka gimnazija,High School,,Federation Of Bosnia and Herzegovina,Canton Sarajevo,,43.86039322,18.4230423,38733461780,,www.bosnjackagim.edu.ba
Prva gimnazija,High School,,Federation Of Bosnia and Herzegovina,Canton Sarajevo,,43.85715956,18.42365384,38733203567,,www.prva-gimnazija.edu.ba
Škola za srednje stru?no obrazovanje i radno osposobljavanje,High School,,Federation Of Bosnia and Herzegovina,Canton Sarajevo,,43.84876516,18.37733746,38733655950,,www.strucnoobraz.edu.ba
Srednja ekonomska škola,High School,,Federation Of Bosnia and Herzegovina,Canton Sarajevo,,43.85372844,18.3922559,38733250041,,www.ses.edu.ba
Srednja elektrotehni?ka škola,High School,,Federation Of Bosnia and Herzegovina,Canton Sarajevo,,43.85377873,18.36215615,38733650989,,www.ets-sa.edu.ba
Srednja gra?evinsko geodetska škola,High School,,Federation Of Bosnia and Herzegovina,Canton Sarajevo,,43.85729495,18.402282,38733214543,,www.ggs.edu.ba
Srednja mašinska tehni?ka škola,High School,,Federation Of Bosnia and Herzegovina,Canton Sarajevo,,43.85643235,18.40244293,38733275620,,www.smts.edu.ba
Srednja medicinska škola,High School,,Federation Of Bosnia and Herzegovina,Canton Sarajevo,,43.86322446,18.41907263,38733666185,,www.sms.edu.ba
Srednja medicinska škola - Jezero,High School,,Federation Of Bosnia and Herzegovina,Canton Sarajevo,,43.87623407,18.40884805,38733443987,,www.ssmstsa.edu.ba
Srednja muzi?ka škola,High School,,Federation Of Bosnia and Herzegovina,Canton Sarajevo,,43.86049379,18.42493057,38733441958,,www.muzickasa.edu.ba
Srednja poslovno-komercijalna i trgova?ka škola,High School,,Federation Of Bosnia and Herzegovina,Canton Sarajevo,,43.86320512,18.41981292,38733205942,,www.sts.edu.ba
Srednja škola - Gimnazija 'Maarif',High School,,Federation Of Bosnia and Herzegovina,Canton Sarajevo,,43.83728576,18.34951218,38762271004,,www.maarifschools.edu.ba
Srednja škola metalskih zanimanja,High School,,Federation Of Bosnia and Herzegovina,Canton Sarajevo,,43.85645556,18.40184212,38733207369,,www.ssmz.edu.ba
"Srednja škola poljoprivrede, prehrane, veterine i uslužnih djelatnosti",High School,,Federation Of Bosnia and Herzegovina,Canton Sarajevo,,43.85633565,18.42408836,38733262900,,www.mspvps.edu.ba
Srednja škola primijenjenih umjetnosti,High School,,Federation Of Bosnia and Herzegovina,Canton Sarajevo,,43.8577243,18.42361629,38733440520,,www.artschoolsa.edu.ba
Srednja škola za okoliš i drvni dizajn,High School,,Federation Of Bosnia and Herzegovina,Canton Sarajevo,,43.85372457,18.39406371,38733641036,,www.msdss.edu.ba
Srednja škola za saobra?aj i komunikacije,High School,,Federation Of Bosnia and Herzegovina,Canton Sarajevo,,43.86534394,18.39908481,38733561940,,www.mssskola.edu.ba
"Srednja škola za tekstil, kožu i dizajn",High School,,Federation Of Bosnia and Herzegovina,Canton Sarajevo,,43.86687548,18.43220472,38733531675,,www.msts.edu.ba
"Srednja tehni?ka škola grafi?kih tehnologija, dizajna i multimedije",High School,,Federation Of Bosnia and Herzegovina,Canton Sarajevo,,43.83114467,18.30609798,38733764225,,www.sgts.edu.ba
Srednja ugostiteljsko-turisti?ka škola,High School,,Federation Of Bosnia and Herzegovina,Canton Sarajevo,,43.8572524,18.43357265,38733534633,,www.msuts-sa.edu.ba
Srednja zubotehni?ka škola,High School,,Federation Of Bosnia and Herzegovina,Canton Sarajevo,,43.86501132,18.41426611,38733262180,,www.szs.edu.ba
Srednjoškolski centar 'Nedžad Ibrišimovi?' Ilijaš,High School,,Federation Of Bosnia and Herzegovina,Canton Sarajevo,,43.96061915,18.2667017,38733400815,,www.mssilijas.edu.ba
Srednjoškolski centar Hadži?i,High School,,Federation Of Bosnia and Herzegovina,Canton Sarajevo,,43.82213508,18.19843411,38733420337,,www.sscha.edu.ba
Srednjoškolski centar Vogoš?a,High School,,Federation Of Bosnia and Herzegovina,Canton Sarajevo,,43.89961637,18.34178209,38733432638,,www.mssvogosca.edu.ba
Tre?a gimnazija,High School,,Federation Of Bosnia and Herzegovina,Canton Sarajevo,,43.85277296,18.39055538,38733279250,,www.treca-gimnazija.edu.ba
Željezni?ki školski centar,High School,,Federation Of Bosnia and Herzegovina,Canton Sarajevo,,43.85490828,18.38516951,38733722940,,www.zsc.edu.ba
Prva gimnazija u Zenici,High School,Bulevar Kulina Bana 26,Federation Of Bosnia and Herzegovina,ZDK,Zenica,44.201848,17.907655,38732402626,gim_zedo@bih.net.ba,
Druga gimnazija u Zenici,High School,Mejdandžik 2,Federation Of Bosnia and Herzegovina,ZDK,Zenica,44.198119,17.908905,38732405431,drugagimn.zenica@hotmail.com,
Op?a gimnazija u sastavu Katoli?kog školskog centra 'Sveti Pavao',High School,Aska Bori?a 20,Federation Of Bosnia and Herzegovina,ZDK,Zenica,44.205332,17.905186,38732449106, ksc.ze.gimn@gmail.com,
Srednja muzi?ka škola u Zenici,High School,Školska 11,Federation Of Bosnia and Herzegovina,ZDK,Zenica,44.203028,17.905251,38732240814,srednjamuzicka@yahoo.com,
Ekonomska škola,High School,Mejdandžik 2,Federation Of Bosnia and Herzegovina,ZDK,Zenica,44.198191,17.908967,38732404255,ekonomze@bih.net.ba,
Medicinska škola,High School,Crkvice bb,Federation Of Bosnia and Herzegovina,ZDK,Zenica,44.206579,17.924213,38732443070,med.skola.ze@bih.net.ba,
Tehni?ka škola,High School,Bilmiš?e 69,Federation Of Bosnia and Herzegovina,ZDK,Zenica,44.19304,17.922194,38732200260,tscze@bih.net.ba,
Stru?na zanatska škola,High School,Bilmiš?e 69,Federation Of Bosnia and Herzegovina,ZDK,Zenica,44.19304,17.922194,38732401423,szskola@bih.net.ba,
Stru?na industrijska škola,High School,Bulevar Kralja Tvrtka 11,Federation Of Bosnia and Herzegovina,ZDK,Zenica,44.21128,17.909151,38732202040,indsko@hotmail.com,
Mješovita srednja škola,High School,Dr. Adolfa Goldbergera 10,Federation Of Bosnia and Herzegovina,ZDK,Zenica,44.209378,17.907214,38732404601,pprehrambena@yahoo.com,
Specijalna srednja škola,High School,Bilmiš?e 69,Federation Of Bosnia and Herzegovina,ZDK,Zenica,,,38732243615,spsrskze@bih.net.ba,
Gimnazija 'Muhsin Rizvi?',High School,Šehidska 34,Federation Of Bosnia and Herzegovina,ZDK,Breza,44.023427,18.265806,38732784596,gimn.breza@bih.net.ba,
Mješovita srednja škola 'Mehmedalija Mak Dizdar',High School,Šehidska 34,Federation Of Bosnia and Herzegovina,ZDK,Breza,44.023427,18.265806,38732784595,mssbreza@yahoo.com,
Gimnazija 'Muhsin Rizvi?',High School,Šehida 32,Federation Of Bosnia and Herzegovina,ZDK,Kakanj,44.123569,18.116725,38732556890,gimnazijakakanj@bih.net.ba,
Srednja tehni?ka škola 'Kemal Kapetanovi?',High School,Šehida 32,Federation Of Bosnia and Herzegovina,ZDK,Kakanj,44.122853,18.116878,38732552552,stskemkap1@yahoo.com,
Srednja stru?na škola,High School,Šehida 33,Federation Of Bosnia and Herzegovina,ZDK,Kakanj,44.123599,18.117169,38732556960,ssskakanj@gmail.com,
Gimnazija 'Edhem Mulabdi?',High School,Aleja ljiljana 50,Federation Of Bosnia and Herzegovina,ZDK,Maglaj,44.553189,18.10054,38732603221,gimnazija.maglaj@ogmaglaj.edu.ba,
Mješovita srednja škola,High School,Aleja ljiljana 50,Federation Of Bosnia and Herzegovina,ZDK,Maglaj,44.553112,18.100908,38732603884,mss_maglaj@bih.net.ba,
Mješovita srednja škola 'Musa ?azim ?ati?',High School,Školska bb,Federation Of Bosnia and Herzegovina,ZDK,Olovo,44.12913,18.581489,38732825372,mssolovo@bih.net.ba,
Gimnazija 'Musa ?azim ?ati?',High School,Patriotske lige bb,Federation Of Bosnia and Herzegovina,ZDK,Tešanj,44.605119,17.978618,38732650083,gimna@bih.net.ba,
Srednja tehni?ka škola,High School,Patriotske lige bb,Federation Of Bosnia and Herzegovina,ZDK,Tešanj,44.605231,17.978674,38732650669,stsmedi@bih.net.ba,
Mješovita srednja škola,High School,Patriotske lige bb,Federation Of Bosnia and Herzegovina,ZDK,Tešanj,44.605047,17.978841,38732650812,sss32@bih.net.ba,
Mješovita srednja škola Stjepana Radi?a u Sivši,High School,Žabljak bb,Federation Of Bosnia and Herzegovina,ZDK,Usora,44.673974,18.00851,38732893722,ss.stjepana_radica@tel.net.ba,
Mješovita srednja škola 'NORDBAT-2',High School,Zvjezda bb,Federation Of Bosnia and Herzegovina,ZDK,Vareš,44.163435,18.328448,38732843002,nordbat@tel.net.ba,
Gimnazija 'Visoko',High School,Musala 23,Federation Of Bosnia and Herzegovina,ZDK,Visoko,43.993321,18.181407,38732735501,ki_selma@yahoo.com,
Mješovita srednja škola 'Hazim Šabanovi?',High School,Branilaca 24,Federation Of Bosnia and Herzegovina,ZDK,Visoko,43.995227,18.175698,38732738165,mss.hazimsabanovic@gmail.com,
Medresa 'Osman-ef. Redžovi?',High School,Veliko ?ajno bb,Federation Of Bosnia and Herzegovina,ZDK,Visoko,44.028173,18.201885,38732745771,info@medresa.org,
Gimnazija 'Rizah Odže?ki?',High School,Stjepana Radi?a 43,Federation Of Bosnia and Herzegovina,ZDK,Zavidovi?i,44.444589,18.141073,38732866678,gimzav@bih.net.ba,
Srednja tehni?ka škola,High School,Mehmeda paše Sokolovi?a bb,Federation Of Bosnia and Herzegovina,ZDK,Zavidovi?i,44.437729,18.144347,38732879002,stszav@bih.net.ba,
Srednja stru?na škola,High School,Stjepana Radi?a 43,Federation Of Bosnia and Herzegovina,ZDK,Zavidovi?i,44.123502,18.117292,38732877773,skolastrucna@bih.net.ba,
Gimnazija Biha?,High School,Safvet bega Bašagi?a bb,Federation Of Bosnia and Herzegovina,USK,Biha?,44.817925,15.87751,38737312915,,www.gimnazijabihac.edu.ba
Medicinska škola,High School,Safvet bega Bašagi?a bb,Federation Of Bosnia and Herzegovina,USK,Biha?,44.816607,15.876265,38737319073,,
Mješovita srednja škola,High School,Džani?a mahala bb,Federation Of Bosnia and Herzegovina,USK,Biha?,44.816554,15.877217,38737311075,,
Mašinsko - saobra?ajna srednja škola,High School,Irfana Ljubijanki?a 64,Federation Of Bosnia and Herzegovina,USK,Biha?,44.820072,15.863273,38737226166,,www.etsbi.edu.ba
Mješovita elektrotehni?ka i drvoprera?iva?ka srednja škola,High School,Irfana Ljubijanki?a 64,Federation Of Bosnia and Herzegovina,USK,Biha?,44.820072,15.863273,38737110181,,
Umjetni?ka škola,High School,V korpusa bb,Federation Of Bosnia and Herzegovina,USK,Biha?,44.812781,15.868299,38737311045,,www.umjetnicka-bihac.com
Katoli?ki školski centar 'IvanPavao II',High School,Žegar bb,Federation Of Bosnia and Herzegovina,USK,Biha?,44.816813,15.85034,38737223874,,ksc-bihac.net
Tursko-bosanski Unsko-sanski koledž,High School,,Federation Of Bosnia and Herzegovina,USK,Biha?,44.818649,15.87719,38737312903,,www.unasanacollege.edu.ba
Gimnazija,High School,Izeta Nani?a 12,Federation Of Bosnia and Herzegovina,USK,Bosanska Krupa,44.884179,16.1559,38737471057,,
Mješovita srednja škola 'Safet Krupi?',High School,Izeta Nani?a 12,Federation Of Bosnia and Herzegovina,USK,Bosanska Krupa,44.890887,16.155649,38737471077,,
Mješovita srednja škola,High School,Bosanska bb,Federation Of Bosnia and Herzegovina,USK,Bosanski Petrovac,44.558729,16.368456,38737883347,,
Mješovita srednja škola,High School,,Federation Of Bosnia and Herzegovina,USK,Bužim,45.072108,16.018902,38737410115,,
Gimnazija,High School,H.Mujezinovi?a 1,Federation Of Bosnia and Herzegovina,USK,Cazin,44.967748,15.914822,38737514072,,
I srednja škola,High School,H.Mujezinovi?a 1,Federation Of Bosnia and Herzegovina,USK,Cazin,44.963584,15.929787,38737514436,,
II srednja škola,High School,H.Mujezinovi?a 1,Federation Of Bosnia and Herzegovina,USK,Cazin,44.963584,15.929787,38737514036,,
Medresa 'Džemaludin ?auševi?',High School,M.Terzi? 3,Federation Of Bosnia and Herzegovina,USK,Cazin,44.96149,15.932772,38737514893,,
Mješovita srednja škola,High School,Branilaca BiH 86,Federation Of Bosnia and Herzegovina,USK,Klju?,44.5336,16.776156,38737661038,,
Gimnazija,High School,Prijedorska bb,Federation Of Bosnia and Herzegovina,USK,Sanski Most,44.767827,16.657781,38737686039,,
Mješovita srednja škola,High School,Prijedorska bb,Federation Of Bosnia and Herzegovina,USK,Sanski Most,44.767828,16.657763,38737686426,,
Srednja poljoprivredna škola 'Sanus futurum',High School,Krkojevci bb,Federation Of Bosnia and Herzegovina,USK,Sanski Most,44.747551,16.661157,38737684210,,
Gimnazija,High School,Ibrahima Mržljaka bb,Federation Of Bosnia and Herzegovina,USK,Velika Kladuša,45.185845,15.803117,38737770896,,
I srednja škola 'Dr.Husein Džani?',High School,Ibrahima Mržljaka bb,Federation Of Bosnia and Herzegovina,USK,Velika Kladuša,45.185481,15.803029,38737770043,,
II srednja škola,High School,Ibrahima Mržljaka bb,Federation Of Bosnia and Herzegovina,USK,Velika Kladuša,45.185481,15.803029,38737772876,,
Srednja škola 'Pero Ze?evi?' Odžak,High School,Džemala Bijedi?a 13,Federation Of Bosnia and Herzegovina,PK,Odžak,45.015972,18.324339,38731761866,office@sskola-odzak.edu.ba,
Srednja škola 'Fra Martin Nedi?' ,High School,XI ulica,Federation Of Bosnia and Herzegovina,PK,Orašje,45.034493,18.690663,38731710100,,www.skor.tel.net.ba
Gimnazija 'Meša Selimovi?',High School,M.Fizovi?a 1,Federation Of Bosnia and Herzegovina,TK,Tuzla,44.532185,18.685335,38735247620,gmstz@bih.net.ba,
Gimnazija 'Ismet Mujezinovi?',High School,Mehmeda Hevaije Uskufije 1,Federation Of Bosnia and Herzegovina,TK,Tuzla,44.538996,18.668198,38735252006,gimim@bih.net.ba,
Katoli?ki školski centar 'Sveti Franjo' Op?a gimnazija,High School,Klosterska 14,Federation Of Bosnia and Herzegovina,TK,Tuzla,44.536637,18.680781,38735300800,,www.ksc-tuzla.edu.ba
Srednja ekonomska škola,High School,Muhameda Hevaije Uskufije 3,Federation Of Bosnia and Herzegovina,TK,Tuzla,44.539481,18.66788,38735271007,info@ekonomskaskola.com,www.ekonomskaskola.com
Srednja medicinska škola,High School,Fra Grge Marti?a 5,Federation Of Bosnia and Herzegovina,TK,Tuzla,44.538412,18.670964,38735252040,medskolatz@bih.net.ba,www.medskolatz.com
Srednja muzi?ka škola,High School,Ludvika Kube 1,Federation Of Bosnia and Herzegovina,TK,Tuzla,44.536324,18.683582,38735262531,Sms_tuzla@yahoo.com,
Mješovita srednja trgovinska škola ,High School,Muhameda Hevaije Uskufije 3,Federation Of Bosnia and Herzegovina,TK,Tuzla,44.539556,18.667279,38735252405,trg.skola@bih.net.ba,www.trgskola.com.ba
Mješovita srednja elektrotehni?ka škola,High School,Muhameda Hevaije Uskufije 2,Federation Of Bosnia and Herzegovina,TK,Tuzla,44.540622,18.664618,38735282009,Ets.tz@bih.net.ba,www.etstuzla.edu.ba
Mješovita srednja gra?evinsko-geodetska škola,High School,Bosne Srebrene 61,Federation Of Bosnia and Herzegovina,TK,Tuzla,44.53657,18.663197,38735228513,gradskola@bih.net.ba,www.gradjevinskogeodetska.com.ba
Mješovita srednja hemijska škola ,High School,Bosne Srebrene 8,Federation Of Bosnia and Herzegovina,TK,Tuzla,44.537977,18.662826,38735281092,hemijska.skola@gmail.com,
Mješovita srednja mašinska škola ,High School,Bosne Srebrene 6,Federation Of Bosnia and Herzegovina,TK,Tuzla,44.538353,18.666981,38735315800,masinska.skola.tz@bih.net.ba,
Mješovita srednja rudarska škola ,High School,Bosne Srebrene 61,Federation Of Bosnia and Herzegovina,TK,Tuzla,44.536824,18.662772,38735228514,msrudskola@bih.net.ba,
Mješovita srednja saobra?ajna škola,High School,Bosne Srebrene 6,Federation Of Bosnia and Herzegovina,TK,Tuzla,44.538407,18.66696,38735315390,jumsss@bih.net.ba,
Mješovita srednja škola,High School,Bosne Srebrene 8,Federation Of Bosnia and Herzegovina,TK,Tuzla,44.537867,18.662769,38735282548,jumsstuzla@gmail.com,
Turisti?ko-ugostiteljska škola,High School,Muhameda Hevajije Uskufije 1,Federation Of Bosnia and Herzegovina,TK,Tuzla,44.539247,18.667904,38735247900,tru.ugostiteljska@gmail.com,
Behram-begova medresa,High School,Behram-begova 1,Federation Of Bosnia and Herzegovina,TK,Tuzla,44.538648,18.654141,38735281151,info@medresatz.edu.ba,
Gimnazija,High School,Prva ulica 58b,Federation Of Bosnia and Herzegovina,TK,Živinice,44.448631,18.652593,38735772612,gimnaz.zivinice@bih.net.ba,
Mješovita srednja škola,High School,Prva ulica 58b,Federation Of Bosnia and Herzegovina,TK,Živinice,44.448481,18.652005,38735772611,msszivinice@gmail.com,
Mješovita srednja škola,High School,Branilaca Banovi?a 38,Federation Of Bosnia and Herzegovina,TK,Banovi?i,44.409476,18.533004,38735876739,ju.mss@bih.net.ba,
Mješovita srednja škola,High School,,Federation Of Bosnia and Herzegovina,TK,?eli?,44.72176,18.821304,38735668010,mss.celic@bih.net.ba,
Mješovita srednja škola,High School,Velika Brijesnica,Federation Of Bosnia and Herzegovina,TK,Doboj-istok,44.722259,18.207706,38735723460,mjesovita.skola@bih.net.ba,
Gimnazija 'Dr. Mustafa Kamari?',High School,Mula Mustafe Bašeskije 2,Federation Of Bosnia and Herzegovina,TK,Gra?anica,44.708641,18.308873,38735786899,gimmko@bih.net.ba,
Mješovita srednja škola,High School,Mula Mustafe Bašeskije 2,Federation Of Bosnia and Herzegovina,TK,Gra?anica,44.708915,18.308697,38735700311,mssgracanica@bih.net.ba,
Gimnazija 'Mustafa Novali?',High School,Sarajevska bb,Federation Of Bosnia and Herzegovina,TK,Grada?ac,44.885681,18.417633,38735821150,gimngrad@gmail.com,
Mješovita srednja škola 'Hasan Kiki?',High School,Husein-kapetana Gradaš?evi?a bb ,Federation Of Bosnia and Herzegovina,TK,Grada?ac,44.885551,18.418444,38735631043,,
Mješovita srednja škola,High School,Patriotske lige bb,Federation Of Bosnia and Herzegovina,TK,Kalesija,44.442166,18.876478,38735631043,ju.mss.k@bih.net.ba,
Mješovita srednja škola 'Musa ?azim ?ati?',High School,Kladanjskih brigada 88a,Federation Of Bosnia and Herzegovina,TK,Kladanj,44.231379,18.700316,38735621215,jumss.k@bih.net.ba,
Gimnazija 'Gimnazija Lukavac' ,High School,Školska 5,Federation Of Bosnia and Herzegovina,TK,Lukavac,44.534988,18.530178,38735550540,gimn.lu@bih.net.ba,
Mješovita srednja elektro-mašinska škola,High School,Školska 5,Federation Of Bosnia and Herzegovina,TK,Lukavac,44.535376,18.529445,38735553377,ems.lukavac@yahoo.com,
Mješovita srednja ekonomsko-hemijska,High School,Školska 5,Federation Of Bosnia and Herzegovina,TK,Lukavac,44.535273,18.530596,38735550250,,
Mješovita srednja škola,High School,206. Viteške brigade bb,Federation Of Bosnia and Herzegovina,TK,Sapna,44.491222,19.00175,38735597067,sapnass@bih.net.ba,
Mješovita srednja škola,High School,Radni?ka 19,Federation Of Bosnia and Herzegovina,TK,Srebrenik,44.704626,18.489536,38735645679,jumss@bih.net.ba,
Mješovita srednja škola,High School,,Federation Of Bosnia and Herzegovina,TK,Teo?ak,44.601421,18.980836,38735755561,mssteocak@bih.net.ba,
Mješovita srednja škola 'Enver Pozderovi?',High School,Zaima Imamovi?a 20,Federation Of Bosnia and Herzegovina,BPK,Goražde,43.663962,18.973679,38738221020,mssep@bih.net.ba,
Srednja tehni?ka škola 'Hasib Hadžovi?',High School,Zaima Imamovi?a 60,Federation Of Bosnia and Herzegovina,BPK,Goražde,43.663172,18.975551,38738221137,justsgo@bih.net.ba,
Srednja stru?na škola 'Džemal Bijedi?',High School,Titova 20,Federation Of Bosnia and Herzegovina,BPK,Goražde,43.66862,18.978689,38738221214,nicka_f@hotmail.com,
Gimnazija,High School,Zlatnih ljiljana,Federation Of Bosnia and Herzegovina,SBK,Bugojno,44.054957,17.447838,38730260112,bug.gim@bih.net.ba,
Srednja stru?na škola,High School,Ciglane II,Federation Of Bosnia and Herzegovina,SBK,Bugojno,44.052557,17.437698,38730252207,,
Srednja tehni?ka škola,High School,Ciglane II,Federation Of Bosnia and Herzegovina,SBK,Bugojno,44.05222,17.438525,38730251915,tehskolabu@yahoo.com,
Mješovita srednja škola 'Busova?a',High School,Nikole Šubi?a Zrinskog,Federation Of Bosnia and Herzegovina,SBK,Busova?a,44.100612,17.879049,38730593155,,
Srednja škola 'Busova?a',High School,Nikole Šubi?a Zrinskog,Federation Of Bosnia and Herzegovina,SBK,Busova?a,44.100612,17.879049,38730742042,ssbusovaca@gmail.com,
Mješovita srednja škola,High School,Žrtava genocida u Srebrenici,Federation Of Bosnia and Herzegovina,SBK,Donji Vakuf,44.139848,17.401169,38730205355,mssdvakuf@bih.net.ba,
Srednja mješovita škola 'Zijah Dizdarevi?',High School,Novo naselje,Federation Of Bosnia and Herzegovina,SBK,Fojnica,43.95884,17.90254,38730831821,smszijahdizdarevic@yahoo.com,
Mješovita srednja škola 'Gornji Vakuf',High School,Kralja Tomislava bb,Federation Of Bosnia and Herzegovina,SBK,Gornji Vakuf,43.939242,17.581508,38730266255,vahid.sehic@yahoo.com,
Mješovita srednja škola 'Uskoplje',High School,Kralja Tomislava bb,Federation Of Bosnia and Herzegovina,SBK,Gornji Vakuf,43.938762,17.581116,38730494039,sskola.uskoplje@tel.net.ba,
Srednja strukovna škola 'Jajce',High School,Tina Ujevi?a 3,Federation Of Bosnia and Herzegovina,SBK,Jajce,44.347236,17.253766,38730654043,ss-skola-jajce@tel.net.ba,
Srednja škola 'Nikola Šop',High School,Fra Antuna Kneževi?a 27,Federation Of Bosnia and Herzegovina,SBK,Jajce,44.342983,17.275563,38730654174,gimnazija.nikola.sop@tel.net.ba,
Srednja škola 'Ivan Goran Kova?i?',High School,Žrtava domovinskog rata 11,Federation Of Bosnia and Herzegovina,SBK,Kiseljak,43.943452,18.079831,38730879002,srednja_skola_kis@yahoo.com,
Srednja strukovna škola 'Fojnica',High School,,Federation Of Bosnia and Herzegovina,SBK,Fojnica,43.95884,17.90254,38730879113,srednjaskolafoj@yahoo.com,
Srednja škola 'Kreševo',High School,Troska 2a,Federation Of Bosnia and Herzegovina,SBK,Kreševo,43.870461,18.057744,38730800202,ss.kresevo@tel.net.ba,
Srednja glazbena škola Jakova Gotovca,High School,Ljudevita Gaja bb,Federation Of Bosnia and Herzegovina,SBK,Novi Travnik,44.171337,17.655827,38730792286,sr.gl.sk.jakova.gotovca@tel.net.ba,
Mješovita srednja škola '308. slavna brigada',High School,Omladinska bb,Federation Of Bosnia and Herzegovina,SBK,Novi Travnik,44.169275,17.649008,38730525407,,
Srednja škola 'Novi Travnik',High School,Ljudevita Gaja bb,Federation Of Bosnia and Herzegovina,SBK,Novi Travnik,44.171337,17.655827,38730793504,ss-novi.travnik@tel.net.ba,
Mješovita srednja tehni?ka škola ,High School,Školska bb,Federation Of Bosnia and Herzegovina,SBK,Travnik,44.225549,17.656774,38730511618,psecurity@msts-travnik.net,
Mješovita srednja ekonomsko-ugostiteljska škola,High School,Školska bb,Federation Of Bosnia and Herzegovina,SBK,Travnik,44.224568,17.658843,38730511076,,
"Mješovita srednja škola ""Travnik"" ",High School,Školska 3,Federation Of Bosnia and Herzegovina,SBK,Travnik,44.225237,17.662377,38730511059,srednjatr@bih.net.ba,
"Katoli?ki školski centar ""Petar Barbari?"" Gimnazija",High School,Školska 1,Federation Of Bosnia and Herzegovina,SBK,Travnik,44.225288,17.661558,38730518823, ksctr@bih.net.ba,
"JU Srednja škola ""Travnik""",High School,,Federation Of Bosnia and Herzegovina,SBK,Nova Bila,44.189026,17.737568,38730707486,ss.travnik@tel.net.ba,
El?i Ibrahim-pašina medresa,High School,Mostarska bb,Federation Of Bosnia and Herzegovina,SBK,Nova Bila,44.228963,17.673723,38730512023,medresa@gmail.com,
"Mješovita srednja škola ""Vitez""",High School,Ilija Petrovi?a bb,Federation Of Bosnia and Herzegovina,SBK,Vitez,44.151094,17.789063,38730717540,mss.vitez.kruscica@tel.net.ba,
"Srednja škola ""Vitez""",High School,Ilija Petrovi?a bb,Federation Of Bosnia and Herzegovina,SBK,Vitez,44.151094,17.789063,38730711336,ss.vitez@tel.net.ba,
Gimnazija Mostar,High School,Španjolski trg 1,Federation Of Bosnia and Herzegovina,HNK,Mostar,43.342922,17.807231,38736315216,,
Gimnazija fra Grge Marti?a,High School,,Federation Of Bosnia and Herzegovina,HNK,Mostar,43.348353,17.798974,38736326994,,
Srednja ekonomska škola Joze Martinovi?a,High School,Kralja Tomislava 2,Federation Of Bosnia and Herzegovina,HNK,Mostar,43.346844,17.800285,38736310846,,
Druga gimnazija Mostar,High School,Sjeverni logor bb,Federation Of Bosnia and Herzegovina,HNK,Mostar,43.355422,17.806351,38736551615,,
Srednja medicinska škola,High School,Sjeverni logor bb,Federation Of Bosnia and Herzegovina,HNK,Mostar,43.355642,17.806172,38736576851,,
Ekonomska i ugostiteljsko-turisti?ka škola,High School,Konak bb,Federation Of Bosnia and Herzegovina,HNK,Mostar,43.337832,17.817382,38736576766,,
Mašinsko-saobra?ajna škola,High School,Mile Budaka 26a,Federation Of Bosnia and Herzegovina,HNK,Mostar,43.348971,17.808352,38736566290,,
Srednja gra?evinska škola,High School,,Federation Of Bosnia and Herzegovina,HNK,Mostar,43.337535,17.817463,38736551456,,
Srednja elektrotehni?ka škola ,High School,Alekse Šanti?a,Federation Of Bosnia and Herzegovina,HNK,Mostar,43.345411,17.809394,38736580126,,
Srednja tekstilna i poljoprivredna škola,High School,Sjeverni logor bb,Federation Of Bosnia and Herzegovina,HNK,Mostar,43.355642,17.806172,38736570034,,
Muzi?ka škola I u II stupnja,High School,Maršala Tita,Federation Of Bosnia and Herzegovina,HNK,Mostar,43.334766,17.817574,38736551462,,
Kara?ozbegova medresa,High School,Glavna ulica,Federation Of Bosnia and Herzegovina,HNK,Mostar,43.341906,17.814241,38736550921,,
Srednja gra?evinska škola Jurja Dalmatinca,High School,Kralja Zvonimira 24,Federation Of Bosnia and Herzegovina,HNK,Mostar,43.345616,17.799956,38736318527,,
Srednja turisti?ko-ugostiteljska škola,High School,Kralja Zvonimira bb,Federation Of Bosnia and Herzegovina,HNK,Mostar,43.344921,17.803151,38736320107,,
Srednja medicinska škola Sestara milosrdnica,High School,Franjeva?ka 18,Federation Of Bosnia and Herzegovina,HNK,Mostar,43.337867,17.807079,38736332971,,
Srednja elektrotehni?ka škola Ru?era Boškovi?a,High School,Kralja Zvonimira 24,Federation Of Bosnia and Herzegovina,HNK,Mostar,43.346889,17.800273,38736318525,,
Srednja strojarska škola Fausta Vran?i?a,High School,Kralja Zvonimira 24,Federation Of Bosnia and Herzegovina,HNK,Mostar,43.345886,17.799887,38736318526,,
Srednja škola likovnih umjetnosti Gabrijela Jurki?a,High School,Bleiburških žrtava 35,Federation Of Bosnia and Herzegovina,HNK,Mostar,43.34965,17.792052,38736322571,,
Srednja glazbena škola Ivana PL. Zajca,High School,Trg hrvatskih velikana,Federation Of Bosnia and Herzegovina,HNK,Mostar,43.34225,17.802279,38736320127,,
IPG Internacionalna privatna gimnazija s pravom javnosti,High School,Bleiburških žrtava 100,Federation Of Bosnia and Herzegovina,HNK,Mostar,43.353142,17.792451,38736327808,,
Srednja škola Prozor,High School,Kralja Tomislava,Federation Of Bosnia and Herzegovina,HNK,Prozor,43.828037,17.606807,38736771214,,
Srednja škola ?apljina i Podru?ni odjel Neum,High School,,Federation Of Bosnia and Herzegovina,HNK,?apljina,43.112618,17.70234,38736801506,,
Srednja škola dr.fra Slavka Barbari?a,High School,Kralja Tomislava 72,Federation Of Bosnia and Herzegovina,HNK,?itluk,43.225045,17.697673,38736642357,,
Srednja škola Stolac,High School,Don Lazara Lazarevi?a,Federation Of Bosnia and Herzegovina,HNK,Stolac,43.083423,17.960258,38736853404,,
Srednja škola Konjic,High School,Maksima Kujundži?a,Federation Of Bosnia and Herzegovina,HNK,Konjic,43.651914,17.963036,38736727321,,
Srednja škola Jablanica,High School,P. Bili?a 7,Federation Of Bosnia and Herzegovina,HNK,Jablanica,43.664511,17.758091,38736752833,,
Gimnazija Ljubuški,High School,Sestre Silvije Anti? 1,Federation Of Bosnia and Herzegovina,ZHK,Ljubuški,43.190767,17.538628,38739830068,gimnazija.lj@gmail.com,
Srednja strukovna škola Ru?era Boškovi?a,High School,Sestre Silvije Anti? 1,Federation Of Bosnia and Herzegovina,ZHK,Ljubuški,43.191374,17.53806,38739831921,ss.skola-rudjer.boskovic@tel.net.ba,
Srednja škola Antuna Branka Šimi?a Grude,High School,Dr Franje Tu?mana 14,Federation Of Bosnia and Herzegovina,ZHK,Grude,43.370565,17.415857,38739662230,ravnatelj@ssgrude.net,
Gimnazija fra Grge Marti?a,High School,Bartola Kaši?a bb,Federation Of Bosnia and Herzegovina,ZHK,Posušje,43.472187,17.329458,38739682458,ss.fra.grge.martica.posusje@wic.ba,
Srednja strukovna škola,High School,Bartola Kaši?a bb,Federation Of Bosnia and Herzegovina,ZHK,Posušje,43.472187,17.329458,38739682458,,
Gimnazija fra Dominika Mandi?a,High School,Kardinala Alojzija Stepinca 24,Federation Of Bosnia and Herzegovina,ZHK,Široki Brijeg,43.374992,17.590003,38739704393,direktor@gimnazija-sb.edu.ba,
Glazbena škola,High School,Matije Gubca 1,Federation Of Bosnia and Herzegovina,ZHK,Široki Brijeg,43.383558,17.594579,38739707632,silvana.zadro@tel.net.ba,
Srednja strukovna škola,High School,Kardinala Alojzija Stepinca 24,Federation Of Bosnia and Herzegovina,ZHK,Široki Brijeg,43.374992,17.590003,38739704393,strukovna.skola.sb@tel.net.ba,
Gimnazija Livno,High School,Kraljice Katarine 16,Federation Of Bosnia and Herzegovina,Kanton 10,Livno,43.828289,17.006507,38734202041,luka.novokmet@tel.net.ba,
Srednja ekonomska škola,High School,Silvija Strahimira Kranj?evi?a 1,Federation Of Bosnia and Herzegovina,Kanton 11,Livno,43.823679,17.00135,38734202015,sskola-ekonomska.livno@tel.net.ba,
Srednja strukovna škola Silvija Strahimira Kranj?evi?a,High School,Dinarina 2,Federation Of Bosnia and Herzegovina,Kanton 12,Livno,43.825805,17.006849,38734201580,strukovna.skola.livno@tel.net.ba,
Gimnazija Marka Maruli?a,High School,Mijata Tomi?a 10,Federation Of Bosnia and Herzegovina,Kanton 13,Tomislavgrad,43.723553,17.221406,38734352507,gimnazija.tg@tel.net.ba,
Srednja strukovna škola ,High School,Maka Dizdara bb,Federation Of Bosnia and Herzegovina,Kanton 14,Tomislavgrad,43.718575,17.224017,38734352312,sss.tg@tel.net.ba,
"Srednja škola ""Kupres""",High School,Splitska bb,Federation Of Bosnia and Herzegovina,Kanton 15,Kupres,43.99182,17.277964,38734274100,sskola-kupres@tel.net.ba,
"Srednja škola ""Drvar""",High School,Jole Mari?a bb,Federation Of Bosnia and Herzegovina,Kanton 16,Drvar,44.373908,16.386804,38734819013,srednjaskola.drvar@gmail.com,
"Srednja škola ""Tin Ujevi?""",High School,Stjepana Radi?a bb,Federation Of Bosnia and Herzegovina,Kanton 17,Glamo?,44.048577,16.85302,38734273023,ss.tin.ujevic.glamoc@tel.net.ba,
Gimnazija Banja Luka,High School,Zmaj Jovina 13,RS,,Grad Banjaluka,44.769683,17.183513,38734,,
Gra?evinska škola,High School,Dr Mladena Stojanovi?a 7,RS,,Grad Banjaluka,44.78011,17.19859,,,
Ekonomska škola,High School,Kralja Alfonsa XIII 34,RS,,Grad Banjaluka,44.769377,17.196023,,,ekonomskaskolabl.org
Elektrotehni?ka škola „Nikola Tesla“,High School,Jevrejska 48,RS,,Grad Banjaluka,44.768543,17.195134,,,
Medicinska škola Banja Luka,High School,Cetinska 1,RS,,Grad Banjaluka,44.760457,17.176875,,,
Poljoprivredna škola,High School,Knjaza Miloša 9,RS,,Grad Banjaluka,44.791347,17.205369,,,
Tehni?ka škola,High School,?ure Dani?i?a 2,RS,,Grad Banjaluka,44.768856,17.193059,,,
Tehnološka škola,High School,Pilanska bb,RS,,Grad Banjaluka,44.784792,17.21069,,,
Ugostiteljsko-trgovinsko-turisti?ka škola,High School,Vojvode Stepe 44,RS,,Grad Banjaluka,44.763192,17.197611,,,
Škola u?enika u privredi,High School,Nikole Paši?a bb,RS,,Grad Banjaluka,44.768997,17.195875,,,
Muzi?ka škola „Vlado Miloševi?“,High School,Jovana Du?i?a 23,RS,,Grad Banjaluka,44.773973,17.186416,,,
Centar za OIV i rehabilitaciju,High School,Jovana Raškovi?a 28,RS,,Grad Banjaluka,44.775029,17.179747,,,
Centar „Zaštiti me“,High School,Poljokanov park bb,RS,,Grad Banjaluka,44.757089,17.174555,,,
Srednja poslovna škola,High School,Despota Stefana Lazarevi?a bb,RS,,Grad Banjaluka,44.809451,17.201516,,,
Srednjoškolski centar „Gemit-Apeiron“,High School,Vojvode Pere Krece 13,RS,,Grad Banjaluka,44.7556,17.185015,,,
Katoli?ki školski centar “Blaženi Ivan Merc”,High School,Srpska 30,RS,,Grad Banjaluka,44.770564,17.194617,,,
Gimnazija „Filip Višnji?“,,Ra?anska 94,RS,,Grad Bijeljina,44.769947,19.226119,,,
Ekonomska škola,,Ra?anska 94,RS,,Grad Bijeljina,44.770442,19.226289,,,
Poljoprivredna i medicinska škola,,Semberskih ratara 1,RS,,Grad Bijeljina,44.774327,19.222666,,,
Tehni?ka škola „Mihajlo Pupin”,,Ra?anska 76,RS,,Grad Bijeljina,44.770882,19.226085,,,
Muzi?ka škola „Stevan Stojanovi? Mokranjac“,,Kara?or?eva 5,RS,,Grad Bijeljina,44.757446,19.218917,,,
Srednja stru?na škola,,Kara?or?eva 250,RS,,Grad Bijeljina,44.757917,19.220728,,,
Srednjoškolski centar „Golub Kureš“,,Vladimira Ga?inovi?a 1,RS,,Opština Bile?a,42.875077,18.430506,,,
Srednjoškolski centar „Bratunac“,,Petra Ko?i?a bb,RS,,Opština Bratunac,42.875077,18.430506,,,
Srednja škola „Nikola Tesla“,,Kralja Petra I Oslobodioca bb,RS,,Opština Brod,45.145552,18.011428,,,
Srednja škola „Ivo Andri?“,,Kralja Petra I 16,RS,,Opština Višegrad,43.784064,19.292398,,,
Srednjoškolski centar „Milorad Vla?i?“,,Svetih Apostola Petra i Pavla 37,RS,,Opština Vlasenica,44.17892,18.944384,,,
Srednjoškolski centar „Nikola “Tesla“,,Branka Radi?evi?a 1,RS,,Opština Vukosavlje,44.981236,18.278404,,,
Srednjoškolski centar „Pero Slijep?evi?“,,Solunskih dobrovoljaca 24,RS,,Opština Gacko,43.167313,18.530822,,,
Gimnazija,,Trg Svetog Save 3 A,RS,,Opština Gradiška,45.147672,17.255141,,,gimnazija.gradiska.com
Tehni?ka škola,,Kosovke djevojke bb,RS,,Opština Gradiška,45.147438,17.25587,,,
Srednja stru?na škola,,Vidovdanska bb,RS,,Opština Gradiška,"45.149211,",17.25605,,,
Gimnazija sa tehni?kim školama,,Svetog Save bb,RS,,Opština Derventa,44.986821,17.90177,,,
Stru?na škola za radni?ka zanimanja,,Svetog Save bb,RS,,Opština Derventa,44.986085,17.902067,,,
Zavod za slijepe i slabovide „Budu?nost“,,Stevana Nemanje 12,RS,,Opština Derventa,44.974579,17.907826,,,
Gimnazija,,Hilandarska 2,RS,,Opština Doboj,44.731598,18.082035,,,
Ekonomska i trgovinska škola,,Cara Dušana 18,RS,,Opština Doboj,44.728607,18.080852,,,
Medicinska škola,,Pop Ljubina 103,RS,,Opština Doboj,44.741834,18.091077,,,
Tehni?ka škola,,Cara Dušana 19,RS,,Opština Doboj,44.72862,18.080869,,,
Saobra?ajna i elektro-škola,,Cara Dušana 18,RS,,Opština Doboj,44.72862,18.080869,,,
"Upravna, ugostiteljska i škola u?enika u privredi",,Cara Dušana 18,RS,,Opština Doboj,44.72862,18.080869,,,
Gimnazija i srednja stru?na škola „Petar Ko?i?“,,Vuka Karadži?a 69,RS,,Opština Zvornik,44.390045,19.103486,,,
Tehni?ki školski centar,,Karakaj bb,RS,,Opština Zvornik,44.412845,19.122664,,,
Srednjoškolski centar „Isto?na Ilidža“,,Stefana Nemanje 10,RS,,Isto?na Ilidža,43.823062,18.364128,,,
Srednja škola “28. juni”,,Stefana Nemanje 10,RS,,Isto?na Ilidža,43.823141,18.364119,,,
Srednja stru?na škola „Jovan Du?i?“,,Dujka Komljenovi?a bb,RS,,Opština Kneževo,44.488881,17.376445,,,
Mješovita srednja škola „Nikola Tesla“,,Dositejeva bb,RS,,Opština Kozarska Dubica,45.181374,16.806854,,,
Srednjoškolski centar,,Tavija bb,RS,,Opština Kostajnica,45.210168,16.545945,,,
Srednjoškolski centar „Nikola Tesla“,,Nikole Tesle bb,RS,,Opština Kotor Varoš,44.623536,17.372273,,,
Srednjoškolski centar „Vuk Karadži?“,,,RS,,Opština Lopare,44.629775,18.844861,,,
Srednja škola „Svetozar ?orovi?“,,Svetosavska bb,RS,,Opština Ljubinje,42.94878,18.090702,,,
Srednjoškolski centar „Mili?i“,,,RS,,Opština Mili?i,44.164263,19.069596,,,
Srednjoškolski centar „Jovan Cviji?“,,Omladinska bb,RS,,Opština Modri?a,44.953214,18.309633,,,
Gimnazija,,Sime Šolaje 25,RS,,Opština Mrkonji? Grad,44.41181,17.086352,,,
Mašinska škola,,Sime Šolaje 25,RS,,Opština Mrkonji? Grad,44.411931,17.08652,,,
Srednjoškolski centar „Aleksa Šanti?“,,Obrena Ivkovi?a bb,RS,,Opština Nevesinje,43.256855,18.114985,,,
Gimnazija „Petar Ko?i?“,,Dositeja Obradovi?a 6,RS,,Opština Novi Grad,45.045494,16.373509,,,
Mješovita škola „?uro Radmanovi?“,,Dositeja Obradovi?a 6,RS,,Opština Novi Grad,45.045922,16.373412,,,
Srednjoškolski centar „Pale“,,Njegoševa 7,RS,,Opština Pale ,43.809895,18.567489,,,
Srednjoškolski centar „Petrovo“,,Ozrenskih odreda bb,RS,,Opština Petrovo,44.625579,18.360079,,,
Gimnazija „Sveti Sava“,,Nikole Paši?a 6b,RS,,Opština Prijedor,44.976306,16.709974,,,
Elektrotehni?ka škola,,Nikole Paši?a 4,RS,,Opština Prijedor,44.976272,16.708502,,,
Mašinska škola,,Nikole Paši?a 4,RS,,Opština Prijedor,44.976398,16.708597,,,
Poljoprivredno-prehrambena škola,,Nikole Paši?a 4,RS,,Opština Prijedor,44.976598,16.707727,,,
Ugostiteljsko-ekonomska škola,,Vuka Karadži?a 16,RS,,Opština Prijedor,44.975878,16.710252,,,
Medicinsko-tehnološka i gra?evinska škola,,Nikole Paši?a 4,RS,,Opština Prijedor,44.976574,16.707791,,,
Srednja i osnovna muzi?ka škola,,Branislava Nuši?a 9,RS,,Opština Prijedor,44.980501,16.7101,,,
Specijalna osnovna i srednja škola „?or?e Natoševi?“,,Kralja Aleksandra 6,RS,,Opština Prijedor,44.974787,16.710738,,,
Gimnazija,,Rade Vranješevi? 1,RS,,Opština Prnjavor,44.866191,17.670629,,,
Srednja škola Prnjavor,,Rade Vranješevi? 1,RS,,Opština Prnjavor,44.865793,17.670431,,,
Sednjoškolski centar „Lazar ?uki?“,,Rade Jovanovi?a bb,RS,,Opština Ribnik,44.415562,16.818405,,,
Srednja škola „27. januar“ Rogatica,,Srpske sloge 116,RS,,Opština Rogatica,43.805935,19.001498,,,
Srednjoškolski centar,,Cara Dušana bb,RS,,Opština Rudo,43.618317,19.369462,,,
Srednja škola „Sokolac“,,Omladinska 2,RS,,Opština Sokolac ,43.931851,18.793426,,,
Mješoviti školski centar „Petar Ko?i?“,,Danka Mitrova bb,RS,,Opština Srbac,45.096745,17.519864,,,
Srednjoškolski centar „Srebrenica“,,Svetosavska bb,RS,,Opština Srebrenica,44.110899,19.294415,,,
Mješovita škola „Nikola Tesla“,,Kara?or?eva bb,RS,,Opština Tesli?,44.603193,17.859599,,,
Srednja mješovita škola „Jovan Du?i?“,,Kara?or?eva bb,RS,,Opština Tesli?,44.603636,17.859432,,,
Gimnazija „Jovan Du?i?“,,Vožda Kara?or?a 1,RS,,Opština Trebinje,42.71257,18.34018,,,
Centar srednjih škola,,Vožda Kara?or?a 1,RS,,Opština Trebinje,,,,,
Tehni?ka škola,,Vožda Kara?or?a 1,RS,,Opština Trebinje,42.712503,18.339652,,,
Srednja škola „Mihajlo Petrovi? Alas“,,Kara?or?eva 19,RS,,Opština Ugljevik,42.712334,18.340144,,,
Srednjoškolski centar „Fo?a“,,Cara Dušana bb,RS,,Opština Fo?a,43.503755,18.783925,,,
Bogoslovija „Sveti Petar Dabrobosanski“,,Vele?evo bb,RS,,Opština Fo?a,43.494302,18.79976,,,
Srednjoškolski centar „Petar Petrovi? Njegoš“,,Kralja Petra I Oslobodioca 36,RS,,Opština ?ajni?e,43.556581,19.071945,,,
Srednja škola,,Vojvode Miši?a 21,RS,,Opština ?elinac,44.727711,17.321222,,,
Srednja škola „Nikola Tesla“,,Cara Lazara bb,RS,,Opština Šamac,45.058987,18.47291,,,
Srednja škola „Petar II Petrovi? Njegoš“,,Branka Radi?evi?a bb,RS,,Opština Šekovi?i,44.296699,18.860268,,,
Srednjoškolski centar,,Nikole Tesle 32,RS,,Opština Šipovo,44.286421,17.087343,,,
