Name,Type,Address,Entity,Canton,Municipality,Latitude,Longitude,Phone,Email,Url
"Al Amel","Elementary","Osik 8","FBiH","KS","Ilidza","43.83444165","18.27962994","38733230294","",""
"Centar 'Vladimir Nazor'","Elementary","Azize Sirbegovic 80","FBiH","KS","","43.84837829","18.37751985","38733650196","","http://www.vladimirnazor.edu.ba"
"Centar za slijepu i slabovidnu djecu i omladinu","Elementary","Aleje Bosne srebrene 22","FBiH","KS","","43.84083387","18.33657861","38733473019","","http://www.czsd.edu.ba"
"Centar za slusnu i govornu rehabilitaciju","Elementary","Asima Ferhatovica 2","FBiH","KS","","43.87237479","18.41514587","38733664523","","http://www.cersig.edu.ba"
"Cetvrta osnovna skola - Ilidza","Elementary","Put Famosa 33","FBiH","KS","Ilidza","43.79476516","18.32296371","38733698202","","http://www.oscetvrta.edu.ba"
"Deseta osnovna skola Ilidza","Elementary","Osik 210","FBiH","KS","Ilidza","43.84224997","18.27739835","38733564540","",""
"Deveta osnovna skola","Elementary","Rakovicka cesta 339","FBiH","KS","","43.85978209","18.227005","38733428415","","http://www.osdeveta.edu.ba"
"Druga osnovna skola","Elementary","Skolska 1, Hrasnica","FBiH","KS","Ilidza","43.79820354","18.31140876","38733514137","","http://www.osdruga.edu.ba"
"Francuska osnovna skola CIFS Sarajevo","Elementary","Paromlinska 66","FBiH","KS","","43.85474968","18.3726114","38733444405","",""
"Osnovna skola 'Aneks'","Elementary","Vrbovska bb, Sarajevo","FBiH","KS","","43.84322887","18.37163504","38733658883","",""
"Katolicki skolski  centar - Osnovna skola Centar","Elementary","Mehmed pase Sokolovica 11","FBiH","KS","","43.86108944","18.42247367","38733665521","","http://www.ksc-sarajevo.edu.ba"
"Medjunarodna njemacka skola Sarajevo - Internationale Deutsche Schule Sarajevo","Elementary","Buka 13","FBiH","KS","","43.8609328","18.4195447","38733560520","","http://idss.ba"
"Medjunarodna osnovna skola 'Richmond Park International Primary school'","Elementary","Francuske revolucije bb","FBiH","KS","Ilidza","43.84802237","18.39425683","38733944140","","http://www.internationalschool.ba"
"OS 'Mehmed Handzic'","Elementary","Luzani bb - Ilidza","FBiH","KS","","43.82668649","18.30249309","38733626077","","http://www.osmh.edu.ba"
"OS '√êulistan'","Elementary","Ljesevo - Ilijas","FBiH","KS","","43.99147916","18.23356032","38733403321","","http://www.djulistan.edu.ba"
"OS 'Hadzici'","Elementary","Hadzeli bb","FBiH","KS","Hadzici","43.8250786","18.20876595","38733408811","","http://oshadzici.edu.ba"
"OS '6.mart' Hadzici","Elementary","6. Mart 1","FBiH","KS","Hadzici","43.82201123","18.19971085","38733420120","","http://www.os6mart.edu.ba"
"OS '9. maj' Hadzici-Pazaric","Elementary","Bjelasnicka 59","FBiH","KS","","43.78887144","18.15194607","38733417527","","http://www.os9majpa.edu.ba"
"OS 'Al-Walidein-Gazzaz'","Elementary","Hasiba Brankovica 2","FBiH","KS","","43.83769589","18.3501023","38733235507","","http://www.osgazzaz.edu.ba"
"OS 'Aleksa Santic'","Elementary","Branislava Nusica 95","FBiH","KS","","43.83578825","18.33770513","38733456533","","http://www.osas.edu.ba"
"OS 'Alija Nametak'","Elementary","Zaima Sarca 15","FBiH","KS","","43.86530526","18.42203379","38733562297","","http://www.osansa.edu.ba"
"OS 'Avdo Smailovic'","Elementary","Adema Buce 63-b","FBiH","KS","","43.86154971","18.36440384","38733619155","","http://www.osasmailovic.edu.ba"
"OS 'Behaudin Selmanovic'","Elementary","Viteska 6, Brijesce, Sarajevo","FBiH","KS","","43.85783261","18.32325339","38733780020","","http://www.osbs.edu.ba"
"OS 'Camil Sijaric'","Elementary","Brace Mulic 16","FBiH","KS","","43.83066481","18.3403337","38733544301","","http://www.oscsijaricsa.edu.ba"
"OS 'Cengic Vila I'","Elementary","Fetaha Becirbegovica 2","FBiH","KS","","43.85148863","18.36882949","38733653759","","http://www.oscvila1.edu.ba"
"OS 'Dzemaludin Causevic'","Elementary","Prvomajska 24","FBiH","KS","","43.84479578","18.35541844","38733611651","","http://www.oscausevic.edu.ba"
"OS 'Edhem Mulabdic'","Elementary","Konak 1","FBiH","KS","","43.85690427","18.43124986","38733236044","","http://www.osem.edu.ba"
"OS 'Fatima Gunic'","Elementary","Nerkeza Smailagica 18","FBiH","KS","","43.84387497","18.34545135","38733545181","","http://www.osfg.edu.ba"
"OS 'Grbavica II'","Elementary","Behdzeta Mutevelica bb","FBiH","KS","","43.84978647","18.38928938","38733642642","","http://www.osgrbavica2.edu.ba"
"OS 'Grbavica I'","Elementary","Grbavicka 14","FBiH","KS","","43.85241706","18.39707851","38733661278","","http://osgrbavica1.edu.ba"
"OS 'Hamdija Kresevljakovic'","Elementary","Carina 2","FBiH","KS","","43.86221498","18.44324469","38733272720","","http://www.oshk.edu.ba"
"OS 'Hasan Kaimija'","Elementary","Cicin han 93","FBiH","KS","","43.84912107","18.41786027","38733559906","","http://www.oshkaimija.edu.ba"
"OS 'Hasan Kikic'","Elementary","Gorica 27","FBiH","KS","","43.86076067","18.41036618","38733445137","","http://www.oshkikic.edu.ba"
"OS 'Hasim Spahic' Ilijas","Elementary","Krajiska bb","FBiH","KS","","43.96020212","18.2681179","38733400996","","http://www.oshs.edu.ba"
"OS 'Hilmi ef. Saric' Hadzici-Tarcin","Elementary","Bratstva i jedinstva 38","FBiH","KS","","43.79309236","18.09267998","38733428395","","http://www.oshilmi.edu.ba"
"OS 'Hrasno'","Elementary","Porodice Ribar 2","FBiH","KS","","43.84994896","18.38244438","38733647451","","http://www.oshrasno.edu.ba"
"OS 'Isa-beg Ishakovic'","Elementary","Kemala Kapetanovica 43","FBiH","KS","","43.85057566","18.38854909","38733652231","","http://www.isabeg.edu.ba"
"OS 'Isak Samokovlija'","Elementary","Fra Andjela Zvizdovica 1","FBiH","KS","","43.85782101","18.40625703","38733212499","","http://www.osis.edu.ba"
"OS 'Izet Sabic' Hotonj - Vogosca","Elementary","Donji Hotonj bb","FBiH","KS","","43.89844902","18.37167263","38733481090","","http://www.osizetsabic.edu.ba"
"OS 'Kovacici'","Elementary","Zagrebacka 22a","FBiH","KS","","43.8513571","18.39882731","38733615878","","http://www.oskovacici.edu.ba"
"OS 'Malta'","Elementary","Marka Marulica 27","FBiH","KS","","43.85504753","18.37939739","38733613502","","http://www.osmalta.edu.ba"
"OS 'Mehmed beg Kapetanovic Ljubusak'","Elementary","Brace Begic 19","FBiH","KS","","43.86748654","18.40596199","38733220491","","http://www.osmbklj.edu.ba"
"OS 'Mehmedalija Mak Dizdar'","Elementary","Zrtava fasizma 14","FBiH","KS","","43.8465445","18.36530507","38733644897","","http://www.osmmdsa.edu.ba"
"OS 'Mesa Selimovic'","Elementary","Geteova 16","FBiH","KS","","43.84446305","18.35139513","38733543113","","http://www.osmssa.edu.ba"
"OS 'Mirsad Prnjavorac' - Vogosca","Elementary","Josanicka 51","FBiH","KS","","43.90011886","18.34326267","38733430910","","http://www.osmp.edu.ba"
"OS 'Mula Mustafa Baseskija'","Elementary","Logavina 52","FBiH","KS","","43.86263656","18.42804193","38733238151","","http://www.osmmbsa.edu.ba"
"OS 'Musa Cazim Catic'","Elementary","Cekalusa 53","FBiH","KS","","43.86345652","18.41543555","38733216567","","http://www.osmccsa.edu.ba"
"OS 'Mustafa Busuladzic'","Elementary","Ahatovicka 41","FBiH","KS","","43.88137679","18.28667879","38733629574","","http://www.osdobrosevici.edu.ba"
"OS 'Nafija Sarajlic'","Elementary","Patriotske lige 57","FBiH","KS","","43.87377855","18.41244757","38733209232","","http://www.osnsarajlic.edu.ba"
"OS 'Osman Nakas'","Elementary","Gradacacka 39","FBiH","KS","","43.84860267","18.3716619","38733641287","","http://www.osonakas.edu.ba"
"OS 'Osman Nuri Hadzic'","Elementary","Lava Tolstoja 6","FBiH","KS","","43.82495266","18.3541739","38733460362","","http://www.osonh.edu.ba"
"OS 'Podlugovi' Ilijas","Elementary","Zrtava genocida u Srebrenici 212","FBiH","KS","","43.9690673","18.25951338","38733401017","","http://www.ospodlugovi.edu.ba"
"OS 'Pofalici'","Elementary","Ivanjska 1","FBiH","KS","","43.85965831","18.38947177","38733644163","","http://www.ospofalici.edu.ba"
"OS 'Porodice ef. Ramic' - Vogosca","Elementary","Nova cesta 62","FBiH","KS","","43.92016109","18.31919789","38733430993","","http://www.osramic.edu.ba"
"OS 'Saburina'","Elementary","Saburina 4","FBiH","KS","","43.86371566","18.43593836","38733538340","","http://www.ossaburina.edu.ba"
"OS 'Safvet beg Basagic'","Elementary","Gimnazijska 1","FBiH","KS","","43.85686172","18.42371285","38733205923","","http://www.ossbb.edu.ba"
"OS 'sejh Muhamed ef. Hadzijamakovic'","Elementary","Iza Hrida 11","FBiH","KS","","43.85373618","18.43701124","38733532324","","http://www.ossmeh.edu.ba"
"OS 'Skender Kulenovic'","Elementary","Bulevar Mimar Sinana bb","FBiH","KS","","43.82782428","18.34634185","38733451600","","http://www.os-sk.edu.ba"
"OS 'Sokolje'","Elementary","Numan pase Cuprilica do 17","FBiH","KS","","43.86620254","18.3164835","38733765540","","http://www.ossokolje.edu.ba"
"OS 'Srednje' Ilijas","Elementary","Srednje bb","FBiH","KS","","44.00902137","18.43626022","38733489047","","http://www.ossrednje.edu.ba"
"OS 'Umihana Cuvidina'","Elementary","Smaje Sikala 1","FBiH","KS","","43.85247122","18.3445394","38733541009","","http://www.osuc.edu.ba"
"OS 'Velesicki heroji'","Elementary","Velesici 2","FBiH","KS","","43.86809373","18.39685857","38733214598","","http://www.osvh.edu.ba"
"OS 'Vladislav Skaric'","Elementary","Terezija 48","FBiH","KS","","43.85330679","18.40929866","38733212031","","http://www.osvs.edu.ba"
"OS 'Vrhbosna'","Elementary","Baruthana 60","FBiH","KS","","43.87716984","18.46026063","38733240100","","http://www.osvrhbosna.edu.ba"
"OS 'Zahid Barucija' - Vogosca","Elementary","Omladinska 14","FBiH","KS","","43.8982944","18.34886312","38733432650","","http://www.oszb.edu.ba"
"OS 'Zaim Kolar' - Trnovo","Elementary","Dejcici","FBiH","KS","","43.68646737","18.34131539","38733438001","","http://www.oszk.edu.ba"
"OS 'Zajko Delic' - Vogosca","Elementary","Slatinski put 3","FBiH","KS","","43.88432303","18.38522315","38733426830","","http://www.oszd.edu.ba"
"Osma osnovna skola 'Amer Cenanovic' - Ilidza","Elementary","Ilirska 2","FBiH","KS","","43.8229169","18.32060337","38733771316","","http://www.osmaosnovnail.edu.ba"
"Osnovna muzicka i baletska skola - Novo Sarajevo","Elementary","Kemala Kapetanovica 43","FBiH","KS","","43.85031647","18.38864565","38733651523","","http://www.osmbaletska.edu.ba"
"Osnovna muzicka skola  - Ilidza","Elementary","Josipa Slavenskog 24","FBiH","KS","Ilidza","43.83443391","18.30635548","38733623400","","http://www.muzickail.edu.ba"
"Osnovna muzicka skola 'Mladen Pozajic'","Elementary","Josipa Stadlera 1","FBiH","KS","","43.8603236","18.42482328","38733212410","","http://www.omsmp.edu.ba"
"Osnovna skola 'Maarif'","Elementary","","FBiH","KS","","43.83717741","18.34920641","38762271004","","http://www.maarifschools.edu.ba"
"OS 'Silvije Strahimir Kranjcevic'","Elementary","Mehmed pase Sokolovica 2","FBiH","KS","","43.8608651","18.4214437","38733219825","","http://www.ossskranjcevic.edu.ba"
"Peta osnovna skola - Ilidza","Elementary","Umihane Cuvidine 58","FBiH","KS","Ilidza","43.81097958","18.31111908","38733515177","","http://www.ospeta.edu.ba"
"Privatna osnovna skola 'Bloom'","Elementary","Nalina 16, Stari Grad Sarajevo","FBiH","KS","","43.85307856","18.44050884","38733207899","","http://www.bloom.edu.ba"
"Prva osnovna skola - Ilidza","Elementary","Mala aleja 15","FBiH","KS","Ilidza","43.81310091","18.28748345","38733639575","","http://www.osprvail.edu.ba"
"Quality Schools International - International School of Sarajevo (QSIS Sarajevo)","Elementary","Omladinska 16","FBiH","KS","","43.89812432","18.34923863","38733424450","",""
"Sedma osnovna skola - Ilidza","Elementary","Blazuj 118","FBiH","KS","Ilidza","43.84795273","18.24521184","38733761630","","http://www.sedma-osnovna.edu.ba"
"Sesta osnovna skola  - Ilidza","Elementary","Barska bb","FBiH","KS","Ilidza","43.84762002","18.30562591","38733623405","","http://www.ossesta.edu.ba"
"Treca osnovna skola - Ilidza","Elementary","Nasihe Kapidzic Hadzic 1","FBiH","KS","Ilidza","43.83376834","18.30261111","38733638479","","http://www.trecaosnovna.edu.ba"
"Zavod  'Mjedenica'","Elementary","Mjedenica 34","FBiH","KS","","43.8554537","18.42464089","38733207963","","http://www.zamjed.edu.ba"
"OS 'Musa Cazim Catic'","Elementary","Skolska ulica 23","FBiH","ZDK","Zenica","44.2040385","17.9067343","38732401106","",""
"Mak Dizdar","Elementary","Curukovica put 17","FBiH","ZDK","Zenica","44.2033958","17.9190767","38732460348","",""
"OS 'Mesa Selimovic'","Elementary","","FBiH","ZDK","Zenica","44.1969917","17.9111923","38732408020","",""
"Arnauti","Elementary","","FBiH","ZDK","Zenica","44.2011076","18.0509696","38732439021","",""
"Vladimir Nazor","Elementary","Sarajevska 20","FBiH","ZDK","Zenica","44.195959","17.9084459","38732445210","",""
"Miroslav Krleza","Elementary","Travnicka cesta 8","FBiH","ZDK","Zenica","44.2008083","17.9003569","38732401536","","http://www.osmkze.com.ba/"
"Hasan Kikic - Tetovo","Elementary","Tetovska 391","FBiH","ZDK","Zenica","44.2321035","17.8882179","38732460585","",""
"Skender Kulenovic","Elementary","Profesora M. Causevica 1","FBiH","ZDK","Zenica","44.1952676","17.9319063","38732426920","",""
"Alija Nametak - Pehare","Elementary","Risicki put","FBiH","ZDK","Zenica","44.221499","17.91374","38732456156","",""
"Enver Colakovic - Janjici","Elementary","Sarajevska 210","FBiH","ZDK","Zenica","44.158187","17.961556","38732453004","",""
"Hamza Humo - Babino","Elementary","Babino","FBiH","ZDK","Zenica","44.235599","18.008291","38732436126","",""
"Camil Sijaric - Nemila","Elementary","Doglodska 7","FBiH","ZDK","Zenica","44.332822","17.912249","38732465001","","http://oscsijaricsa.edu.ba/"
"Aleksa Santic - Perin Han","Elementary","Bistua Nuova 213","FBiH","ZDK","Zenica","44.185641","17.96769","38732465035","",""
"Ahmed Muradbegovic - Stranjani","Elementary","Stranjani bb","FBiH","ZDK","Zenica","44.230329","17.848248","38732434042","",""
"Osnovna muzicka skola","Elementary","Skolska 17","FBiH","ZDK","Zenica","44.203211","17.905116","38732242307","",""
"Osnovna specijalna skola","Elementary","M. Tarabara 10","FBiH","ZDK","Zenica","44.200381","17.907568","38732407985","",""
"Hamdija Kresevljakovic","Elementary","Ulica sehida b.b.","FBiH","ZDK","Kakanj","44.123473","18.114953","38732552860","",""
"Resad Kadic - Brnjic","Elementary","Brnjic","FBiH","ZDK","Kakanj","44.22844","18.104922","","",""
"Ahmed Muradbegovic","Elementary","","FBiH","ZDK","Kakanj","44.23041","17.848149","38732434042","",""
"Mula Mustafa Baseskija","Elementary","Rudarska 19","FBiH","ZDK","Kakanj","44.135864","18.125003","38732557440","",""
"Omer Music - Ricice","Elementary","Podbjelavici","FBiH","ZDK","Kakanj","44.10133","18.150561","38732777118","",""
"15. April","Elementary","29. Novembra","FBiH","ZDK","Kakanj","44.114436","18.108726","38732775443","",""
"Alija Nametak","Elementary","A.Beslagica b.b.","FBiH","ZDK","Zepce","44.351857","17.991515","38732894291","",""
"Abdulvehab Ilhamija","Elementary","Zeljzno Polje","FBiH","ZDK","Zepce","44.405195","17.933023","38762670377","",""
"Zepce","Elementary","Stjepana Radica","FBiH","ZDK","Zepce","44.424381","18.03866","38762881724","",""
"Glazbena skola Katarina Kosaca Kotromanic","Elementary","Zagrebacka","FBiH","ZDK","Zepce","44.426074","18.032024","38732880453","",""
"Prva osnovna skola - Zavidovici","Elementary","Safvet-bega Basagica bb","FBiH","ZDK","Zavidovici","44.437833","18.145461","38732878808","",""
"Druga osnovna skola - Zavidovici","Elementary","8. Marta","FBiH","ZDK","Zavidovici","44.445782","18.143168","38732877728","",""
"Osnovna skola Kovaci","Elementary","Kovaci","FBiH","ZDK","Zavidovici","44.4422","18.212264","38732871425","",""
"Vozuca-Ribnica","Elementary","Vozuca bb","FBiH","ZDK","Zavidovici","44.379515","18.361034","38732856375","","https://www.osvozuca.edu.ba/"
"Hajdarevici","Elementary","Hajdarevici bb","FBiH","ZDK","Zavidovici","44.469738","18.250745","38732465076","pkonak@bih.net.ba",""
"OS 'Gostovic'","Elementary","Gostovic bb","FBiH","ZDK","Zavidovici","44.418087","18.16544","38732465114","osgostovic@bih.net.ba",""
"Maglaj","Elementary","Aleja Ljiljana 11","FBiH","ZDK","Maglaj","44.54442","18.09808","38732603465","",""
"Prva osnovna skola","Elementary","Aleja Ljiljana 46","FBiH","ZDK","Maglaj","44.552342","18.100586","38732603386","","prvaosmaglaj.com.ba"
"Novi seher","Elementary","Novi Seher bb","FBiH","ZDK","Maglaj","44.51285","18.025988","38732611803","",""
"Osnovna skola Mustafa Mulic","Elementary","Sije","FBiH","ZDK","Tesanj","44.661939","18.070627","38732694004","",""
"Abdulvehab Ilhamija","Elementary","Kalosevic","FBiH","ZDK","Tesanj","44.646225","17.905839","38732664178","","http://osaik.com.ba"
"Gazi Ferhat-beg","Elementary","Jablanica","FBiH","ZDK","Tesanj","44.58722","18.022431","38732651087","",""
"9. Septembar","Elementary","Medakovo","FBiH","ZDK","Tesanj","44.637972","18.015077","38732662094","",""
"Resad Kadic","Elementary","Novo naselje","FBiH","ZDK","Tesanj","44.620045","17.986338","38732650274","",""
"1. Mart","Elementary","Jelah","FBiH","ZDK","Tesanj","44.654262","17.962843","38732663210","",""
"Kulin Ban","Elementary","Tesanjka","FBiH","ZDK","Tesanj","44.672561","18.011593","38732662034","",""
"Dzemal Bijedic","Elementary","Miljanovci","FBiH","ZDK","Tesanj","44.686158","17.929884","38732668888","",""
"Huso Hodzic","Elementary","Brace Pobric","FBiH","ZDK","Tesanj","44.608966","17.987963","38732656290","",""
"21. Mart","Elementary","Trg 21. marta 12","FBiH","ZDK","Doboj Jug","44.69649","18.048945","38732691909","os21mart@bih.net.ba",""
"Safvet-beg Basagic","Elementary","Donja Mahala 42","FBiH","ZDK","Visoko","43.990358","18.177246","38732738423","",""
"Kulin Ban","Elementary","Gornje Rosulje 1","FBiH","ZDK","Visoko","43.988052","18.176903","38732731050","",""
"Mula Mustafa Baseskija","Elementary","Donje Mostre","FBiH","ZDK","Visoko","44.02354","18.131581","38732740987","",""
"Musa Cazim Catic","Elementary","Veliko Cajno","FBiH","ZDK","Visoko","44.024401","18.201443","38732745815","",""
"Mehmedalija Mak Dzidar","Elementary","Dobrinje","FBiH","ZDK","Visoko","44.049924","18.112573","38732748008","",""
"Avdo Smajlovic","Elementary","Islamovica 6","FBiH","ZDK","Visoko","43.990383","18.177623","38732738790","",""
"Alija Nametak","Elementary","Buci 74","FBiH","ZDK","Visoko","43.961375","18.182033","38732720147","",""
"Safvet-beg Basagic","Elementary","Branilaca grada b.b.","FBiH","ZDK","Breza","44.010181","18.255998","38732789030","",""
"Enver Colakovic","Elementary","Sehidska broj 32","FBiH","ZDK","Breza","44.022596","18.265688","38732789350","",""
"Vares","Elementary","Put mira 37","FBiH","ZDK","Vares","44.161919","18.325906","38732849250","","http://www.os-vares.com.ba/"
"Vares Majdan","Elementary","Perunska 24","FBiH","ZDK","Vares","44.137344","18.316105","38732843018","",""
"Olovo","Elementary","Skolska b.b.","FBiH","ZDK","Olovo","44.129766","18.582563","38732825163","ossaudb@bih.net.ba",""
"Hasan Kikic","Elementary","Solun","FBiH","ZDK","Olovo","44.167008","18.543115","38732827002","ossaudb@bih.net.ba",""
"Ivan fra Frano Jukic","Elementary","","FBiH","ZDK","Usora","44.70012","17.976879","38732895272","",""
"Mustafa Ejubovic - sejh Jujo","Elementary","Sehovina bb","FBiH","HNK","Mostar","43.332659","17.823106","38736576765","","https://modos.ba/"
"IV osnovna skola","Elementary","Salke Sestica 23","FBiH","HNK","Mostar","43.343524","17.815535","38736551463","ivosnovnamo@yahoo.com",""
"VI osnovna skola","Elementary","A. Santica 10","FBiH","HNK","Mostar","43.344907","17.809512","38736580288","",""
"O.S. Mujaga Komadina","Elementary","Gojka Vukovica 9","FBiH","HNK","Mostar","43.334056","17.815334","38736578217","",""
"Centar za dje. i omla.sa pos.potr.Los Rosales","Elementary","Juzni logor","FBiH","HNK","Mostar","43.32435","17.823066","38736556581","","http://www.los-rosales.com/"
"Osnovna skola Blagaj","Elementary","Blagaj bb","FBiH","HNK","","43.258782","17.88797","38736572479","",""
"Osnovna skola Gnojnice","Elementary","Gnojnice bb","FBiH","HNK","","43.302486","17.844604","38736584598","",""
"O.S. Omer Maksumic Podvelezje","Elementary","Podvelezje bb","FBiH","HNK","","43.308737","17.91155","38736560291","",""
"Osnovna skola Zalik","Elementary","Sjeverni logor bb","FBiH","HNK","","43.357502","17.812034","38736571113","","http://oszalik.com.ba/"
"Osnovna skola Vrapcici","Elementary","Vrapcici bb","FBiH","HNK","","43.373499","17.850007","38736582162","",""
"O.S. Bijelo Polje - Potoci","Elementary","Potoci bb","FBiH","HNK","","43.401493","17.888932","38736556841","",""
"Osnovna skola Dresnica","Elementary","Dresnica bb","FBiH","HNK","","43.525465","17.715817","38736586235","",""
"O.S. Suljo Cilic","Elementary","Bokulja 28","FBiH","HNK","","43.662493","17.756499","38736752801","","http://www.suljocilic.com.ba/"
"O.S. Alija Isakovic - Prozor","Elementary","Prozor bb","FBiH","HNK","","43.820266","17.611894","38736770513","",""
"Prva osnovna skola - Konjic","Elementary","3. Mart","FBiH","HNK","Konjic","43.654491","17.954709","38736734031","",""
"Druga osnovna skola - Konjic","Elementary","Musala bb","FBiH","HNK","Konjic","43.650867","17.964467","38736726192","",""
"Osnovna skola Celebici - Konjic","Elementary","Celebici bb","FBiH","HNK","Konjic","43.684325","17.897218","38736721464","",""
"Osnovna skola Parsovici","Elementary","Parsovici bb Polje","FBiH","HNK","Konjic","43.770805","17.813957","38736741197","",""
"Osnovna skola Scipe","Elementary","Scipe bb","FBiH","HNK","","43.82441","17.743661","38736285106","",""
"Osnovna skola Seonica - Konjic","Elementary","Seonica bb Polje","FBiH","HNK","Konjic","43.738777","17.84135","38736742457","",""
"Osnovna skola Glavaticevo","Elementary","Glavaticevo bb","FBiH","HNK","Konjic","43.503452","18.104726","38736739044","",""
"Osnovna skola Capljina","Elementary","Petra Kresimira IV","FBiH","HNK","","43.111055","17.701448","38736806275","",""
"Prva osnovna skola Stolac","Elementary","Stolac bb","FBiH","HNK","","43.083377","17.959429","38736854006","",""
"Medjunarodna osnovna skola Mostar","Elementary","Zalik bb","FBiH","HNK","","43.358586","17.814563","38736833410","",""
"O.S. Antuna Branka Simica","Elementary","Kraljice Katarine 38","FBiH","HNK","","43.337996","17.801907","38736330552","",""
"III Osnovna skola","Elementary","Trg hrvatskih velikana bb","FBiH","HNK","Mostar","43.342735","17.802143","38736318451","",""
"O.S. Ilici","Elementary","Ilici bb","FBiH","HNK","Mostar","43.3448","17.775588","38736330732","",""
"O.S. Ivana Gundulica","Elementary","Rudarska 87","FBiH","HNK","Mostar","43.353912","17.799376","38736347196","",""
"O.S. Silvije S. Kranjcevica","Elementary","Bleiburskih zrtava 35","FBiH","HNK","Mostar","43.34965","17.791783","38736311160","",""
"O.S. Cim","Elementary","Trece cimske bojne","FBiH","HNK","Mostar","43.35098","17.782768","38736341712","",""
"O.s Petra Bakule","Elementary","Kralja Tomislava 9","FBiH","HNK","Mostar","43.347957","17.799453","38736328675","",""
"O.S. Ilije Jakovljevica","Elementary","Ante Starcevica bb","FBiH","HNK","Mostar","43.352497","17.803746","38736324919","",""
"O.S. za djecu s posebnim potrebama","Elementary","Nikole Subica Zrinjskog bb","FBiH","HNK","Mostar","","","38736313250","",""
"O.S. Bartola Kasica Rodoc","Elementary","Rude Hrozniceka 46","FBiH","HNK","Mostar","43.316412","17.816866","38736350128","",""
"O.S. Marina Drzica","Elementary","Buna bb","FBiH","HNK","Mostar","","","38736480510","",""
"O.S. Krusevo","Elementary","Krusevo bb","FBiH","HNK","Mostar","43.285679","17.753615","38736486380","",""
"O.S. fra Didaka Buntica","Elementary","Citluk bb","FBiH","HNK","","43.227897","17.698069","38736642086","",""
"O.S. Cerin Citluk","Elementary","Cerin bb","FBiH","HNK","","43.269807","17.636775","38736652554","",""
"O.S. Bijakovici","Elementary","Bijakovici bb","FBiH","HNK","","43.190858","17.680488","38736651102","",""
"O.S. Vladimira Pavlovica","Elementary","Capljina bb","FBiH","HNK","","43.113285","17.702626","38736805091","",""
"O.S. Lipanjske zore","Elementary","Visici bb","FBiH","HNK","","43.064885","17.710916","38736814066","",""
"Osnovna skola Stolac","Elementary","Stolac bb","FBiH","HNK","","43.083376","17.959411","38736853443","",""
"Osnovna skola Crnici","Elementary","Crnici bb","FBiH","HNK","","43.126174","17.857986","38736862235","",""
"Osnovna skola Ravno","Elementary","Ravno bb","FBiH","HNK","","42.887737","17.963443","38736891525","",""
"O.S. Kardinala Stepinca","Elementary","Neum bb","FBiH","HNK","","42.929304","17.616859","38736880017","",""
"O.S. Marka Marulica","Elementary","Kralja Tomislava bb","FBiH","HNK","Prozor-Rama","43.821866","17.607904","38736770070","",""
"O.S. fra Jeronima","Elementary","Ripci bb","FBiH","HNK","Prozor-Rama","","","38736780675","",""
"O.S. Ivana Mazuranica","Elementary","Gracac bb","FBiH","HNK","","43.728065","17.680841","38736784012","",""
"O.S. Veselka Tenzere Uzdol","Elementary","Uzdol bb","FBiH","HNK","","","","38736783004","",""
"Glazbena skola Brotnjo - Citluk","Elementary","S.S.Kranjcevica 2","FBiH","HNK","","43.227554","17.697559","38736644687","",""
"OS Harmani 1","Elementary","Harmanski Sokak 3","FBiH","USK","","44.813877","15.867208","38737223292","os.harmani1@bih.net.ba",""
"OS Harmani 2","Elementary","Esrefa Kovacevica bb","FBiH","USK","","44.811716","15.865522","38737220198","harmani_2@hotmail.com",""
"OS Prekounje","Elementary","Safvet-bega Basagica 26","FBiH","USK","","44.817292","15.876488","38737311030","skola_prekounje@hotmail.com",""
"OS Gornje Prekounje Ripac","Elementary","Vejzovac bb","FBiH","USK","","44.813933","15.883303","38737319231","os.gornjep@hotmail.com",""
"OS Kamenica","Elementary","Mula Mustafe Baseskije bb","FBiH","USK","","44.843671","15.829912","38737388142","os.kamenica@gmail.com",""
"OS Gata Ilidza-Vrsta","Elementary","Gata, Bihac","FBiH","USK","Bihac","44.931559","15.810354","38737370310","skolagata.gata@gmail.com",""
"OS Brekovica","Elementary","Brekovica bb","FBiH","USK","","44.880411","15.885134","38737302131","os.brekovica@bih.net.ba",""
"OS Kulen Vakuf - Orasac","Elementary","Trg zrtava 12. juni","FBiH","USK","","44.627411","16.070285","38737365651","os.kulenvakuf.orasac@bih.net.ba",""
"KsC 'Ivan Pavao II'","Elementary","Ceravci bb","FBiH","USK","","44.816814","15.850486","38737350850","ksc-bihac@net.hr",""
"Medjunarodna osnovna skola 'Richmond Park International Primary school'","Elementary","Safvet-bega Basagica","FBiH","USK","Bihac","44.818598","15.877278","38737312902","bihac@rps.edu.ba",""
"Prva osnovna skola","Elementary","Trg Avde Cuka 36","FBiH","USK","Bosanska Krupa","44.882873","16.158731","38737471107","prvaosnovna_bk@yahoo.com",""
"Druga osnovna skola","Elementary","Zahum bb","FBiH","USK","","44.885751","16.160608","38737472066","druga_osnovna_skola@hotmail.com",""
"OS 'Jezerski'","Elementary","Jezerski bb","FBiH","USK","","44.976092","16.09199","38737481063","osjezerski@hotmail.com",""
"OS Otoka","Elementary","Otoskih heroja bb","FBiH","USK","","44.962609","16.181094","38737477003","juotoka@bih.net.ba",""
"OS Ahmet Hromadzic","Elementary","V Korpusa bb","FBiH","USK","","44.552688","16.368356","38737881047","skola.bp@bih.net.bos.buzim@bih.net.ba",""
"OS Buzim","Elementary","Generala Izeta Nanica 35","FBiH","USK","","45.063648","16.028758","38737410114","os.buzim@bih.net.ba",""
"OS Konjodor","Elementary","Konjodor bb","FBiH","USK","","45.005641","16.0289","38737425089","os_konjodor@hotmail.com",""
"OS Mirsad Salkic","Elementary","Cava bb","FBiH","USK","Buzim","45.027206","16.092354","38737423265","osmirsad.salkic@gmail.com","https://oscava.com/"
"OS Cazin I","Elementary","Hasana Mujezinovica","FBiH","USK","","44.96396","15.937528","38737514221","osnovna.skola.cazin.1@gmail.com",""
"OS Cazin II","Elementary","Cuprija bb","FBiH","USK","","44.967161","15.925122","38737539032","oscazin2@gmail.com",""
"OS Coralici","Elementary","Coralici bb","FBiH","USK","","44.982997","15.883709","38737536598","juoscoralici@gmail.com",""
"OS Gornja Koprivna","Elementary","Gornja Koprivna bb","FBiH","USK","","45.01093","15.954915","38737550673","os.gornjakoprivna@bih.net.ba",""
"OS Liskovac","Elementary","Liskovac bb Pecigrad","FBiH","USK","","45.04447","15.846904","38737551008","mirsada.beganovic@hotmail.com",""
"OS Ostrozac","Elementary","Ostrozac bb","FBiH","USK","","44.908346","15.93171","38737531159","juosostrozac@hotmail.com",""
"OS Pecigrad","Elementary","Pecigrad bb","FBiH","USK","","45.053939","15.89726","38737540204","ospecigrad@hotmail.com",""
"OS Skokovi","Elementary","Skokovi bb","FBiH","USK","","45.029848","15.915172","38737547302","os.skokovi@gmail.com",""
"OS Stijena","Elementary","Stijena bb","FBiH","USK","","44.943729","16.020051","38737543536","osstijena@hotmail.com",""
"OS Sturlic","Elementary","Sturlic bb","FBiH","USK","","45.058561","15.782533","38737555002","os.sturlic@gmail.com",""
"OS Trzacka Rastela","Elementary","Trzacka Rastela bb","FBiH","USK","","44.975897","15.78447","38737520033","juosrastela1@hotmail.com",""
"OS Kljuc","Elementary","Kulina bana bb","FBiH","USK","","44.53332","16.77713","38737660127","os.kljuc@bih.net.ba",""
"OS Velagic","Elementary","Velagici bb","FBiH","USK","","44.559153","16.723689","38737647712","ju.os.velagici@gmail.com",""
"OS Sanica","Elementary","Sanica","FBiH","USK","","44.615467","16.642678","38737671008","skola.sanica@hotmail.com",""
"Prva osnovna skola","Elementary","Ibrahima Mrsljaka 27","FBiH","USK","","45.185166","15.80441","38737773811","prvaosnovnaskola.vk@gmail.com",""
"OS 25. Novembar","Elementary","Bihackih brigada 7","FBiH","USK","","45.183053","15.811749","38737770208","os.25.novembar@bih.net.ba",""
"OS Crvarevac","Elementary","Crvarevac, Zboriste bb","FBiH","USK","","45.128627","15.992269","38737725632","juos.crvarevac@yahoo.se",""
"OS Donja Vidovska","Elementary","Donja Vidovska","FBiH","USK","","45.128313","15.815685","38737723331","os.donjavidovska@hotmail.com",""
"OS Sead Cehic","Elementary","Grahovo, Mala Kladusa","FBiH","USK","Velika Kladusa","45.141381","15.842332","38737720504","osseadcehic@hotmail.com",""
"OS Podzvizd","Elementary","Podzvizd bb","FBiH","USK","","45.18082","15.873527","38737718923","podzvizd@bih.net.ba",""
"OS Fadil Bilal","Elementary","Sumatac bb","FBiH","USK","Velika Kladusa","45.097419","15.858521","38737713448","os.fadilbilal@bih.net.ba",""
"OS Todorovska Slapnica","Elementary","Todorovska slapnica bb","FBiH","USK","","45.129923","15.909253","38737728388","os.todslapnica@bih.net.ba",""
"OS Todorovo","Elementary","Todorovo bb","FBiH","USK","","45.084282","15.92986","38737716858","os_todorovo@hotmail.com",""
"OS 1. Mart","Elementary","Vrnograc bb","FBiH","USK","","45.16342","15.954978","38737710481","os1mart.vrnograc@gmail.com",""
"OS 5. Oktobar","Elementary","Naselje 17, Viteske bb","FBiH","USK","","44.768872","16.655601","38737686172","oss.5.oktobar@bih.net.ba",""
"OS Hasan Kikic","Elementary","Kljucka 23","FBiH","USK","Sanski Most","44.763475","16.668178","38737685271","hasankikic_sa@hotmail.com",""
"OS Prva sanska skola","Elementary","Banjalucka bb","FBiH","USK","","44.768522","16.673879","38737689437","os.prvasanskaskola@hotmail.com",""
"OS Mahala","Elementary","Hamzibegova mahala bb","FBiH","USK","","44.75623","16.668927","38737681989","os.mahala@gmail.com",""
"OS Skender Kulenovic","Elementary","Donji kamengrad bb","FBiH","USK","","44.787172","16.574918","38737695040","skulenovic@live.com",""
"OS Fajtovci","Elementary","Fajtovci","FBiH","USK","","44.79045","16.51349","38737698404","sekretar@osfajtovci.com",""
"OS Vrhpolje","Elementary","Vrhpolje bb","FBiH","USK","","44.685326","16.735685","38737692809","vrhpolje.skola@gmail.com",""
"Osnovna muzicka skola 'Avdo Smailovic'","Elementary","Seada Sofovica Sofe bb","FBiH","BPK","","43.667971","18.97571","38738222422","muzicka.gorazde@gmail.com",""
"Osnovna skola 'Praca'","Elementary","Trg Kemala Keme Hrve 1","FBiH","BPK","","43.76259","18.763757","38738799104","juospraca@bih.net.ba",""
"Osnovna skola 'Hasan Turcalo Brzi'","Elementary","Omladinska 1","FBiH","BPK","","43.639995","18.816293","3873824022","osbrzi@bih.net.ba",""
"Osnovna skola 'Fahrudin Fahro Bascelija'","Elementary","","FBiH","BPK","Gorazde","43.664339","18.972435","38738240750","juosffb@bih.net.ba",""
"Osnovna skola 'Husein ef. Djozo'","Elementary","Seada Sofovica Sofe 4","FBiH","BPK","Gorazde","43.668007","18.975281","38738221215","oshed@bih.net.ba","http://oshed.com.ba/"
"Osnovna skola 'Mehmedalija Mak Dizdar'","Elementary","","FBiH","BPK","","43.626841","18.958362","38738230553","mak000@bih.net.ba",""
"Osnovna skola 'Mehmedalija Mak Dizdar'","Elementary","","FBiH","BPK","","43.618621","18.912935","38738230553","mak000@bih.net.ba",""
"Osnovna skola 'Ustikolina'","Elementary","","FBiH","BPK","","43.581596","18.790197","38738518139","os_ustikolina@hotmail.com",""
"Osnovna skola 'Mehmedalija Mak Dizdar'","Elementary","","FBiH","BPK","","43.665531","18.886515","38738825163","mak000@bih.net.ba",""
"Osnovna skola Marka Marulica - Ljubuski","Elementary","Zrinsko-frankopanska bb","FBiH","ZHK","","43.196112","17.543845","38739833724","os.marko.marulic.ljubuski@tel.net.ba","http://os-markamarulica.info/"
"Osnovna skola Ivane Brlic Mazuranic Ljubuski","Elementary","Gracine, Humac I","FBiH","ZHK","","43.182619","17.526955","38739831315","oshumac@tel.net.ba",""
"Osnovna skola Tina Ujevica - Vitina","Elementary","Vitina bb","FBiH","ZHK","","43.239555","17.480938","38739841651","os.vitina@tel.net.ba",""
"Osnovna skola Ante Brune Busica - Rakitno","Elementary","Poklecani bb","FBiH","ZHK","","43.549905","17.42871","38739692410","os.abb@rakitno.net",""
"Osnovna skola Franica Dall'era - Vir","Elementary","Mecet bb","FBiH","ZHK","","43.52391","17.204688","38739691291","os.vir@tel.net.ba",""
"Osnovna skola Ivana Mazuranica- Posusje","Elementary","Simuna Cuture 16","FBiH","ZHK","","43.472142","17.330803","38739681023","o.s.posusje@tel.net.ba",""
"Osnovna skola Rudjera Boskovica -Grude","Elementary","Ivana Alilovica bb","FBiH","ZHK","","43.3694","17.415917","38739662329","os.grude@tel.net",""
"Osnovna skola Antuna Branka i Stanislava Simica - Drinovci","Elementary","Srediste 203","FBiH","ZHK","","43.360839","17.322715","38739672520","osdrinovci@gmail.com",""
"Osnovna skola fra. Stipana Vrljica - Sovici","Elementary","","FBiH","ZHK","","43.405752","17.322056","38739670062","os.sovici@tel.net.ba",""
"Prva osnovna skola - Siroki Brijeg","Elementary","Augusta Senoe 6","FBiH","ZHK","","43.377612","17.586251","38739703359","prvaosnovnaskola.sbrijeg@gmail.com",""
"Druga osnovna skola - Siroki Brijeg","Elementary","","FBiH","ZHK","","43.378375","17.604844","38739704590","druga.ossb@yahoo.com",""
"Osnovna skola Kocerin","Elementary","Kocerin bb","FBiH","ZHK","","43.389618","17.484661","38739711213","oskocerin@gmail.com","www.os-kocerin.com"
"Osnovna skola Biograci","Elementary","Biograci bb","FBiH","ZHK","","43.323011","17.674317","38739713417","os.biograci@wic.ba",""
"Osnovna skola Vranic","Elementary","Vranic bb","FBiH","ZHK","","43.42953","17.409632","38739694355","osnovnaskolavranic@gmail.com ",""
"JU OS Banovici","Elementary","Patriotske lige 8","FBiH","TK","Banovici","44.404569","18.525017","38735876214","os.banovici@montk.gov.ba","https://juosbanovici.weebly.com/"
"JU OS 'Grivice'","Elementary","Bozicka Banovica 4","FBiH","TK","Banovici","44.40847","18.526421","38735871150","juos.grivice@bih.net.ba","www.grivice.com"
"JU OS 'Seona' Aljkovici","Elementary","Aljkovici bb","FBiH","TK","Banovici","44.43451","18.377131","38735883440","os.seona@bih.net.ba",""
"JU OS 'Banovici Selo'","Elementary","Banovici Selo bb","FBiH","TK","Banovici","44.405161","18.443896","38735872105","banovici.s.s@bih.net.ba","www.skola-banovici-selo.com"
"JU OS Trestenica","Elementary","Trestenica bb","FBiH","TK","Banovici","44.436919","18.455906","38735890445","os.trestenica@bih.net.ba",""
"JU OS Celic","Elementary","Alije Izetbegovica 61","FBiH","TK","Celic","44.721589","18.82079","38735660111","os.celic@gmail.com",""
"JU OS Humci","Elementary","Odreda Vjetrenik 8","FBiH","TK","Celic","44.685577","18.698846","38735669750","kitovnica@yahoo.com",""
"JU OS Vrazici","Elementary","Abdulaha Kovacevica 50","FBiH","TK","Celic","44.738314","18.754755","38735663090","skola_vrazici@bih.net.ba","www.osvrazici.com.ba"
"JU OS Brijesnica","Elementary","Brijesnica Velika bb","FBiH","TK","Doboj - istok","44.722301","18.207595","38735723454","juosvbrijesnica@bih.net.ba","www.osbrijesnica.com.ba"
"JU OS Klokotnica","Elementary","Klokotnica bb","FBiH","TK","Doboj - istok","44.725784","18.187209","38735722121","skola.klokotnica@bih.net.ba","www.juosklokotnica.edu.ba"
"JU OS Gornja Orahovicas","Elementary","Gornja Orahovica bb","FBiH","TK","Gracanica","44.687641","18.395285","38735710250","juos_gorahovica@yahoo.com",""
"JU Druga osnovna skola Gracanica","Elementary","Patriotske lige bb","FBiH","TK","Gracanica","44.695515","18.298807","38735708333","drugaosgracanica@bih.net.ba","www.drugaosgracanica.com.ba"
"JU OS Doborovci","Elementary","Doborovci bb","FBiH","TK","Gracanica","44.752376","18.396375","38735798061","juosdoborovci@bih.net.ba",""
"JU OS Dzakule","Elementary","Dzakule bb","FBiH","TK","Gracanica","44.773951","18.389486","38735719663","juosdzakule@wirac.ba",""
"JU OS Lukavica","Elementary","Lukavica bb","FBiH","TK","Gracanica","44.763922","18.185549","38735729106","skola000@bih.net.ba",""
"JU OS Malesici","Elementary","Hodzici bb","FBiH","TK","Gracanica","44.737378","18.274446","38735796061","juosmalesici@hotmail.com","www.juosmalesicicjb.net"
"JU OS Miricina","Elementary","Miricina bb","FBiH","TK","Gracanica","44.61949","18.405118","38735716336","juosmiricina@yahoo.com",""
"JU OS Orahovica","Elementary","Orahovica Donja bb","FBiH","TK","Gracanica","44.642924","18.375821","38735712144","juosdorahovica@yahoo.com",""
"JU OS Soko","Elementary","Soko bb","FBiH","TK","Gracanica","44.742408","18.338827","38735790282","juossoko@gmail.com",""
"JU OS Stjepan Polje","Elementary","Stjepan Polje bb","FBiH","TK","Gracanica","44.706715","18.250396","38735792019","osnovna.sk@bih.net.ba","www.osstjepanpolje.4t.com"
"JU OS Hasan Kikic","Elementary","111. gracanicke brigade 2","FBiH","TK","Gracanica","44.706367","18.311401","38735700430","has-ki@bih.net.ba","www.oshk.gracanica.net"
"JU OS Hasan Kikic","Elementary","Vida I bb","FBiH","TK","Gradacac","44.874386","18.407242","38735823615","oshkgra1@bih.net.ba","www.oshasankikic.com"
"JU OS 'Dr. Safvet-beg Basagic'","Elementary","Zrtava Srebrenice bb","FBiH","TK","Gradacac","44.877419","18.432307","38735821250","dauf@bih.net.ba","www.sbbgra.org"
"JU OS Edhem Mulabdic","Elementary","Medjidja Donja bb","FBiH","TK","Gradacac","44.802607","18.411862","38735869026","skolaemc@bih.net.ba",""
"JU OS Hamdija Kresevljakovic","Elementary","Kamberi bb Mionica","FBiH","TK","Gradacac","44.860209","18.488101","38735857243","juos.hk@gmail.com",""
"JU OS Ivan Goran Kovacic","Elementary","Husein-kapetana Gradascevica 53","FBiH","TK","Gradacac","44.877829","18.422798","38735821240","senad.hecim@gmail.com","www.kovacic.com"
"JU OS Musa Cazim Catic Zelinja Donja","Elementary","Zelinja Donja 196","FBiH","TK","Gradacac","44.827775","18.39417","38735829800","os_sk_ze@bih.net.ba","www.geocities.com/musa2001.ba"
"JU OS Mebmed-beg Kapetanovic Ljubusak","Elementary","Srnice Donje bb","FBiH","TK","Gradacac","44.7921","18.47477","38735858004","juos.ljubusak@bih.net.ba",""
"JU OS Kalesija","Elementary","Patriotske lige bb","FBiH","TK","Kalesija","44.442586","18.875858","38735610080","os.kalesija@neon.ba","www.os.kalesija.com"
"JU OS Rainci Gornji","Elementary","Rainci Gornji bb","FBiH","TK","Kalesija","44.466504","18.815642","38735638099","osrainci@bih.net.ba","www.os-raincigornji.npage.eu"
"JU OS Tojsici","Elementary","Tojsici Centar bb","FBiH","TK","Kalesija","44.479957","18.787837","38735635635","juos.toj@bih.net.ba","www.ostojsici.com"
"JU OS Vukovije","Elementary","Gornje Vukovije bb","FBiH","TK","Kalesija","44.465915","18.765116","38735611670","osvukovije@hotmail.com",""
"JU OS Memici","Elementary","Memici bb","FBiH","TK","Kalesija","44.425909","18.927379","38735615218","skolamemici@gmail.com",""
"JU OS Kladanj","Elementary","Kladanjskih brigada 28","FBiH","TK","Kladanj","44.228546","18.696358","38735621094","kladanj@bih.net.ba","www.os-kladanj.edu.ba"
"JU OS Stupari","Elementary","Stupari bb","FBiH","TK","Kladanj","44.31152","18.679273","38735622400","osstupari@gmail.com",""
"JU OS 'Lukavac Mjesto' Lukavac","Elementary","Tuzlanskog odreda bb","FBiH","TK","Lukavac","44.540973","18.527405","38735553732","ooslukavacmjesto@hotmail.com",""
"JU OS 'Lukavac Grad'","Elementary","Dervisa Susica bb","FBiH","TK","Lukavac","44.531936","18.537617","38735554199","os.lukavacgrad@montk.gov.ba","www.lukavac-grad.com.ba"
"JU OS Gnojnica","Elementary","Gnojnica bb","FBiH","TK","Lukavac","44.61804","18.445958","38735575230","os.gnojnica@montk.gov.ba",""
"JU OS Poljice","Elementary","Poljice bb","FBiH","TK","Lukavac","44.479519","18.489287","38735540698","skolapoljice@gmail.com","www.poljice.ba"
"JU OS Prokosovici","Elementary","Prokosovici bb","FBiH","TK","Lukavac","44.514528","18.485009","38735561123","osprokosovici@yahoo.com","www.osprokosovici.info"
"JU OS Puracic","Elementary","Skolska bb","FBiH","TK","Lukavac","44.546265","18.478248","38735562255","os.puracic.bb@gmail.com",""
"JU OS Dobosnica","Elementary","Donja Dobosnica bb","FBiH","TK","Lukavac","44.583926","18.447438","38735577078","os.dobos@yahoo.com",""
"JU OS Turija","Elementary","Turija bb","FBiH","TK","Lukavac","44.513011","18.419287","38735564087","osturija@yahoo.com",""
"JU OS Sapna","Elementary","206. viteske brigade bb","FBiH","TK","Sapna","44.490905","19.002049","38735599015","os.sapna@bih.net.ba","www.os.sapna.ba"
"JU Druga osnovna skola Srebrenik","Elementary","Mese Selimovica bb","FBiH","TK","Srebrenik","44.705867","18.498955","38735647091","druga.osnovna@bih.net.ba",""
"JU OS Duboki Potok","Elementary","Duboki Potok bb","FBiH","TK","Srebrenik","44.666876","18.502342","38735653098","os.dpotok@osdpotok.edu.ba",""
"JU OS Podorasje","Elementary","Podorasje bb","FBiH","TK","Srebrenik","44.637708","18.590248","38735651979","os.pod@hotmail.com",""
"JU OS Spionica","Elementary","Spionica bb","FBiH","TK","Srebrenik","44.756729","18.486892","38735650022","spionica27@gmail.com",""
"JU Prva osnovna skola Srebrenik","Elementary","Alije Izetbegovica 2","FBiH","TK","Srebrenik","44.705474","18.489802","38735647260","besacica@yahoo.com","www.prvaos.net"
"JU OS Rapatnica","Elementary","Novo naselje Luka bb","FBiH","TK","Srebrenik","44.701375","18.475391","38735696054","o.s.rapatnica@bih.net.ba",""
"JU OS Sladna","Elementary","Sladna bb","FBiH","TK","Srebrenik","44.728928","18.426061","38735654254","ossladna@hotmail.com",""
"JU OS Tinja","Elementary","Tinja bb","FBiH","TK","Srebrenik","44.637214","18.554244","38735651619","os.tinja@bih.net.ba",""
"JU OS Teocak","Elementary","Teocak","FBiH","TK","Teocak","44.601499","18.981005","38735755517","os.teocak@bih.net.ba","www.osteocak.com.ba"
"JU Osnovna muzicka skola Tuzla","Elementary","Ludvika Kube 1","FBiH","TK","Tuzla","44.536494","18.683811","38735252005","omskola.tz@gmail.com",""
"JU OS Breske","Elementary","Breske bb","FBiH","TK","Tuzla","44.611165","18.653685","38735812218","osbreske@gmail.com",""
"JU OS Bukinje","Elementary","Vojka Milovanovica 46","FBiH","TK","Tuzla","44.522869","18.600756","38735215414","os.bukinje@gmail.com",""
"JU OS Husino","Elementary","27.jula 9","FBiH","TK","Tuzla","44.513768","18.614469","38735802015","nedimsivcevic@yahoo.com","www.husino.ioskole.net"
"JU OS Jala","Elementary","Muharema Fizovica 2","FBiH","TK","Tuzla","44.531495","18.686771","38735272598","os_jala@hotmail.com",""
"JU OS Kiseljak","Elementary","1. Maja 117","FBiH","TK","Tuzla","44.490267","18.569868","38735382184","oskiseljak@hotmail.com",""
"JU OS Kreka","Elementary","Bosne Srebrene 119","FBiH","TK","Tuzla","44.533479","18.657529","38735227047","oskreka@yahoo.com",""
"JU OS Lipnica","Elementary","S. Matijevica 2","FBiH","TK","Tuzla","44.570087","18.612136","38735806220","juos.lipnica@bih.net.ba",""
"JU OS Miladije","Elementary","Hasana Kikica 7","FBiH","TK","Tuzla","44.526031","18.641635","38735398075","os_miladije@hotmail.com","www.osmiladije.com"
"JU OS Mramor","Elementary","Rudarska 149, Stari Mramor","FBiH","TK","Tuzla","44.578139","18.563951","38735810414","adem_bajric@hotmail.com","www.freewebsmramoros.com"
"JU OS Pasci","Elementary","Par Selo bb","FBiH","TK","Tuzla","44.49461","18.668881","38735318121","muhamed_odobasic@yahoo.com",""
"JU OS Pazar","Elementary","Pazar 1","FBiH","TK","Tuzla","44.538888","18.669171","38735270045","os.pazar@bih.net.ba","www.ospazar.edu.ba"
"JU OS Simin Han","Elementary","Sarajac 4","FBiH","TK","Tuzla","44.52449","18.743863","38735312921","senadap@multicom.ba","www.multicom.ba/siminhan"
"JU OS Slavinovici","Elementary","Zarka Vukovica Pucara 15","FBiH","TK","Tuzla","44.529701","18.717841","38735225765","osslavin@yahoo.com",""
"JU OS Solina","Elementary","Veljka Lukica Kurjaka 167","FBiH","TK","Tuzla","44.567866","18.693296","38735269424","skola.solina@bih.net.ba",""
"JU OS Tusanj","Elementary","4. Jula 29","FBiH","TK","Tuzla","44.543089","18.66214","38735311051","tusanj@hotmail.com","www.os-tusanj.tk"
"JU OS Brcanska Malta","Elementary","Miroslava Krleze 27","FBiH","TK","Tuzla","44.538628","18.695868","38735362990","b.malta@bih.net.ba",""
"JU OS Centar","Elementary","Mirze Delibasica 14","FBiH","TK","Tuzla","44.536277","18.683784","38735275120","oscentar@bih.net.ba",""
"JU OS Gornja Tuzla","Elementary","Abdurahmana Saracevica 163","FBiH","TK","Tuzla","44.556716","18.761571","38735391003","osgt@wispi.ba",""
"JU OS Mejdan","Elementary","Muftije-efendije Kurta bb","FBiH","TK","Tuzla","44.536334","18.664878","38735315370","osmejdan@bih.net.ba","http://mejdan.cjb.net"
"JU OS Novi Grad Tuzla","Elementary","DR.Ivana Ribara 17","FBiH","TK","Tuzla","44.532055","18.694272","38735250851","ngrad@bih.net.ba","www.osngtz.edu.ba"
"JU OS Podrinje","Elementary","Mihatovici bb","FBiH","TK","Tuzla","44.53948","18.564039","38735216285","skola.podrinje@gmail.com",""
"JU OS 'Sveti Franjo'","Elementary","Klosterska 10","FBiH","TK","Tuzla","44.536614","18.680785","38735300842","direktor.os@ksc-tuzla.edu.ba","www.ksc-tuzla.edu.ba"
"JU Zavod za odgoj i obrazovanje djece sa smetnjama u psihickom i tjelesnom razvoju","Elementary","Krecanska 5","FBiH","TK","Tuzla","44.538119","18.658072","38735281427","muratovicdamir@gmail.com",""
"JU OS Sjenjak","Elementary","Ismeta Mujezinovica bb","FBiH","TK","Tuzla","44.533119","18.704398","38735261666","ossjenjak@yahoo.com","www.juossjenjak.com.ba"
"JU Centar za obrazovanje i vaspitanje i rehabilitaciju slusanja i govora","Elementary","Husinskih rudara 161","FBiH","TK","Tuzla","44.526997","18.635152","38735312390","gest.tuz@bih.net.ba",""
"JU Druga osnovna skola","Elementary","Druga ulica 46","FBiH","TK","Zivinice","44.445891","18.654079","38735775045","drugaosz@yahoo.com","www.drugaos.tk"
"JU OS Basigovci","Elementary","Basigovci bb","FBiH","TK","Zivinice","44.412588","18.696996","38735769473","juosbasigovci@hotmail.com","www.osbasigovci.web1000.com"
"JU OS Dubrave","Elementary","Dubrave Donje bb","FBiH","TK","Zivinice","44.473776","18.699586","38735813014","osdubrave@gmail.com","www.os-dubrave.web1000.com"
"JU OS Djurdjevik","Elementary","Djurdjevik bb","FBiH","TK","Zivinice","44.399324","18.663844","38735762095","red_huso@yahoo.com","www.juosdjurdjevik.tk"
"JU OS Gracanica","Elementary","Gracanica bb","FBiH","TK","Zivinice","44.397756","18.766121","3.87E+10","aljo_osgracanica@yahoo.com",""
"JU OS Serici","Elementary","Serici bb","FBiH","TK","Zivinice","44.470691","18.557778","38735760221","osserici@gmail.com","www.osserici.com"
"JU OS Visca","Elementary","Visca bb","FBiH","TK","Zivinice","44.41755","18.622219","38735767248","viscaos@live.com",""
"JU Prva osnovna skola Zivinice","Elementary","II Krajiske brigade 19","FBiH","TK","Zivinice","44.454768","18.644405","38735740056","prvaosnovnaskolazivinice@yahoo.com","www.prvaosnovna.i8.com"
"JU OS Zivinice Gornje","Elementary","Gornje Zivinice","FBiH","TK","Zivinice","44.440688","18.617168","38735770224","o.s.g.zivinice@live.com",""
"Osnovna skola 'Karaula'","Elementary","Cosici bb","FBiH","SBK","Travnik","44.26466233","17.50478476","38730535050","os.karaula@hotmail.com",""
"Druga Osnovna skola","Elementary","Ul. Armije BiH br. 7","FBiH","SBK","Bugojno","44.05269226","17.44907579","38730251702","drosskola@bih.net.ba",""
"Osnovna Muzicka skola","Elementary","Slobode 149","FBiH","SBK","Bugojno","44.0527","17.449076","38730251181","osmuzicka.bu@bih.net.ba",""
"Prva Osnovna skola","Elementary","Hendek VII/2","FBiH","SBK","Bugojno","44.05903961","17.45232082","38730251700","prvaosbu@bih.net.ba",""
"Treca Osnovna skola","Elementary","Jaklic br. 2","FBiH","SBK","Bugojno","44.0476803","17.45222148","38730251701","trosjaklic@hotmail.com",""
"Osnovna skola 'Gracanica'","Elementary","Gracanica kod Bugojna","FBiH","SBK","Bugojno","44.00226076","17.49492172","38730281036","gracanca@bih.net.ba ",""
"Osnovna skola 'Drvetine'","Elementary","Drvetine - Bugojno","FBiH","SBK","Bugojno","44.10275601","17.45154429","38730277343","drvetine@hotmail.com",""
"Osnovna skola 'Bristovi'","Elementary","Rostovska bb","FBiH","SBK","Bugojno","44.06535522","17.47649152","38730250692","skola.bristovi@bih.net.ba",""
"Osnovna skola 'Busovaca'","Elementary","Nikole Subica Zrinjskog bb","FBiH","SBK","Busovaca","44.10025714","17.87987545","38730733095","o.s.busovaca@gmail.com",""
"Osnovna skola Kacuni","Elementary","Kacuni bb","FBiH","SBK","Busovaca","44.06860358","17.93794775","38730591019","deno.1111@hotmail.com",""
"Prva Osnovna skola'","Elementary","Vrbaska bb","FBiH","SBK","Donji Vakuf","44.14050759","17.40225425","38730205115","prvaosdonjivakuf@hotmail.com",""
"Treca Osnovna skola","Elementary","Oborci bb","FBiH","SBK","Donji Vakuf","44.19464502","17.41942178","38730261005","osoborci@bih.net.ba",""
"Osnovna skola 'Muhsin Rizvic'","Elementary","Novo naselje 7","FBiH","SBK","Fojnica","43.9590903","17.90223652","38730831855","osmuhsinrizvic@bih.net.ba",""
"Osnovna skola 'Gornji Vakuf'","Elementary","Omladinska bb","FBiH","SBK","Gornji Vakuf - Uskoplje","43.93991548","17.59017375","38730265658","emirsin@yahoo.com",""
"Osnovna skola 'Uskoplje'","Elementary","Bana Jelacica bb","FBiH","SBK","Gornji Vakuf - Uskoplje","43.93734361","17.58189189","38730494018","os.uskoplje@tel.net.ba",""
"Osnovna skola 'Gromiljak' Kiseljak","Elementary","Gromiljak bb","FBiH","SBK","","43.96666803","18.0544354","38730877462","os.gromiljak@gmail.com",""
"Osnovna skola 'Kiseljak 1' Bilalovac Kiseljak","Elementary","Bilalovac","FBiH","SBK","","43.94220162","18.07753897","38730594005","oskiseljak1bilalovac@hotmail.com",""
"Osnovna skola 'Dr. Boris Coric' Kresevo","Elementary","Fra Grge Martica 124","FBiH","SBK","","43.86594657","18.04004456","38730806710","o.s.kresevo@gmail.com",""
"Osnovna Glazbena skola Jakova Gotovca Novi Travnik Novi Travnik","Elementary","Stjepana Tomasevica bb","FBiH","SBK","","44.17107685","17.65566999","38730791182","glazbena.skola-jakova.gotovca@tel.net.ba",""
"Osnovna skola 'Novi Travnik' Novi Travnik","Elementary","Ljudevita Gaja bb","FBiH","SBK","","44.17205946","17.65851731","38730793027","os.novi.travnik@tel.net.ba",""
"Osnovna skola 'Safvet-Beg Basagic' Novi Travnik","Elementary","Omladinska bb","FBiH","SBK","","44.16909292","17.65096017","38730525013","oskolasafvetn.tr@bih.net.ba",""
"Osnovna Muzicka skola","Elementary","Lukacka 6","FBiH","SBK","Travnik","44.22493508","17.6634283","38730512130","muzickaskolatr@bih.net.ba",""
"Osnovna skola 'Dolac'","Elementary","Dolac na Lasvi bb","FBiH","SBK","Travnik","44.21725504","17.69059206","38730540737","os.skoladolac@bih.net.ba",""
"Osnovna skola 'Guca Gora' Travnik","Elementary","Guca Gora bb","FBiH","SBK","","44.24341613","17.73526607","38730560019","os.gucagora@bih.net.ba",""
"Osnovna skola 'Han Bila' Travnik","Elementary","Han Bila bb","FBiH","SBK","","44.23732548","17.75954881","38730562402","skola-hb@bih.net.ba",""
"Osnovna skola 'Kalibunar'","Elementary","Vjekoslava Karas bb","FBiH","SBK","Travnik","44.23189478","17.64176297","38730510442","oskola_kalibunar@bih.net.ba",""
"Osnovna skola 'Mehurici'","Elementary","Mehurici bb","FBiH","SBK","Travnik","44.27195943","17.73457461","38730564402","osmehurici@bih.net.ba",""
"Osnovna skola 'Travnik'","Elementary","skolska bb","FBiH","SBK","","44.22524549","17.65521634","38730518697","ostravnik@bih.net.ba",""
"Osnovna skola 'Turbe'","Elementary","Aleja bb","FBiH","SBK","Travnik","44.24123971","17.57118207","38730530092","osskola.turbe@bih.net.ba",""
"Osnovna skola 'Bila'","Elementary","Marosi b.b.","FBiH","SBK","Vitez","44.17728603","17.75794403","38730716243","skolabila@gmail.com",""
"Osnovna skola 'Dubravica'","Elementary","22. Prosinca bb","FBiH","SBK","Vitez","44.15204397","17.80926284","38730712775","skola.dubravica@gmail.com",""
"Osnovna skola 'Vitez'","Elementary","Josipa Kurevije bb (H)","FBiH","SBK","Vitez","44.15121733","17.79022753","38730711579","osnovnaskola.vitez@gmail.com",""
"Osnovna skola ''Vitez''","Elementary","Josipa Kurevije bb (B)","FBiH","SBK","Vitez","44.15196934","17.789918","38730710998","os-vitez@tel.net.ba",""
"Osnovna skola 'Nova Bila' Nova Bila","Elementary","Nova Bila bb","FBiH","SBK","","44.18889596","17.73849308","38730708057","osnovabila@yahoo.com",""
"Prva Osnovna skola'","Elementary","Jaklic V/2","FBiH","SBK","Bugojno","44.04787016","17.45268347","38730253440","posbugojno@yahoo.com",""
"Osnovna skola 'Berta Kucera'","Elementary","Fra Antuna Knezevica 8","FBiH","SBK","Jajce","44.34199355","17.27431675","38730654297","bertajajce@gmail.com",""
"Osnovna skola '13. Rujan' Jajce","Elementary","Volijak bb","FBiH","SBK","","44.34581829","17.26409989","38730654133","os.13.rujan@tel.net.ba",""
"Osnovna skola 'Braca Jezercic' Divicani - Jajce Jajce","Elementary","Divicani","FBiH","SBK","","44.36607371","17.32592996","38730654612","os.divicani@gmail.com",""
"Osnovna skola 'Voljevac'","Elementary","Voljevac bb","FBiH","SBK","Gornji Vakuf - Uskoplje","43.87805999","17.66073242","38730260567","osvoljevac@bih.net.ba",""
"Osnovna skola 'Pajic Polje'","Elementary","Pajic Polje bb","FBiH","SBK","Gornji Vakuf - Uskoplje","43.97709984","17.52589563","38730286827","ppolje@bih.net.ba",""
"Osnovna skola 'Hasan Kjafija-Pruscak'","Elementary","Prusac bb","FBiH","SBK","Donji Vakuf","44.09374231","17.37797801","38730271162","drugaosprusac@gmail.com",""
"Cetvrta Osnovna skola","Elementary","Torlakovac","FBiH","SBK","","44.23065759","17.31285772","38730275111","os.torlakovac@bih.net.ba",""
"Osnovna skola 'Edhem Mulabdic'","Elementary","Opara","FBiH","SBK","Novi Travnik","44.0923753","17.65155679","38730527002","skola-opara@hotmail.com",""
"Osnovna skola 'Mehmedalija Mak Dizdar'","Elementary","Vodovod bb","FBiH","SBK","Novi Travnik","44.14617837","17.61290269","38730542931","os.mak@bih.net.ba",""
"Osnovna skola 'Musa Cazim Catic'","Elementary","Trenica","FBiH","SBK","Novi Travnik","44.14847575","17.66956171","38730529451","skolatrenica@bih.net.ba",""
"Osnovna skola 'Fra Marijan Sunjic'","Elementary","Stojkovici","FBiH","SBK","Novi Travnik","44.18676556","17.68548924","38730791063","osstojkovici@net.hr",""
"Osnovna skola 'Ivan Goran Kovacic'","Elementary","Gojevici bb","FBiH","SBK","Fojnica","43.91357275","17.94488459","38730803206","os.igk-gojevici@tel.net.ba",""
"Osnovna skola 'Dubravica'","Elementary","Preocica bb","FBiH","SBK","Vitez","44.19113512","17.8142452","38730545442","os_dubravica@yahoo.com",""
"Osnovna skola 'Kaonik'","Elementary","Kaonik bb","FBiH","SBK","Busovaca","44.1185935","17.87487899","38730736058","oskaonik@gmail.com",""
"Osnovna skola 'Kiseljak 2'","Elementary","Zabrdje bb","FBiH","SBK","Kiseljak","43.83991347","18.11435722","38730596200","oskis2zabrdje@bih.net.ba",""
"Osnovna skola 'Kiseljak'","Elementary","Josipa bana Jelacica 42/A","FBiH","SBK","Kiseljak","43.94220162","18.07753897","38730877358","os.kiseljak@tel.net.ba",""
"Osnovna skola 'Brestovsko'","Elementary","Dugo Polje 52","FBiH","SBK","Kiseljak","44.00749747","18.02830487","38730876063","os.brestovsko1@tel.net.ba",""
"Osnovna skola 'Lepenica'","Elementary","Kulijes 36","FBiH","SBK","Kiseljak","43.87045781","18.14587146","38730873154","os.lepenica@tel.net.ba",""
"Osnovna skola 'Vitovlje'","Elementary","Vitovlje bb","FBiH","SBK","Travnik","44.3306805","17.4941484","38730539555","osvitovlje01@hotmail.com",""
"Osnovna Muzicka skola","Elementary","Mehmeda Spahe 11 C","FBiH","SBK","Novi Travnik","44.17032508","17.65329312","38730525533","omsnovitravnik2010@gmail.com",""
"Katolicki skolski centar 'Petar Barbaric' - Osnovna skola Travnik","Elementary","Skolska 1","FBiH","SBK","Travnik","44.22539641","17.66188083","38730518823","ksctr@bih.net.ba",""
"Osnovna skola 'Jajce'","Elementary","Kruscica bb","FBiH","SBK","Jajce","44.12957","17.786982","38730279568","osjajcekruscica@gmail.com",""
"Mjesovita Srednja skola Bugojno","High School","Zlatnih Ljiljana bb","FBiH","SBK","","44.05502348","17.44782234","38730260112","gimnazija_bug@yahoo.com",""
"Srednja Strucna skola Bugojno","High School","Ciglane II","FBiH","SBK","","44.05253224","17.43733308","38730252207","srednjastrucna@yahoo.com",""
"Srednja Tehnicka skola Bugojno","High School","Ciglane II","FBiH","SBK","","44.05238396","17.4387525","38730251915","tehskolabu@hotmail.com",""
"Srednja skola 'Busovaca'","High School","Kulina bana bb","FBiH","SBK","Busovaca","44.10086168","17.87916574","38730732042","ssbusovaca@gmail.com",""
"Srednja Mjesovita skola 'Zijah Dizdarevic'","High School","Novo naselje 7","FBiH","SBK","Fojnica","43.96068638","17.90201776","38730544370","smszijahdizdarevic@gmail.com",""
"Srednja skola 'Nikola Sop'","High School","Fra Antuna Knezevica 27","FBiH","SBK","Jajce","44.34301168","17.27555469","38730654174","gimnazija.nikola.sop@tel.net.ba",""
"Srednja Strukovna skola 'Jajce'","High School","Berte Kucere 3","FBiH","SBK","Jajce","44.34712272","17.25353151","38730654273","ss-skola-jajce@tel.net.ba",""
"Srednja Strukovna skola Fojnica u Kiseljaku","High School","Zrtava domovinskog rata 5","FBiH","SBK","Kiseljak","43.94220162","18.07753897","38730879113","srednjaskolafoj@yahoo.com",""
"Srednja skola 'Ivan Goran Kovacic'","High School","Ul. zrtava domovinskog rata 5","FBiH","SBK","Kiseljak","43.94348196","18.07979395","38730879002","srednjaskolakis@yahoo.com",""
"Srednja skola 'Kresevo'","High School","Troska 2A","FBiH","SBK","","43.86855","18.0539","38730800202","ss.kresevo@tel.net.ba",""
"Mjesovita Srednja skola'","High School","Omladinska bb","FBiH","SBK","Novi Travnik","44.1694029","17.64830704","38730525407","jasmina_ntr@hotmail.com",""
"Srednja Glazbena skola Jakova Gotovca","High School","Ljudevita Gaja bb","FBiH","SBK","Novi Travnik","44.17177899","17.6578985","38730791076","sr.gl.sk.jakova.gotovca@tel.net.ba",""
"Srednja skola 'Novi Travnik'","High School","Ljudevita Gaja bb","FBiH","SBK","Novi Travnik","44.1717231","17.65731864","38730793504","ss-novi.travnik@tel.net.ba",""
"Mjesovita Srednja Ekonomsko-Ugostiteljska skola","High School","Skolska 3","FBiH","SBK","Travnik","44.22569446","17.6569607","38730541621","mseus@bih.net.ba",""
"Mjesovita Srednja skola 'Travnik'","High School","Skolska 3","FBiH","SBK","Travnik","44.22535026","17.66231183","38730511059","mss.travnik@bih.net.ba",""
"Mjesovita Srednja Tehnicka skola Travnik","High School","Skolska bb","FBiH","SBK","Travnik","44.22570087","17.65685096","38730510280","psecurity@msts-travnik.net",""
"Srednja skola 'Vitez'","High School","Ilije Petrovica bb","FBiH","SBK","Vitez","44.15107518","17.78905149","38730711336","ss.vitez@tel.net.ba",""
"Mjesovita Srednja skola 'Vitez'","High School","Ilije Petrovica bb","FBiH","SBK","Vitez","44.15144823","17.78892773","38730717540","mss.vitez.kruscica@tel.net.ba",""
"Mjesovita Srednja skola ''Gornji Vakuf'","High School","Gradska bb","FBiH","SBK","Gornji Vakuf - Uskoplje","43.93926314","17.58144622","38730265654","mssgv@yahoo.com",""
"Srednja skola 'Uskoplje'","High School","Gradska bb","FBiH","SBK","Gornji Vakuf - Uskoplje","43.93879365","17.58111609","38730494039","sskola.uskoplje@tel.net.ba",""
"Mjesovita Srednja skola","High School","Zrtava genocida u Srebrenici","FBiH","SBK","Donji Vakuf","44.14045112","17.40191754","38730205355","mssdvakuf@bih.net.ba",""
"Srednja skola 'Travnik'","High School","Nova Bila","FBiH","SBK","Travnik","44.18918591","17.73756042","38730707486","ss.travnik@tel.net.ba",""
"Mjesovita Srednja skola","High School","Kulina bana bb","FBiH","SBK","Busovaca","44.10062683","17.88044054","38730593155","mail@mssbusovaca.com.ba",""
"Katolicki skolski Centar 'Petar Barbaric' - Gimnazija Travnik","High School","Skolska 1","FBiH","SBK","Travnik","44.22536681","17.66163326","38730518823","ksctr@bih.net.ba",""
"Osnovna skola Orasje","Elementary","XI. ulica br. 2","FBiH","PK","Orasje","45.034693","18.689056","38731712137","osnovnaskolaorasje@gmail.com",""
"Rudjera Boskovica","Elementary","Skolska 33","FBiH","PK","","45.043871","18.66735","38731713045","os.donja.mahala@tel.net.ba","www.tel.net.ba/oskola-d.mahala"
"Antuna Gustava Matosa","Elementary","J.B.Jelacica 141","FBiH","PK","","44.979442","18.736075","38731731332","","www.tel.net.ba/os-vidovice"
"Stjepana Radica Ostra Luka-Bok","Elementary","Filipovici 55","FBiH","PK","","45.008064","18.62237","38731772029","os.stjepanaradic.ol@tel.net.ba",""
"Brace Radica","Elementary","Posavskih branitelja 41","FBiH","PK","","45.06435","18.576848","38731791055","os.domaljevac@tel.net.ba",""
"Fra Ilije Starcevica","Elementary","Vladimira Nazora 192","FBiH","PK","","45.039436","18.640624","38731754077","osnovna.skola.tolisa@tel.net.ba",""
"Vladimira Nazora","Elementary","Nova ulica b.b.","FBiH","PK","","45.017157","18.327455","38731761247","os.vladimir.nazor@tel.net.ba","www.tel.net.ba/osvnazora-odzak"
"Fra Martina Nedica","High School","XI. ulica b.b.","FBiH","PK","","45.034525","18.690321","38731712131","sskola.orasje@skor.ba","www.skor.ba"
"Pere Zecevica","High School","Dzemala Bijedica 13","FBiH","PK","","45.015965","18.324321","38731761865","office@sskola-odzak.edu.ba","www.sskola-odzak.edu.ba"
"OS 'Ivan Goran Kovacic'","Elementary","","FBiH","Kanton 10","Livno","43.821578","17.004511","","",""
"OS 'Fra Lovro Karaula'","Elementary","","FBiH","Kanton 10","Livno","43.82624","16.998913","","",""
"Osnovna glazbena skola 'Franjo S. Vilhar'","Elementary","","FBiH","Kanton 10","","43.82522","17.007039","","",""
"OS Stjepana Radica Prisoje","Elementary","","FBiH","Kanton 10","","43.690622","17.085305","","",""
"OS Ivana Mazuranica","Elementary","","FBiH","Kanton 10","","43.715322","17.233692","","",""
"OS Fra Mije Cuica Bukovica","Elementary","","FBiH","Kanton 10","","43.604218","17.305237","","",""
"Osnovna glazbena skola 'Tomislavgrad'","Elementary","","FBiH","Kanton 10","","43.71931","17.225479","","",""
"OS 'Drvar'","Elementary","","FBiH","Kanton 10","","44.373262","16.387648","","",""
"OS Fra Miroslava dzaje","Elementary","","FBiH","Kanton 10","","43.991085","17.278532","","",""
"OS 'Fra Franjo Glavinic'","Elementary","","FBiH","Kanton 10","","44.049375","16.852048","","",""
"OS 'Grahovo'","Elementary","","FBiH","Kanton 10","","44.178352","16.362112","","",""
"OS Branko Copics","Elementary","Mise Stupara 24","RS","","Banja Luka","44.771341","17.201942","38751258302","os001@skolers.org","http://www.osbrankocopic.net/"
"OS Dositej Obradovics","Elementary","Mirka Kovacevica 27","RS","","Banja Luka","44.76193","17.187714","38751461826","",""
"OS Zmaj Jova Jovanovic","Elementary","Branka Zagorca 1","RS","","Banja Luka","44.762541","17.180008","38751431770","","http://www.oszmajjovajovanovic.edu.ba/"
"OS Petar Petrovic Njegoss","Elementary","Stepe Stepanovica 28","RS","","Banja Luka","44.761988","17.194059","38751","os004@skolers.org","http://www.osppnjegos.rs.ba/"
"OS Branislav Nusic","Elementary","Manjackih ustanika 32","RS","","Banja Luka","44.747569","17.155416","38751412020","os005@skolers.org","https://osbranislavnusic.wordpress.com/"
"OS Ivan Goran Kovacic","Elementary","Marka Lipovca 1","RS","","Banja Luka","44.797113","17.206315","38751345150","",""
"OS Sveti Sava","Elementary","Uzicka bb","RS","","Banja Luka","44.777748","17.168144","38751288890","os007@skolers.org","http://www.ossvetisava.edu.ba/"
"OS Jovan Cvijic","Elementary","Djure Jaksica 12","RS","","Banja Luka","44.766178","17.181435","38751212374","",""
"OS Branko Radicevic","Elementary","Vojvode S.Stepanovica 116","RS","","Banja Luka","44.76538","17.205805","38751436825","os009@skolers.org","http://brankoradicevic-bl.rs.ba/"
"OS Ivo Andric","Elementary","Branka Radicevica 16","RS","","Banja Luka","44.773685","17.187647","38751213196","os010@skolers.rs","http://osivoandric.org/"
"OS Aleksa Santic","Elementary","Trive Amelice 24","RS","","Banja Luka","44.785952","17.200237","38751327451","","http://skolasantic.com/"
"OS Vuk S. Karadzics","Elementary","Save Kovacevica bb","RS","","Banja Luka","44.769226","17.20503","38751254071","",""
"OS Borisav Stankovic","Elementary","Ivana Kosancica 2","RS","","Banja Luka","44.804969","17.210423","38751371126","","https://osbsbl.org/"
"OS Georgi S. Rakovski","Elementary","Dragise Vasica 29","RS","","Banja Luka","44.77889","17.194085","38751309658","","http://www.georgistojkovrakovski.rs.ba/"
"OS Mladen Stojanovics","Elementary","Bronzani Majdan bb","RS","","Bronzani Majdan","44.91308","17.305263","38751535517","os054@teol.net","http://osmladenstojanovic.com"
"OS Miroslav Antic","Elementary","Bistrica bb","RS","","Bistrica","44.813971","17.051347","38751277057","",""
"OS Janko Veselinovics","Elementary","Misin Han bb","RS","","Donja Ivanjska","44.903316","17.113226","38751","",""
"OS Desanka Maksimovics","Elementary","Dragocaj bb","RS","","Dragocaj","44.854685","17.160939","38751392166","os018@skolers.org","https://osdmaksimovicbl.org/"
"OS Milutin Bojic","Elementary","Potkozarje bb","RS","","Potkozarje","44.915633","17.067602","38751395365","",""
"OS Petar Kocics","Elementary","Kola bb","RS","","Kola","44.695929","17.084168","38751","",""
"OS Milan Rakics","Elementary","Karanovac bb","RS","","Karanovac","44.698965","17.19477","38751","",""
"OS Vojislav Ilic","Elementary","Krupa na Vrbasu bb","RS","","Krupa na Vrbasu","44.617864","17.146216","38751","",""
"OS Cirilo i Metodije","Elementary","Piskavica bb","RS","","Piskavica","44.867106","16.976512","38751","",""
"OS Djura Jaksic","Elementary","Suboticka 28","RS","","Srpski Milanovac","44.817663","17.197993","38751380980","os024@skolers.org","http://osdjurajaksicbl.org/"
"OS Stanko Rakitas","Elementary","Jove G. Popovica 9","RS","","Vrbanja","44.759722","17.250562","38751424085","",""
"OS Jovan Ducics","Elementary","Nenada Kostica 7","RS","","Zalusani","44.835576","17.217334","38751389381","","http://www.osjovanduciczaluzani.edu.ba"
"OS Milos Crnjanskis","Elementary","Zore Kovacevic bb","RS","","Banja Luka","44.788165","17.18992","38751358121","",""
"Muzicka skola Vlado Milosevic","Elementary","Jovana Ducica 23","RS","","Banja Luka","44.773929","17.186444","38751214739","","http://muzicka-skola.org/"
"Centar za obrazovanje, vaspitanje i rehabilitaciju sluha i govora","Elementary","Jovana Raskovica 28a","RS","","Banja Luka","44.775048","17.179728","38751214491","","http://www.centar-ovrsg.com"
"Djeciji dom Rada Vranjesevic","Elementary","Filipa Macure 25","RS","","Banja Luka","44.762148","17.176423","38751461932","","http://www.djecijidom.com/"
"Centar Zastiti me","Elementary","Poljokanov park bb","RS","","Banja Luka","44.757097","17.174464","38751201708","",""
"OS Danilo Borkovic","Elementary","Milana Tepica 19","RS","","Gradiska","45.1499","17.259792","38751","",""
"OS Vasa Cubrilovic","Elementary","Mihajla Pupina 10","RS","","Gradiska","45.145362","17.253029","38751813313","",""
"OS Kozarska djecas","Elementary","Kralja Dragutina 17","RS","","Gradiska","45.131799","17.233257","38751","",""
"OS Mladen Stojanovics","Elementary","Gornji Podgradci bb","RS","","G.Podgradci","44.91308","17.305339","38751","",""
"OS Petar Kocics","Elementary","Nova Topola bb","RS","","Nova Topola","45.056533","17.306877","38751891010","","http://www.nova-topola.rs.ba"
"OS Vuk S. Karadzics","Elementary","Turjak bb","RS","","Turjak","45.007895","17.148624","38751","",""
"OS Sveti Sava","Elementary","Dubrave bb","RS","","Dubrave","45.096843","17.291473","38751860410","",""
"Osnovna muzicka skola B. Smiljanic","Elementary","Mladena Stojanovica bb","RS","","Gradiska","45.147364","17.250064","38751","","http://oms-brankosmiljanic.com/"
"OS Milos Dujic","Elementary","Kralja Petra I Karadjordjevica","RS","","Celinac","44.727284","17.319974","38751551009","",""
"OS Novak Pivasevic","Elementary","Stara Dubrava bb","RS","","Stara Dubrava","44.746847","17.568072","38751561255","",""
"OS Mladen Stojanovics","Elementary","Josavka bb","RS","","Josavka","44.747547","17.418117","38751","",""
"OS Sveti Sava","Elementary","Svetosavska 2","RS","","Kotor Varos","44.61869","17.371712","38751927220","","http://svetisava-kotorvaros.org/"
"OS Petar Petrovic Njegos","Elementary","Maslovare bb","RS","","Maslovare","44.563572","17.53503","38751","",""
"OS Petar Kocic","Elementary","siprage bb","RS","","siprage","44.466544","17.565291","38751","",""
"OS Mladen Stojanovic","Elementary","Karadjordjeva bb","RS","","Laktasi","44.913038","17.305317","38751","",""
"OS Georgios A. Papandreu","Elementary","Aleksandrovac bb","RS","","Aleksandrovac","44.964634","17.316396","38751","",""
"OS Holandija","Elementary","Slatina bb","RS","","Slatina","44.829015","17.307982","38751","",""
"OS Desanka Maksimovic","Elementary","Dositejeva 34","RS","","Trn","44.852278","17.239765","38751584487","","http://www.osdesankam-trn.org/"
"OS Branko Copic","Elementary","Rade Vranjesevic 1","RS","","Prnjavor","44.866569","17.670133","38751","",""
"OS Nikola Tesla","Elementary","Cara Lazara 26","RS","","Prnjavor","44.872527","17.660425","38751","",""
"OS Vuk Karadzic","Elementary","Donji Vijacani bb","RS","","Donji Vijacani","44.808824","17.604387","38751","",""
"OS Sveti Sava","Elementary","Gornji Smrtici bb","RS","","Smrtici","44.9722616","17.7417642","38751668653","os079@skolers.org","https://ossvetisavasmrtici.org/"
"OS Ivo Andric","Elementary","Kulasi bb","RS","","Kulasi","44.768875","17.7414","38751","",""
"OS Mesa Selimovic","Elementary","Naseobina Lisnja 36","RS","","Naseobina Lisnja","44.886","17.560411","38751","",""
"OS Milos Crnjanski","Elementary","Potocani bb","RS","","Potocani","44.872265","17.492096","38751","",""
"OS Petar Kocic","Elementary","Sibovska 1","RS","","Prnjavor","44.960418","17.651117","38751684122","os083@skolers.org","https://ospetarkocic-sibovska.org/"
"OS Osnovna muzicka skola","Elementary","Laze Lazarevica 4","RS","","Prnjavor","44.869806","17.665899","38751","",""
"OS Dositej Obradovic","Elementary","Dujka Komjenovic bb","RS","","Knezevo","44.489217","17.378132","38751","",""
"OS Petar Kocic","Elementary","Imnjani bb","RS","","Imnjani","44.608015","16.988989","38751","",""
"OS Vuk Karadzic","Elementary","Zivinice bb","RS","","Zivinice","44.529298","17.344752","38751","",""
"OS Jovan Jovanovic Zmaj","Elementary","Mome Vidovica 14","RS","","Srbac","45.095787","17.51832","38751","",""
"OS Vuk Karadzic","Elementary","Sitnesi bb","RS","","Sitnesi","45.041663","17.566678","38751","",""
"OS Dositej Obradovic","Elementary","Razboj Lijevce bb","RS","","Razboj Lijevce","45.061166","17.449926","38751","",""
"OS Petar Kocic","Elementary","Sime solaje 89","RS","","Mrkonjic-Grad","44.41245","17.085999","38751","",""
"OS Ivan Goran Kovacic","Elementary","Njegoseva bb","RS","","Mrkonjic-Grad","44.41955","17.084986","38751","",""
"OS Vuk Karadzic","Elementary","Baraci bb","RS","","Baraci","44.320141","16.936731","38751","",""
"OS Branko Copic","Elementary","Bjelajce bb","RS","","Bjelajce","44.436262","17.150386","38751","",""
"OS Nemanja Vlatkovic","Elementary","Omladinska 1","RS","","Sipovo","44.286235","17.087","38751","",""
"OS Rade Marijanac","Elementary","Strojice bb","RS","","Strojice","44.178659","17.161712","38751","",""
"OS Drinic","Elementary","Centar bb","RS","","Drinic","44.50695","16.467187","38751","",""
"OS Vuk Karadzic","Elementary","Vuka Karadzica bb","RS","","Jezero","44.346951","17.165736","38751","",""
"OS Nikola Mackic","Elementary","Donja Previja bb","RS","","Donja Previja","44.475486","16.820113","38751","",""
"OS Desanka Maksimovic","Elementary","Ribnik bb","RS","","Ribnik","44.41673","16.816804","38751","",""
"OS Petar Kocic","Elementary","Sitnica bb","RS","","Sitnica","44.519639","16.933105","38751","",""
"OS Branko Copic","Elementary","Rudnicka 13","RS","","Prijedor","44.976349","16.715734","38751","",""
"OS Petar Kocic","Elementary","Petog korpusa bb","RS","","Prijedor","44.979337","16.723473","38751","",""
"Specijalna skola Djordje Natosevic","Elementary","Kralja Aleksandra 6","RS","","Prijedor","44.974592","16.7107","38751","",""
"OS Dositej Obradovic","Elementary","Pecani bb","RS","","Prijedor","44.983709","16.704646","38751","",""
"OS Desanka Maksimovic","Elementary","Branislava Nusica 7","RS","","Prijedor","44.980782","16.709544","38751","",""
"Muzicka skola","Elementary","Branislava Nusica 9","RS","","Prijedor","44.980495","16.710088","38751","",""
"OS Jovan Cvijic","Elementary","Brezicani bb","RS","","Brezicani","45.013506","16.65576","38751","",""
"OS Petar Petrovic Njegos","Elementary","Busnovi bb","RS","","Busnovi","44.855774","16.809317","38751","",""
"OS Branko Radicevic","Elementary","Petrovo bb","RS","","Petrovo","44.932862","16.73943","38751","",""
"OS Jovan Ducic","Elementary","Lamovita 28","RS","","Lamovita","44.944852","16.927911","38751","",""
"OS Mladen Stojanovic","Elementary","Drage Lukica bb","RS","","Ljubija","44.918271","16.607222","38751","",""
"OS Vuk Karadzic","Elementary","Vuka Karadzica bb","RS","","Omarska","44.890629","16.897794","38751","",""
"OS Cirilo i Metodije","Elementary","Trnopolje bb","RS","","Trnopolje","44.934465","16.804293","38751","",""
"Dom za djecu i oml. ometenu u razvoju","Elementary","Milana Vrhovca 117","RS","","Prijedor","44.980097","16.733373","38751","",""
"OS Kozarac","Elementary","Marsala Tita bb","RS","","Kozarac","44.974886","16.839998","38751","",""
"OS Vuk Karadzic","Elementary","Ive Andrica bb","RS","","Novi Grad","45.047579","16.383436","38751","",""
"OS Sveti Sava","Elementary","Nikole Pasica 13","RS","","Novi Grad","45.050096","16.375142","38751","",""
"OS Branko Copic","Elementary","Donji Agici bb","RS","","","44.952871","16.465068","38751","",""
"OS Dragan Vujanovic","Elementary","Svodna bb","RS","","Svodna","45.037727","16.5375","38751","",""
"OS Petar Mecava","Elementary","Vase Pelagica bb","RS","","Kostajnica","45.220048","16.541791","38751","",""
"OS Sveti Sava","Elementary","Dositejeva bb","RS","","Kozarska Dubica","45.180437","16.805912","38751","",""
"OS Vuk Stefanovic Karadzic","Elementary","Djakona Avakuma 15","RS","","Kozarska Dubica","45.179857","16.815049","38751","",""
"OS Majka Knezopoljka","Elementary","Knezica bb","RS","","Knezica","45.105507","16.677021","38751","",""
"OS Petar Skundric","Elementary","Budimlic Japra 131","RS","","","44.88446","16.429031","38751","",""
"OS Josif Pancic","Elementary","Kozica bb","RS","","Kozica","44.69169","16.823555","38751","",""
"OS Desanka Maksimovic","Elementary","OStra Luka bb","RS","","OStra Luka","44.859626","16.689663","38751","",""
"OS Branko Copic","Elementary","Donji Dubovik bb","RS","","Donji Dubovik","44.891317","16.322869","38751","",""
"OS Vuk Stefanovic Karadzic","Elementary","Srpskih sokolova 2","RS","","Doboj","44.734953","18.089204","38751","",""
"OS Dositej Obradovic","Elementary","Hilandarska 2","RS","","Doboj","44.73186","18.081878","38751","",""
"OS Sveti Sava","Elementary","Vojvode Sindjelica 10","RS","","Doboj","44.728675","18.085413","38753203670","",""
"OS Petar Petrovic Njegos","Elementary","Boljanic","RS","","Doboj","44.688314","18.220653","38751","",""
"OS Radoje Domanovic","Elementary","Osjecani bb","RS","","Osjecani","44.833879","18.113899","38751","",""
"OS Djura Jaksic","Elementary","Podnovlje bb","RS","","Podnovlje","44.934487","18.112642","38753280007","os115@skolers.org","https://osdjurajaksic-podnovlje.com/"
"OS Milan Rakic","Elementary","Rudanka bb","RS","","Rudanka","44.759377","18.035264","38751","",""
"OS Petar Kocic","Elementary","Sjenina Rijeka bb","RS","","Sjenina Rijeka","44.783653","18.161028","38751","",""
"OS Desanka Maksimovic","Elementary","Rudarsko naselje","RS","","Stanari","44.751998","17.839979","38751","",""
"OS sOzren","Elementary","Paklenica Donja bb","RS","","Paklenica Donja","44.615685","18.104694","38751","",""
"Muzicka skola","Elementary","Vidovdanska bb","RS","","Doboj","44.7326","18.081893","38751","",""
"OS Vuk Karadzic","Elementary","Svetog Save bb","RS","","Teslic","44.607803","17.846122","38751","",""
"OS Petar Petrovic Njegos","Elementary","Karadjordjeva 19","RS","","Teslic","44.600993","17.862629","38751","",""
"OS Dositej Obradovic","Elementary","Blatnica bb","RS","","Blatnica","44.485499","17.822533","38751","",""
"OS Petar Kocic","Elementary","Ugodnovic bb","RS","","Ugodnovic","44.489965","17.742127","38751","",""
"OS Stevan Dusanic","Elementary","Pribinic bb","RS","","Pribinic","44.611207","17.690615","38751","",""
"OS Ivo Andric","Elementary","Djulici 515","RS","","Teslic","44.59677","17.817143","38753420484","os098@skolers.org","https://juosivoandricts.org/"
"OS Jevrem Stankovic","Elementary","Cecava 775","RS","","Cecava","44.685599","17.770382","38753455040","os099@skolers.org","https://osjevremstankovic.org/"
"OS Vuk Karadzic","Elementary","Vitkovci bb","RS","","Vitkovci","44.69106","17.881023","38751","",""
"OS Sveti Sava","Elementary","Vuka Karadzica bb","RS","","Brod","45.140276","18.013301","38751","",""
"OS Lijesca","Elementary","","RS","","Lijesca","43.993341","19.555574","38751","",""
"OS s19. april","Elementary","Svetog Save 4","RS","","Derventa","44.985329","17.903835","38751","",""
"OS Nikola Tesla","Elementary","Trg oslobodjenja 10","RS","","Derventa","44.976375","17.907378","38751","",""
"OS Todor Dokic","Elementary","Kalenderovci bb","RS","","Kalenderovci","44.936472","17.813782","38751","",""
"OS Djordje Panzalovic","Elementary","Osinja 55","RS","","Osinja","44.854444","17.864992","38751","",""
"Zavod za slijepe i slabov. Buducnost","Elementary","Stevana Nemanje 12","RS","","Derventa","44.974505","17.907817","38751","",""
"OS Sveti Sava","Elementary","Cara Lazara 7","RS","","Modrica","44.956508","18.297335","38751","",""
"OS Sutjeska","Elementary","Maksima Gorkog 2","RS","","Modrica","44.951223","18.305403","38751","",""
"OS Vuk Karadzic","Elementary","Petrovo bb","RS","","Petrovo","44.626061","18.360147","38751","",""
"OS Sveti Sava","Elementary","Bare bb","RS","","Kakmu","44.648126","18.330843","38751","",""
"OS Aleksa Santic","Elementary","Branka Radicevica 3","RS","","Vukosavlje","45.008732","18.268517","38751","",""
"OS ssamac","Elementary","Dositeja Obradovica 4","RS","","samac","45.057925","18.472245","38751","",""
"OS sCrkvina","Elementary","Gornja Crkvina 1","RS","","Gornja Crkvina","45.031679","18.436827","38751","",""
"OS sGornja Slatina","Elementary","Gornja Slatina","RS","","Gornja Slatina","44.96508","18.471398","38751","",""
"OS sObudovac","Elementary","Obudovac bb","RS","","Obudovac","44.967439","18.597475","38751","",""
"OS Donji sabar","Elementary","Donji sabar bb","RS","","Donji sabar","44.945468","18.642793","38751","",""
"OS Vasa Pelagic","Elementary","Pelagicevo bb","RS","","Pelagicevo","44.905647","18.605764","38751","",""
"OS Jovan Ducic","Elementary","Srpske vojske 104","RS","","Bijeljina","44.747236","19.221334","38751","",""
"OS Vuk Karadzic","Elementary","Vojvode Stepe 4","RS","","Bijeljina","44.742387","19.274067","38751","",""
"OS Knez Ivo od Semberije","Elementary","Neznanog junaka 46","RS","","Bijeljina","44.768007","19.195006","38751","",""
"OS Sveti Sava","Elementary","Svetog Save 26","RS","","Bijeljina","44.757883","19.213059","38751","",""
"OS Petar Kocic","Elementary","Brodac bb","RS","","Brodac","44.825172","19.304747","38751","",""
"OS Cirilo i Metodije","Elementary","Glavicice bb","RS","","Glavicice","44.596829","19.174485","38751","",""
"OS Stevan Nemanja","Elementary","Gornji Dragaljevac bb","RS","","G. Dragaljevac","44.764626","19.03376","38751","",""
"OS Mesa Selimovic","Elementary","Karadjordjeva 250","RS","","Janja","44.662587","19.248933","38751","",""
"OS Sveti Sava","Elementary","Crnjelovo bb","RS","","Crnjelevo","44.841677","19.125423","38751","",""
"OS Dositej Obradovic","Elementary","Suvo Polje bb","RS","","Suho Polje","44.691811","19.097331","38751","",""
"OS Petar Petrovic Njegos","Elementary","Velika Obarska bb","RS","","Velika Obarska","44.801057","19.170314","38751","",""
"Muzicka skolaS. S. Mokranjac","Elementary","Karadjordjeva 5","RS","","Bijeljina","44.757442","19.218942","38751","",""
"OS Dvorovi","Elementary","Karadjordjeva bb","RS","","Dvorovi","44.805272","19.25863","38751","",""
"OS Sveti Sava","Elementary","skolska 3","RS","","Lopare","44.631904","18.845144","38751","",""
"OS Veljko Cubrilovic","Elementary","Priboj bb","RS","","Priboj","44.600484","18.928793","38751","",""
"OS Dositej Obradovic","Elementary","Koraj bb","RS","","Koraj","44.704463","18.880596","38751","",""
"OS sAleksa Santic","Elementary","Cirila i Metodija bb","RS","","Ugljevik","44.692045","18.997751","38751","",""
"OS Filip Visnjic","Elementary","Donja Trnova bb","RS","","Donja Trnova","44.652511","19.093309","38751","",""
"OS Vuk Karadzic","Elementary","Zabrdje bb","RS","","Zabrdje","44.706962","18.989023","38751","",""
"OS Sveti Sava","Elementary","Svetog Save 71a","RS","","Zvornik","44.382449","19.103217","38751","",""
"OS Petar Kocic","Elementary","Podrinjska bb","RS","","Kozluk","44.498383","19.112296","38751","",""
"OS Nikola Tesla","Elementary","Pilica bb","RS","","Pilica","44.581683","19.142051","38751","",""
"OS Vuk Karadzic","Elementary","Rocevic bb","RS","","Rocevic","44.53593","19.143928","38756398082","os147@skolers.org","https://www.osvukkaradzicrocevic.org/"
"Muzicka skola","Elementary","Svetog Save 71a","RS","","Zvornik","44.382147","19.102864","38751","",""
"OS Desanka Maksimovic","Elementary","Celopek bb","RS","","Celopek","44.432072","19.130726","38751","",""
"Dom za djecu i omladinu Kiseljak","Elementary","Zvornik bb","RS","","Zvornik","44.533574","19.052457","38751","",""
"OS sAleksa Santic","Elementary","Centar bb","RS","","Osmaci","44.391496","18.89967","38751","",""
"OS Jovan Cvijic","Elementary","","RS","","Drinjaca","44.288512","19.148077","38751","",""
"OS Vuk Karadzic","Elementary","Petra Kocica bb","RS","","Bratunac","44.181996","19.335016","38751","",""
"OS Branko Radicevic","Elementary","Dositeja Obradovica bb","RS","","Bratunac","44.185507","19.330424","38751","",""
"OS Petar Kocic","Elementary","Kravica bb","RS","","Kravica","44.212625","19.198727","38751","",""
"OS Vuk Karadzic","Elementary","Svetosavska 30","RS","","Vlasenica","44.183968","18.937078","38751","",""
"OS Braca Jaksic","Elementary","J.J.Zmaja br. 3","RS","","Milici","44.168047","19.078298","38751","",""
"OS Jovan Ducic","Elementary","Matije Nenadovica 5","RS","","Sekovici","44.298178","18.853599","38751","",""
"OS Petar Petrovic Njegos","Elementary","Milivoja Micica bb","RS","","Srebrenica","44.110056","19.294901","38751","",""
"OS Kosta Todorovic","Elementary","Skelani bb","RS","","Skelani","43.971844","19.5334","38751","",""
"OS Aleksa Santic","Elementary","Druge sarajevske brigade 108","RS","","Vojkovici","43.793614","18.353521","38751","",""
"OS Jovan Ducic","Elementary","Mladicka 3","RS","","Kasindo","43.801414","18.381488","38751","",""
"OS Petar Petrovic Njegos","Elementary","Drase Mihajlovica 38","RS","","Istocno Sarajevo","43.821398","18.355068","38751","",""
"OS Sveti Sava","Elementary","Karadjordjeva 1","RS","","Lukavica","43.825284","18.364969","38751","",""
"Muzicka skola","Elementary","Drase Mihajlovica 40","RS","","Lukavica","43.830617","18.367309","38751","",""
"OS Sokolac","Elementary","Omladinska 2","RS","","Sokolac","43.932028","18.79419","38751","",""
"OS Milan Ilic Cica Sumadijski","Elementary","Aleksandra Karadjordjevica 10","RS","","Han Pijesak","44.304255","20.568816","38751","",""
"OS Mokro","Elementary","Mokro bb","RS","","Mokro","43.881727","18.609808","38751","",""
"OS sPale","Elementary","Milana Simovica 26","RS","","Pale","43.812912","18.569799","38751","",""
"OS Srbija","Elementary","Dobrovoljnih davalaca krvi bb","RS","","Pale","43.807573","18.576943","38751","",""
"OS Trnovo","Elementary","Trnovskog bataljona 33","RS","","Trnovo","43.666511","18.44756","38751","",""
"OS Sveti Sava","Elementary","Nemanjina bb","RS","","Foca","43.509806","18.775954","38751","",""
"OS Veselin Maslesa","Elementary","Karadjordjeva 68A","RS","","Foca","43.504813","18.772346","38751","",""
"Muzicka skola","Elementary","Nemanjina bb","RS","","Foca","","","38751","",""
"OS Rudo","Elementary","Cara Dusana 36","RS","","Rudo","43.617914","19.369296","38751","",""
"OS Bosko Buha","Elementary","strpci bb","RS","","strpci","43.637804","19.485556","38751","",""
"OS Vuk Karadzic","Elementary","Vojvode Putnika 16","RS","","Visegrad","43.785289","19.299654","38751","",""
"OS Sveti Sava","Elementary","Preobrasenjska bb","RS","","Rogatica","43.79876","19.005488","38751","",""
"OS Jovan Ducic","Elementary","Igumana Vasilija bb","RS","","Cajnice","43.558611","19.070771","38751","",""
"OS sLjutica Bogdan","Elementary","Srpskih dobrovoljaca bb","RS","","Kalinovik","43.504676","18.443613","38751","",""
"OS Jovan Jovanovic Zmaj","Elementary","Oktobarska 1","RS","","Trebinje","42.707755","18.344377","38751","",""
"OS Sveti Vasilije Ostroski","Elementary","Goricka 19","RS","","Trebinje","42.719505","18.357767","38751","",""
"OS Vuk Karadzic","Elementary","Milosa Crnjanskog 4","RS","","Trebinje","42.711335","18.35346","38751","",""
"Muzicka skola","Elementary","Milosa Obilica 21","RS","","Trebinje","","","38751","",""
"OS Sveti Sava","Elementary","Svetosavska 23","RS","","Ljubinje","42.949003","18.090608","38751","",""
"OS Sveti Sava","Elementary","Hercegovackih ustanaka bb","RS","","Bileca","42.871939","18.427857","38751","",""
"Prva osnovna skola","Elementary","Josipa Juraja Strosmajera 1","Brcko Distrikt","","Brcko","44.873397","18.813739","38749215260","",""
"Druga osnovna skola","Elementary","Vase Pelagica 6","Brcko Distrikt","","Brcko","44.86812","18.8088","38749212509","",""
"Treca osnovna skola","Elementary","Reisa Dzemaludina Causevica bb","Brcko Distrikt","","Brcko","44.878036","18.799369","38749211101","",""
"Cetvrta osnovna skola","Elementary","Bulevar mira 4","Brcko Distrikt","","Brcko","44.876202","18.81128","38749216165","","http://www.ivosnovna.com/"
"Peta osnovna skola","Elementary","Muderisa Ibrahimbegovica 75","Brcko Distrikt","","Brcko","44.87362","18.790843","38749213312","",""
"Sesta osnovna skola Brezovo Polje","Elementary","Carsija bb","Brcko Distrikt","","","44.84459","18.955316","38749382001","",""
"Sedma osnovna skola Gornji Rahic","Elementary","","Brcko Distrikt","","","44.786506","18.697263","38749512222","",""
"Osma osnovna skola Brka","Elementary","","Brcko Distrikt","","","44.831063","18.720401","38749500259","",""
"Deveta osnovna skola Maoca","Elementary","","Brcko Distrikt","","","44.773828","18.658605","38749520222","",""
"Deseta osnovna skola Bijela","Elementary","","Brcko Distrikt","","","44.788598","18.561438","38749750342","",""
"Jedanaesta osnovna skola Zovik","Elementary","","Brcko Distrikt","","","44.757738","18.711891","38749749143","",""
"Dvanaesta osnovna skola Ulice","Elementary","","Brcko Distrikt","","","44.884385","18.687891","38749","",""
"Trinaesta osnovna skola Bukvik","Elementary","","Brcko Distrikt","","","44.820914","18.655547","38749","",""
"Cetrnaesta osnovna skola Krepsic","Elementary","","Brcko Distrikt","","","","","38749","",""
"Osnovna muzicka skola","Elementary","","Brcko Distrikt","","Brcko","44.872052","18.81122","38749212436","",""
"Gimnazija Vaso Pelagic","High School","Trg pravde 3","Brcko Distrikt","","Brcko","44.872118","18.813117","38749211941","",""
"Ekonomska skola","High School","Studentska 9","Brcko Distrikt","","Brcko","44.872134","18.813127","38749217812","",""
"Tehnicka skola","High School","Musala 44","Brcko Distrikt","","Brcko","44.879827","18.800648","38749217052","",""
"Poljoprivredna i medicinska skola","High School","Vase Pelagica 2","Brcko Distrikt","","Brcko","44.868839","18.808589","38749214803","",""
"Centar za slijepu i slabovidnu djecu i omladinu","High School","","FBiH","KS","","43.84100412","18.33680391","38733473019","","www.czsd.edu.ba"
"Centar za slusnu i govornu rehabilitaciju","High School","","FBiH","KS","","43.87256815","18.41510296","38733440969","","www.cersig.edu.ba"
"Cetvrta gimnazija","High School","","FBiH","KS","","43.82951159","18.30687046","38733636704","","www.cetvrta-gimnazija.edu.ba"
"Druga gimnazija","High School","","FBiH","KS","","43.86223432","18.41288209","38733667438","","www.2gimnazija.edu.ba"
"Elektrotehnicka skola za energetiku","High School","","FBiH","KS","","43.85404178","18.39340925","38733235014","","www.etssa.edu.ba"
"Gazi Husrev-Begova Medresa","High School","","FBiH","KS","","43.85954614","18.4294045","38733534888","","www.medresasa.edu.ba"
"Gimnazija Dobrinja","High School","","FBiH","KS","","43.83164774","18.34347725","38733464948","","www.gdobrinja.edu.ba"
"Gimnazija Obala","High School","","FBiH","KS","","43.8568269","18.41592908","38733214960","","www.obala.edu.ba"
"Gimnazija Richmond Park Colleges Sarajevo","High School","","FBiH","KS","","43.81870582","18.31064701","38733944115","","www.sarajevocollege.ba"
"Katolicki skolski centar - srednja medicinska skola","High School","","FBiH","KS","","43.8580879","18.41897607","38733218295","","www.ksc-sarajevo.edu.ba"
"Katolicki skolski centar s Opca realna gimnazija","High School","","FBiH","KS","","43.86111265","18.42236638","38733653506","","www.ksc-sarajevo.edu.ba"
"Medjunarodna gimnazija 'Richmond Park International Secondary School'","High School","","FBiH","KS","","43.81925544","18.31048608","38733944130","","www.internationalschool.ba"
"Perzijsko-Bosanski koledz sa internatom","High School","","FBiH","KS","","43.99093113","18.23361397","38733402204","","www.pbk.edu.ba"
"Peta gimnazija","High School","","FBiH","KS","","43.83137299","18.34331632","38733235521","","www.peta-gimnazija.edu.ba"
"Prva bosnjacka gimnazija","High School","","FBiH","KS","","43.86039322","18.4230423","38733461780","","www.bosnjackagim.edu.ba"
"Prva gimnazija","High School","","FBiH","KS","","43.85715956","18.42365384","38733203567","","www.prva-gimnazija.edu.ba"
"Skola za srednje strucno obrazovanje i radno osposobljavanje","High School","","FBiH","KS","","43.84876516","18.37733746","38733655950","","www.strucnoobraz.edu.ba"
"Srednja ekonomska skola","High School","","FBiH","KS","","43.85372844","18.3922559","38733250041","","www.ses.edu.ba"
"Srednja elektrotehnicka skola","High School","","FBiH","KS","","43.85377873","18.36215615","38733650989","","www.ets-sa.edu.ba"
"Srednja gradjevinsko geodetska skola","High School","","FBiH","KS","","43.85729495","18.402282","38733214543","","www.ggs.edu.ba"
"Srednja masinska tehnicka skola","High School","","FBiH","KS","","43.85643235","18.40244293","38733275620","","www.smts.edu.ba"
"Srednja medicinska skola","High School","","FBiH","KS","","43.86322446","18.41907263","38733666185","","www.sms.edu.ba"
"Srednja medicinska skola - Jezero","High School","","FBiH","KS","","43.87623407","18.40884805","38733443987","","www.ssmstsa.edu.ba"
"Srednja muzicka skola","High School","","FBiH","KS","","43.86049379","18.42493057","38733441958","","www.muzickasa.edu.ba"
"Srednja poslovno-komercijalna i trgovacka skola","High School","","FBiH","KS","","43.86320512","18.41981292","38733205942","","www.sts.edu.ba"
"Srednja skola - Gimnazija 'Maarif'","High School","","FBiH","KS","","43.83728576","18.34951218","38762271004","","www.maarifschools.edu.ba"
"Srednja skola metalskih zanimanja","High School","","FBiH","KS","","43.85645556","18.40184212","38733207369","","www.ssmz.edu.ba"
"Srednja skola poljoprivrede, prehrane, veterine i uslusnih djelatnosti","High School","","FBiH","KS","","43.85633565","18.42408836","38733262900","","www.mspvps.edu.ba"
"Srednja skola primijenjenih umjetnosti","High School","","FBiH","KS","","43.8577243","18.42361629","38733440520","","www.artschoolsa.edu.ba"
"Srednja skola za okolis i drvni dizajn","High School","","FBiH","KS","","43.85372457","18.39406371","38733641036","","www.msdss.edu.ba"
"Srednja skola za saobracaj i komunikacije","High School","","FBiH","KS","","43.86534394","18.39908481","38733561940","","www.mssskola.edu.ba"
"Srednja skola za tekstil, kozu i dizajn","High School","","FBiH","KS","","43.86687548","18.43220472","38733531675","","www.msts.edu.ba"
"Srednja tehnicka skola grafickih tehnologija, dizajna i multimedije","High School","","FBiH","KS","","43.83114467","18.30609798","38733764225","","www.sgts.edu.ba"
"Srednja ugostiteljsko-turisticka skola","High School","","FBiH","KS","","43.8572524","18.43357265","38733534633","","www.msuts-sa.edu.ba"
"Srednja zubotehnicka skola","High School","","FBiH","KS","","43.86501132","18.41426611","38733262180","","www.szs.edu.ba"
"Srednjoskolski centar 'Nedzad Ibrisimovic'","High School","","FBiH","KS","Ilijas","43.96061915","18.2667017","38733400815","","www.mssilijas.edu.ba"
"Srednjoskolski centar Hadzici","High School","","FBiH","KS","","43.82213508","18.19843411","38733420337","","www.sscha.edu.ba"
"Srednjoskolski centar Vogosca","High School","","FBiH","KS","","43.89961637","18.34178209","38733432638","","www.mssvogosca.edu.ba"
"Treca gimnazija","High School","","FBiH","KS","","43.85277296","18.39055538","38733279250","","www.treca-gimnazija.edu.ba"
"Zeljeznicki skolski centar","High School","","FBiH","KS","","43.85490828","18.38516951","38733722940","","www.zsc.edu.ba"
"Prva gimnazija u Zenici","High School","Bulevar Kulina Bana 26","FBiH","ZDK","Zenica","44.201848","17.907655","38732402626","gim_zedo@bih.net.ba",""
"Druga gimnazija u Zenici","High School","Mejdandzik 2","FBiH","ZDK","Zenica","44.198119","17.908905","38732405431","drugagimn.zenica@hotmail.com",""
"Opca gimnazija u sastavu Katolickog skolskog centra 'Sveti Pavao'","High School","Dr. Abdulaha Aska Borica 20","FBiH","ZDK","Zenica","44.205332","17.905186","38732449106","ksc.ze.gimn@gmail.com","www.ksc-zenica.edu.ba"
"Srednja muzicka skola u Zenici","High School","skolska 11","FBiH","ZDK","Zenica","44.203028","17.905251","38732240814","srednjamuzicka@yahoo.com",""
"Ekonomska skola","High School","Mejdandzik 2","FBiH","ZDK","Zenica","44.198191","17.908967","38732404255","ekonomze@bih.net.ba",""
"Medicinska skola","High School","Crkvice bb","FBiH","ZDK","Zenica","44.206579","17.924213","38732443070","med.skola.ze@bih.net.ba",""
"Tehnicka skola","High School","Bilmisce 69","FBiH","ZDK","Zenica","44.19304","17.922194","38732200260","tscze@bih.net.ba","https://tscze.ba/"
"Strucna zanatska skola","High School","Bilmisce 69","FBiH","ZDK","Zenica","44.19304","17.922194","38732401423","szskola@bih.net.ba",""
"Strucna industrijska skola","High School","Bulevar Kralja Tvrtka 11","FBiH","ZDK","Zenica","44.21128","17.909151","38732202040","indsko@hotmail.com",""
"Mjesovita srednja skola","High School","Dr. Adolfa Goldbergera 10","FBiH","ZDK","Zenica","44.209378","17.907214","38732404601","pprehrambena@yahoo.com",""
"Specijalna srednja skola","High School","Bilmisce 69","FBiH","ZDK","Zenica","","","38732243615","spsrskze@bih.net.ba",""
"Gimnazija 'Muhsin Rizvic'","High School","sehidska 34","FBiH","ZDK","Breza","44.023427","18.265806","38732784596","gimn.breza@bih.net.ba",""
"Mjesovita srednja skola 'Mehmedalija Mak Dizdar'","High School","sehidska 34","FBiH","ZDK","Breza","44.023427","18.265806","38732784595","mssbreza@yahoo.com",""
"Gimnazija 'Muhsin Rizvic'","High School","sehida 32","FBiH","ZDK","Kakanj","44.123569","18.116725","38732556890","gimnazijakakanj@bih.net.ba",""
"Srednja tehnicka skola 'Kemal Kapetanovic'","High School","sehida 32","FBiH","ZDK","Kakanj","44.122853","18.116878","38732552552","stskemkap1@yahoo.com",""
"Srednja strucna skola","High School","sehida 33","FBiH","ZDK","Kakanj","44.123599","18.117169","38732556960","ssskakanj@gmail.com",""
"Gimnazija 'Edhem Mulabdic'","High School","Aleja ljiljana 50","FBiH","ZDK","Maglaj","44.553189","18.10054","38732603221","gimnazija.maglaj@ogmaglaj.edu.ba",""
"Mjesovita srednja skola","High School","Aleja ljiljana 50","FBiH","ZDK","Maglaj","44.553112","18.100908","38732603884","mss_maglaj@bih.net.ba",""
"Mjesovita srednja skola 'Musa Cazim Catic'","High School","skolska bb","FBiH","ZDK","Olovo","44.12913","18.581489","38732825372","mssolovo@bih.net.ba",""
"Gimnazija 'Musa Cazim Catic'","High School","Patriotske lige bb","FBiH","ZDK","Tesanj","44.605119","17.978618","38732650083","gimna@bih.net.ba",""
"Srednja tehnicka skola","High School","Patriotske lige bb","FBiH","ZDK","Tesanj","44.605231","17.978674","38732650669","stsmedi@bih.net.ba",""
"Mjesovita srednja skola","High School","Patriotske lige bb","FBiH","ZDK","Tesanj","44.605047","17.978841","38732650812","sss32@bih.net.ba",""
"Mjesovita srednja skola Stjepana Radica u Sivsi","High School","sabljak bb","FBiH","ZDK","Usora","44.673974","18.00851","38732893722","ss.stjepana_radica@tel.net.ba",""
"Mjesovita srednja skola 'NORDBAT-2'","High School","Zvjezda bb","FBiH","ZDK","Vare","44.163435","18.328448","38732843002","nordbat@tel.net.ba",""
"Gimnazija 'Visoko'","High School","Musala 23","FBiH","ZDK","Visoko","43.993321","18.181407","38732735501","ki_selma@yahoo.com",""
"Mjesovita srednja skola 'Hazim sabanovic'","High School","Branilaca 24","FBiH","ZDK","Visoko","43.995227","18.175698","38732738165","mss.hazimsabanovic@gmail.com",""
"Medresa 'Osman-ef. Redzovic'","High School","Veliko Cajno bb","FBiH","ZDK","Visoko","44.028173","18.201885","38732745771","info@medresa.org","https://www.medresa.ba/"
"Gimnazija 'Rizah Odzeckic'","High School","Stjepana Radica 43","FBiH","ZDK","Zavidovici","44.444589","18.141073","38732866678","gimzav@bih.net.ba",""
"Srednja tehnicka skola","High School","Mehmeda pase Sokolovica bb","FBiH","ZDK","Zavidovici","44.437729","18.144347","38732879002","stszav@bih.net.ba",""
"Srednja strucna skola","High School","Stjepana Radica 43","FBiH","ZDK","Zavidovici","44.123502","18.117292","38732877773","skolastrucna@bih.net.ba",""
"Gimnazija Bihac","High School","Safvet bega Basagica bb","FBiH","USK","Bihac","44.817925","15.87751","38737312915","","www.gimnazijabihac.edu.ba"
"Medicinska skola","High School","Safvet bega Basagica bb","FBiH","USK","Bihac","44.816607","15.876265","38737319073","",""
"Mjesovita srednja skola","High School","Dzanica mahala bb","FBiH","USK","Bihac","44.816554","15.877217","38737311075","",""
"Masinsko - saobracajna srednja skola","High School","Irfana Ljubijankica 64","FBiH","USK","Bihac","44.820072","15.863273","38737226166","","www.etsbi.edu.ba"
"Mjesovita elektrotehnicka i drvopreradjivacka srednja skola","High School","Irfana Ljubijankica 64","FBiH","USK","Bihac","44.820072","15.863273","38737110181","",""
"Umjetnicka skola","High School","V korpusa bb","FBiH","USK","Bihac","44.812781","15.868299","38737311045","","www.umjetnicka-bihac.com"
"Katolicki skolski centar 'IvanPavao II'","High School","segar bb","FBiH","USK","Bihac","44.816813","15.85034","38737223874","","ksc-bihac.net"
"Tursko-bosanski Unsko-sanski koledz","High School","","FBiH","USK","Bihac","44.818649","15.87719","38737312903","","www.unasanacollege.edu.ba"
"Gimnazija","High School","Izeta Nanica 12","FBiH","USK","Bosanska Krupa","44.884179","16.1559","38737471057","",""
"Mjesovita srednja skola 'Safet Krupic'","High School","Izeta Nanica 12","FBiH","USK","Bosanska Krupa","44.890887","16.155649","38737471077","",""
"Mjesovita srednja skola","High School","Bosanska bb","FBiH","USK","Bosanski Petrovac","44.558729","16.368456","38737883347","",""
"Mjesovita srednja skola","High School","","FBiH","USK","Buzim","45.072108","16.018902","38737410115","",""
"Gimnazija","High School","H.Mujezinovica 1","FBiH","USK","Cazin","44.967748","15.914822","38737514072","",""
"I srednja skola","High School","H.Mujezinovica 1","FBiH","USK","Cazin","44.963584","15.929787","38737514436","",""
"II srednja skola","High School","H.Mujezinovica 1","FBiH","USK","Cazin","44.963584","15.929787","38737514036","",""
"Medresa 'Dzemaludin Causevic'","High School","M.Terzic 3","FBiH","USK","Cazin","44.96149","15.932772","38737514893","",""
"Mjesovita srednja skola","High School","Branilaca BiH 86","FBiH","USK","Kljuc","44.5336","16.776156","38737661038","",""
"Gimnazija","High School","Prijedorska bb","FBiH","USK","Sanski Most","44.767827","16.657781","38737686039","",""
"Mjesovita srednja skola","High School","Prijedorska bb","FBiH","USK","Sanski Most","44.767828","16.657763","38737686426","",""
"Srednja poljoprivredna skola 'Sanus futurum'","High School","Krkojevci bb","FBiH","USK","Sanski Most","44.747551","16.661157","38737684210","",""
"Gimnazija","High School","Ibrahima Mrsljaka bb","FBiH","USK","Velika Kladusa","45.185845","15.803117","38737770896","",""
"I srednja skola 'Dr.Husein Dzanic'","High School","Ibrahima Mrsljaka bb","FBiH","USK","Velika Kladusa","45.185481","15.803029","38737770043","",""
"II srednja skola","High School","Ibrahima Mrsljaka bb","FBiH","USK","Velika Kladusa","45.185481","15.803029","38737772876","",""
"Srednja skola 'Pero Zecevic'","High School","dzemala Bijedica 13","FBiH","PK","Odzak","45.015972","18.324339","38731761866","office@sskola-odzak.edu.ba",""
"Srednja skola 'Fra Martin Nedic'","High School","XI ulica","FBiH","PK","Orasje","45.034493","18.690663","38731710100","","www.skor.tel.net.ba"
"Gimnazija 'Mesa Selimovic'","High School","M.Fizovica 1","FBiH","TK","Tuzla","44.532185","18.685335","38735247620","gmstz@bih.net.ba",""
"Gimnazija 'Ismet Mujezinovic'","High School","Mehmeda Hevaije Uskufije 1","FBiH","TK","Tuzla","44.538996","18.668198","38735252006","gimim@bih.net.ba",""
"Katolicki skolski centar 'Sveti Franjo' Opca gimnazija","High School","Klosterska 14","FBiH","TK","Tuzla","44.536637","18.680781","38735300800","","www.ksc-tuzla.edu.ba"
"Srednja ekonomska skola","High School","Muhameda Hevaije Uskufije 3","FBiH","TK","Tuzla","44.539481","18.66788","38735271007","info@ekonomskaskola.com","www.ekonomskaskola.com"
"Srednja medicinska skola","High School","Fra Grge Martica 5","FBiH","TK","Tuzla","44.538412","18.670964","38735252040","medicinska.tuzla@montk.gov.ba","https://smstz.edu.ba/"
"Srednja muzicka skola","High School","Ludvika Kube 1","FBiH","TK","Tuzla","44.536324","18.683582","38735262531","Sms_tuzla@yahoo.com",""
"Mjesovita srednja trgovinska skola","High School","Muhameda Hevaije Uskufije 3","FBiH","TK","Tuzla","44.539556","18.667279","38735252405","trg.skola@bih.net.ba","www.trgskola.com.ba"
"Mjesovita srednja elektrotehnicka skola","High School","Muhameda Hevaije Uskufije 2","FBiH","TK","Tuzla","44.540622","18.664618","38735282009","Ets.tz@bih.net.ba","www.etstuzla.edu.ba"
"Mjesovita srednja gradjevinsko-geodetska skola","High School","Bosne Srebrene 61","FBiH","TK","Tuzla","44.53657","18.663197","38735228513","gradskola@bih.net.ba","www.gradjevinskogeodetska.com.ba"
"Mjesovita srednja hemijska skola","High School","Bosne Srebrene 8","FBiH","TK","Tuzla","44.537977","18.662826","38735281092","hemijska.skola@gmail.com",""
"Mjesovita srednja masinska skola","High School","Bosne Srebrene 6","FBiH","TK","Tuzla","44.538353","18.666981","38735315800","masinska.skola.tz@bih.net.ba",""
"Mjesovita srednja rudarska skola","High School","Bosne Srebrene 61","FBiH","TK","Tuzla","44.536824","18.662772","38735228514","msrudskola@bih.net.ba",""
"Mjesovita srednja saobracajna skola","High School","Bosne Srebrene 6","FBiH","TK","Tuzla","44.538407","18.66696","38735315390","jumsss@bih.net.ba",""
"Mjesovita srednja skola","High School","Bosne Srebrene 8","FBiH","TK","Tuzla","44.537867","18.662769","38735282548","jumsstuzla@gmail.com",""
"Turisticko-ugostiteljska skola","High School","Muhameda Hevajije Uskufije 1","FBiH","TK","Tuzla","44.539247","18.667904","38735247900","tru.ugostiteljska@gmail.com",""
"Behram-begova medresa","High School","Behram-begova 1","FBiH","TK","Tuzla","44.538648","18.654141","38735281151","info@medresatz.edu.ba",""
"Gimnazija","High School","Prva ulica 58b","FBiH","TK","Zivinice","44.448631","18.652593","38735772612","gimnaz.zivinice@bih.net.ba",""
"Mjesovita srednja skola","High School","Prva ulica 58b","FBiH","TK","Zivinice","44.448481","18.652005","38735772611","msszivinice@gmail.com",""
"Mjesovita srednja skola","High School","Branilaca Banovica 38","FBiH","TK","Banovici","44.409476","18.533004","38735876739","ju.mss@bih.net.ba",""
"Mjesovita srednja skola","High School","","FBiH","TK","Celic","44.72176","18.821304","38735668010","mss.celic@bih.net.ba",""
"Mjesovita srednja skola","High School","Velika Brijesnica","FBiH","TK","Doboj-istok","44.722259","18.207706","38735723460","mjesovita.skola@bih.net.ba",""
"Gimnazija 'Dr. Mustafa Kamaric'","High School","Mula Mustafe Baseskije 2","FBiH","TK","Gracanica","44.708641","18.308873","38735786899","gimmko@bih.net.ba",""
"Mjesovita srednja skola","High School","Mula Mustafe Baseskije 2","FBiH","TK","Gracanica","44.708915","18.308697","38735700311","mssgracanica@bih.net.ba",""
"Gimnazija 'Mustafa Novalic'","High School","Sarajevska bb","FBiH","TK","Gradacac","44.885681","18.417633","38735821150","gimngrad@gmail.com",""
"Mjesovita srednja skola 'Hasan Kikic'","High School","Husein-kapetana Gradascevica bb","FBiH","TK","Gradacac","44.885551","18.418444","38735631043","",""
"Mjesovita srednja skola","High School","Patriotske lige bb","FBiH","TK","Kalesija","44.442166","18.876478","38735631043","ju.mss.k@bih.net.ba",""
"Mjesovita srednja skola 'Musa Cazim Catic'","High School","Kladanjskih brigada 88a","FBiH","TK","Kladanj","44.231379","18.700316","38735621215","jumss.k@bih.net.ba",""
"Gimnazija 'Gimnazija Lukavac'","High School","skolska 5","FBiH","TK","Lukavac","44.534988","18.530178","38735550540","gimn.lu@bih.net.ba",""
"Mjesovita srednja elektro-masinska skola","High School","skolska 5","FBiH","TK","Lukavac","44.535376","18.529445","38735553377","ems.lukavac@yahoo.com",""
"Mjesovita srednja ekonomsko-hemijska","High School","skolska 5","FBiH","TK","Lukavac","44.535273","18.530596","38735550250","",""
"Mjesovita srednja skola","High School","206. Viteske brigade bb","FBiH","TK","Sapna","44.491222","19.00175","38735597067","sapnass@bih.net.ba",""
"Mjesovita srednja skola","High School","Radnicka 19","FBiH","TK","Srebrenik","44.704626","18.489536","38735645679","jumss@bih.net.ba",""
"Mjesovita srednja skola","High School","","FBiH","TK","Teocak","44.601421","18.980836","38735755561","mssteocak@bih.net.ba",""
"Mjesovita srednja skola 'Enver Pozderovic'","High School","Zaima Imamovica 20","FBiH","BPK","Gorazde","43.663962","18.973679","38738221020","mssep@bih.net.ba",""
"Srednja tehnicka skola 'Hasib Hadzovic'","High School","Zaima Imamovica 60","FBiH","BPK","Gorazde","43.663172","18.975551","38738221137","justsgo@bih.net.ba",""
"Srednja strucna skola 'dzemal Bijedic'","High School","Titova 20","FBiH","BPK","Gorazde","43.66862","18.978689","38738221214","nicka_f@hotmail.com",""
"Gimnazija","High School","Zlatnih ljiljana","FBiH","SBK","Bugojno","44.054957","17.447838","38730260112","bug.gim@bih.net.ba",""
"Srednja strucna skola","High School","Ciglane II","FBiH","SBK","Bugojno","44.052557","17.437698","38730252207","",""
"Srednja tehnicka skola","High School","Ciglane II","FBiH","SBK","Bugojno","44.05222","17.438525","38730251915","tehskolabu@yahoo.com",""
"Mjesovita srednja skola 'Busovaca'","High School","Kulina bana bb","FBiH","SBK","Busovaca","44.100612","17.879049","38730593155","mail@mssbusovaca.com.ba","https://mssbusovaca.com.ba/"
"Srednja skola 'Busovaca'","High School","Kulina bana bb","FBiH","SBK","Busovaca","44.100612","17.879049","38730732042","ssbusovaca@gmail.com","https://www.ss-busovaca.com/"
"Mjesovita srednja skola","High School","srtava genocida u Srebrenici","FBiH","SBK","Donji Vakuf","44.139848","17.401169","38730205355","mssdvakuf@bih.net.ba",""
"Srednja mjesovita skola 'Zijah Dizdarevic'","High School","Novo naselje","FBiH","SBK","Fojnica","43.95884","17.90254","38730831821","smszijahdizdarevic@yahoo.com",""
"Mjesovita srednja skola 'Gornji Vakuf'","High School","Kralja Tomislava bb","FBiH","SBK","Gornji Vakuf","43.939242","17.581508","38730266255","vahid.sehic@yahoo.com",""
"Mjesovita srednja skola 'Uskoplje'","High School","Kralja Tomislava bb","FBiH","SBK","Gornji Vakuf","43.938762","17.581116","38730494039","sskola.uskoplje@tel.net.ba",""
"Srednja strukovna skola 'Jajce'","High School","Tina Ujevica 3","FBiH","SBK","Jajce","44.347236","17.253766","38730654043","ss-skola-jajce@tel.net.ba",""
"Srednja skola 'Nikola Sop'","High School","Fra Antuna Knezevica 27","FBiH","SBK","Jajce","44.342983","17.275563","38730654174","gimnazija.nikola.sop@tel.net.ba",""
"Srednja skola 'Ivan Goran Kovacic'","High School","Zrtava domovinskog rata 11","FBiH","SBK","Kiseljak","43.943452","18.079831","38730879002","srednja_skola_kis@yahoo.com",""
"Srednja strukovna skola 'Fojnica'","High School","","FBiH","SBK","Fojnica","43.95884","17.90254","38730879113","srednjaskolafoj@yahoo.com",""
"Srednja skola 'Kresevo'","High School","Troska 2a","FBiH","SBK","Kresevo","43.870461","18.057744","38730800202","ss.kresevo@tel.net.ba",""
"Srednja glazbena skola Jakova Gotovca","High School","Ljudevita Gaja bb","FBiH","SBK","Novi Travnik","44.171337","17.655827","38730792286","sr.gl.sk.jakova.gotovca@tel.net.ba",""
"Mjesovita srednja skola '308. slavna brigada'","High School","Omladinska bb","FBiH","SBK","Novi Travnik","44.169275","17.649008","38730525407","",""
"Srednja skola 'Novi Travnik'","High School","Ljudevita Gaja bb","FBiH","SBK","Novi Travnik","44.171337","17.655827","38730793504","ss-novi.travnik@tel.net.ba",""
"Mjesovita srednja tehnicka skola","High School","skolska bb","FBiH","SBK","Travnik","44.225549","17.656774","38730511618","psecurity@msts-travnik.net",""
"Mjesovita srednja ekonomsko-ugostiteljska skola","High School","skolska bb","FBiH","SBK","Travnik","44.224568","17.658843","38730511076","",""
"Mjesovita srednja skola "Travnik"","High School","skolska 3","FBiH","SBK","Travnik","44.225237","17.662377","38730511059","srednjatr@bih.net.ba",""
"Katolicki skolski centar 'Petar Barbaric' - Gimnazija","High School","Skolska 1","FBiH","SBK","Travnik","44.225288","17.661558","38730518823","sksctr@bih.net.ba",""
"JU Srednja skola","High School","","FBiH","SBK","Nova Bila","44.189026","17.737568","38730707486","ss.travnik@tel.net.ba",""
"Elci Ibrahim-pasina medresa","High School","Mostarska bb","FBiH","SBK","Nova Bila","44.228963","17.673723","38730512023","medresa@gmail.com",""
"Mjesovita srednja skola","High School","Ilija Petrovica bb","FBiH","SBK","Vitez","44.151094","17.789063","38730717540","mss.vitez.kruscica@tel.net.ba",""
"Srednja skola","High School","Ilija Petrovica bb","FBiH","SBK","Vitez","44.151094","17.789063","38730711336","ss.vitez@tel.net.ba",""
"Gimnazija Mostar","High School","spanjolski trg 1","FBiH","HNK","Mostar","43.342922","17.807231","38736315216","",""
"Gimnazija fra Grge Martica","High School","","FBiH","HNK","Mostar","43.348353","17.798974","38736326994","",""
"Srednja ekonomska skola Joze Martinovica","High School","Kralja Tomislava 2","FBiH","HNK","Mostar","43.346844","17.800285","38736310846","",""
"Druga gimnazija Mostar","High School","Sjeverni logor bb","FBiH","HNK","Mostar","43.355422","17.806351","38736551615","",""
"Srednja medicinska skola","High School","Sjeverni logor bb","FBiH","HNK","Mostar","43.355642","17.806172","38736576851","",""
"Ekonomska i ugostiteljsko-turisticka skola","High School","Konak bb","FBiH","HNK","Mostar","43.337832","17.817382","38736576766","",""
"Masinsko-saobracajna skola","High School","Mile Budaka 26a","FBiH","HNK","Mostar","43.348971","17.808352","38736566290","",""
"Srednja gradjevinska skola","High School","","FBiH","HNK","Mostar","43.337535","17.817463","38736551456","",""
"Srednja elektrotehnicka skola","High School","Alekse Santica","FBiH","HNK","Mostar","43.345411","17.809394","38736580126","",""
"Srednja tekstilna i poljoprivredna skola","High School","Sjeverni logor bb","FBiH","HNK","Mostar","43.355642","17.806172","38736570034","",""
"Muzicka skola I u II stupnja","High School","Marsala Tita","FBiH","HNK","Mostar","43.334766","17.817574","38736551462","",""
"Karadjozbegova medresa","High School","Glavna ulica","FBiH","HNK","Mostar","43.341906","17.814241","38736550921","",""
"Srednja gradjevinska skola Jurja Dalmatinca","High School","Kralja Zvonimira 24","FBiH","HNK","Mostar","43.345616","17.799956","38736318527","",""
"Srednja turisticko-ugostiteljska skola","High School","Kralja Zvonimira bb","FBiH","HNK","Mostar","43.344921","17.803151","38736320107","",""
"Srednja medicinska skola Sestara milosrdnica","High School","Franjevacka 18","FBiH","HNK","Mostar","43.337867","17.807079","38736332971","",""
"Srednja elektrotehnicka skola Rudjera Boskovica","High School","Kralja Zvonimira 24","FBiH","HNK","Mostar","43.346889","17.800273","38736318525","",""
"Srednja strojarska skola Fausta Vrancica","High School","Kralja Zvonimira 24","FBiH","HNK","Mostar","43.345886","17.799887","38736318526","",""
"Srednja skola likovnih umjetnosti Gabrijela Jurkica","High School","Bleiburskih srtava 35","FBiH","HNK","Mostar","43.34965","17.792052","38736322571","",""
"Srednja glazbena skola Ivana PL. Zajca","High School","Trg hrvatskih velikana","FBiH","HNK","Mostar","43.34225","17.802279","38736320127","",""
"IPG Internacionalna privatna gimnazija s pravom javnosti","High School","Bleiburskih srtava 100","FBiH","HNK","Mostar","43.353142","17.792451","38736327808","",""
"Srednja skola Prozor","High School","Kralja Tomislava","FBiH","HNK","Prozor","43.828037","17.606807","38736771214","",""
"Srednja skola Capljina i Podruzni odjel Neum","High School","","FBiH","HNK","Capljina","43.112618","17.70234","38736801506","",""
"Srednja skola dr.fra Slavka Barbarica","High School","Kralja Tomislava 72","FBiH","HNK","Citluk","43.225045","17.697673","38736642357","",""
"Srednja skola Stolac","High School","Don Lazara Lazarevica","FBiH","HNK","Stolac","43.083423","17.960258","38736853404","",""
"Srednja skola Konjic","High School","Maksima Kujundzica","FBiH","HNK","Konjic","43.651914","17.963036","38736727321","",""
"Srednja skola Jablanica","High School","P. Bilica 7","FBiH","HNK","Jablanica","43.664511","17.758091","38736752833","",""
"Gimnazija Ljubuski","High School","Sestre Silvije Antic 1","FBiH","ZHK","Ljubuski","43.190767","17.538628","38739830068","gimnazija.lj@gmail.com",""
"Srednja strukovna skola Rudjera Boskovica","High School","Sestre Silvije Antic 1","FBiH","ZHK","Ljubuski","43.191374","17.53806","38739831921","ss.skola-rudjer.boskovic@tel.net.ba",""
"Srednja skola Antuna Branka Simica Grude","High School","Dr Franje Tudjmana 14","FBiH","ZHK","Grude","43.370565","17.415857","38739662230","ravnatelj@ssgrude.net",""
"Gimnazija fra Grge Martica","High School","Bartola Kasica bb","FBiH","ZHK","Posusje","43.472187","17.329458","38739682458","ss.fra.grge.martica.posusje@wic.ba",""
"Srednja strukovna skola","High School","Bartola Kasica bb","FBiH","ZHK","Posusje","43.472187","17.329458","38739682458","",""
"Gimnazija fra Dominika Mandica","High School","Kardinala Alojzija Stepinca 24","FBiH","ZHK","Siroki Brijeg","43.374992","17.590003","38739704393","direktor@gimnazija-sb.edu.ba",""
"Glazbena skola","High School","Matije Gubca 1","FBiH","ZHK","Siroki Brijeg","43.383558","17.594579","38739707632","silvana.zadro@tel.net.ba",""
"Srednja strukovna skola","High School","Kardinala Alojzija Stepinca 24","FBiH","ZHK","Siroki Brijeg","43.374992","17.590003","38739704393","strukovna.skola.sb@tel.net.ba",""
"Gimnazija Livno","High School","Kraljice Katarine 16","FBiH","Kanton 10","Livno","43.828289","17.006507","38734202041","luka.novokmet@tel.net.ba",""
"Srednja ekonomska skola","High School","Silvija Strahimira Kranjcevica 1","FBiH","Kanton 11","Livno","43.823679","17.00135","38734202015","sskola-ekonomska.livno@tel.net.ba",""
"Srednja strukovna skola Silvija Strahimira Kranjcevica","High School","Dinarina 2","FBiH","Kanton 12","Livno","43.825805","17.006849","38734201580","strukovna.skola.livno@tel.net.ba",""
"Gimnazija Marka Marulica","High School","Mijata Tomica 10","FBiH","Kanton 13","Tomislavgrad","43.723553","17.221406","38734352507","gimnazija.tg@tel.net.ba",""
"Srednja strukovna skola","High School","Maka Dizdara bb","FBiH","Kanton 14","Tomislavgrad","43.718575","17.224017","38734352312","sss.tg@tel.net.ba",""
"Srednja skola 'Kupres'","High School","Splitska bb","FBiH","Kanton 15","Kupres","43.99182","17.277964","38734274100","sskola-kupres@tel.net.ba",""
"Srednja skola 'Drvar'","High School","Jole Marica bb","FBiH","Kanton 16","Drvar","44.373908","16.386804","38734819013","srednjaskola.drvar@gmail.com",""
"Srednja skola 'Tin Ujevic'","High School","Stjepana Radica bb","FBiH","Kanton 17","Glamoc","44.048577","16.85302","38734273023","ss.tin.ujevic.glamoc@tel.net.ba",""
"Gimnazija Banja Luka","High School","Zmaj Jovina 13","RS","","Grad Banjaluka","44.769683","17.183513","38734","",""
"Gradjevinska skola","High School","Dr Mladena Stojanovica 7","RS","","Grad Banjaluka","44.78011","17.19859","","",""
"Ekonomska skola","High School","Kralja Alfonsa XIII 34","RS","","Grad Banjaluka","44.769377","17.196023","","","ekonomskaskolabl.org"
"Elektrotehnicka skola Nikola Tesla","High School","Jevrejska 48","RS","","Grad Banjaluka","44.768543","17.195134","","",""
"Medicinska skola Banja Luka","High School","Cetinska 1","RS","","Grad Banjaluka","44.760457","17.176875","","",""
"Poljoprivredna skola","High School","Knjaza Milosa 9","RS","","Grad Banjaluka","44.791347","17.205369","","",""
"Tehnicka skola","High School","Djure Danicica 2","RS","","Grad Banjaluka","44.768856","17.193059","38751348212","ss07@skolers.org","https://www.tehnickaskolabl.com/"
"Tehnoloska skola","High School","Pilanska bb","RS","","Grad Banjaluka","44.784792","17.21069","","",""
"Ugostiteljsko-trgovinsko-turisticka skola","High School","Vojvode Stepe 44","RS","","Grad Banjaluka","44.763192","17.197611","","",""
"Skola ucenika u privredi","High School","Nikole Pasica bb","RS","","Grad Banjaluka","44.768997","17.195875","","",""
"Muzicka skola Vlado Milosevic","High School","Jovana Ducica 23","RS","","Grad Banjaluka","44.773973","17.186416","","",""
"Centar za OIV i rehabilitaciju","High School","Jovana Raskovica 28","RS","","Grad Banjaluka","44.775029","17.179747","","",""
"Centar sZastiti me","High School","Poljokanov park bb","RS","","Grad Banjaluka","44.757089","17.174555","","",""
"Srednja poslovna skola","High School","Despota Stefana Lazarevica bb","RS","","Grad Banjaluka","44.809451","17.201516","","",""
"Srednjoskolski centar sGemit-Apeiron","High School","Vojvode Pere Krece 13","RS","","Grad Banjaluka","44.7556","17.185015","","",""
"Katolicki skolski centar Blaseni Ivan Merc","High School","Srpska 30","RS","","Grad Banjaluka","44.770564","17.194617","","",""
"Gimnazija Filip Visnjic","High School","Racanska 94","RS","","Grad Bijeljina","44.769947","19.226119","","",""
"Ekonomska skola","High School","Racanska 94","RS","","Grad Bijeljina","44.770442","19.226289","","",""
"Poljoprivredna i medicinska skola","High School","Semberskih ratara 1","RS","","Grad Bijeljina","44.774327","19.222666","","",""
"Tehnicka skola Mihajlo Pupin","High School","Racanska 76","RS","","Grad Bijeljina","44.770882","19.226085","","",""
"Muzicka skola Stevan Stojanovic Mokranjac","High School","Karadjordjeva 5","RS","","Grad Bijeljina","44.757446","19.218917","","",""
"Srednja strucna skola","High School","Karadjordjeva 250","RS","","Grad Bijeljina","44.757917","19.220728","","",""
"Srednjoskolski centar Golub Kures","High School","Vladimira Gacinovica 1","RS","","Bileca","42.875077","18.430506","","",""
"Srednjoskolski centar Bratunac","High School","Petra Kocica bb","RS","","Bratunac","42.875077","18.430506","","",""
"Srednja skola Nikola Tesla","High School","Kralja Petra I Oslobodioca bb","RS","","Brod","45.145552","18.011428","","",""
"Srednja skola sIvo Andric","High School","Kralja Petra I 16","RS","","Visegrad","43.784064","19.292398","","",""
"Srednjoskolski centar Milorad Vlacic","High School","Svetih Apostola Petra i Pavla 37","RS","","Vlasenica","44.17892","18.944384","","",""
"Srednjoskolski centar Nikola Tesla","High School","Branka Radicevica 1","RS","","Vukosavlje","44.981236","18.278404","","",""
"Srednjoskolski centar Pero Slijepcevic","High School","Solunskih dobrovoljaca 24","RS","","Gacko","43.167313","18.530822","","",""
"Gimnazija","High School","Trg Svetog Save 3 A","RS","","Gradiska","45.147672","17.255141","","","gimnazija.gradiska.com"
"Tehnicka skola","High School","Kosovke djevojke bb","RS","","Gradiska","45.147438","17.25587","","",""
"Srednja strucna skola","High School","Vidovdanska bb","RS","","Gradiska","45.149211,","17.25605","","",""
"Gimnazija sa tehnickim skolama","High School","Svetog Save bb","RS","","Derventa","44.986821","17.90177","","",""
"Strucna skola za radnicka zanimanja","High School","Svetog Save bb","RS","","Derventa","44.986085","17.902067","","",""
"Zavod za slijepe i slabovidne Buducnost","High School","Stevana Nemanje 12","RS","","Derventa","44.974579","17.907826","","",""
"Gimnazija","High School","Hilandarska 2","RS","","Doboj","44.731598","18.082035","","",""
"Ekonomska i trgovinska skola","High School","Cara Dusana 18","RS","","Doboj","44.728607","18.080852","","",""
"Medicinska skola","High School","Pop Ljubina 103","RS","","Doboj","44.741834","18.091077","","",""
"Tehnicka skola","High School","Cara Dusana 19","RS","","Doboj","44.72862","18.080869","","",""
"Saobracajna i elektro-skola","High School","Cara Dusana 18","RS","","Doboj","44.72862","18.080869","","",""
"Upravna, ugostiteljska i skola ucenika u privredi","High School","Cara Dusana 18","RS","","Doboj","44.72862","18.080869","","",""
"Gimnazija i srednja strucna skola Petar Kocic","High School","Vuka Karadzica 69","RS","","Zvornik","44.390045","19.103486","","",""
"Tehnicki skolski centar","High School","Karakaj bb","RS","","Zvornik","44.412845","19.122664","","",""
"Srednjoskolski centar Istocna Ilidza","High School","Stefana Nemanje 10","RS","","Istocna Ilidza","43.823062","18.364128","","",""
"Srednja skola 28. juni","High School","Stefana Nemanje 10","RS","","Istocna Ilidza","43.823141","18.364119","","",""
"Srednja strucna skola Jovan Ducic","High School","Dujka Komljenovica bb","RS","","Knezevo","44.488881","17.376445","","",""
"Mjesovita srednja skola Nikola Tesla","High School","Dositejeva bb","RS","","Kozarska Dubica","45.181374","16.806854","","",""
"Srednjoskolski centar","High School","Tavija bb","RS","","Kostajnica","45.210168","16.545945","","",""
"Srednjoskolski centar Nikola Tesla","High School","Nikole Tesle bb","RS","","Kotor Varos","44.623536","17.372273","","",""
"Srednjoskolski centar Vuk Karadzic","High School","","RS","","Lopare","44.629775","18.844861","","",""
"Srednja skola Svetozar Corovic","High School","Svetosavska bb","RS","","Ljubinje","42.94878","18.090702","","","https://sscsvetozarcorovic.org/"
"Srednjoskolski centar Milici","High School","","RS","","Milici","44.164263","19.069596","","",""
"Srednjoskolski centar Jovan Cvijic","High School","Omladinska bb","RS","","Modrica","44.953214","18.309633","","",""
"Gimnazija","High School","Sime solaje 25","RS","","Mrkonjic Grad","44.41181","17.086352","","",""
"Masinska skola","High School","Sime solaje 25","RS","","Mrkonjic Grad","44.411931","17.08652","","",""
"Srednjoskolski centar sAleksa Santic","High School","Obrena Ivkovica bb","RS","","Nevesinje","43.256855","18.114985","","",""
"Gimnazija Petar Kocic","High School","Dositeja Obradovica 6","RS","","Novi Grad","45.045494","16.373509","","",""
"Mjesovita skola Djuro Radmanovic","High School","Dositeja Obradovica 6","RS","","Novi Grad","45.045922","16.373412","","",""
"Srednjoskolski centar sPale","High School","Njegoseva 7","RS","","Pale","43.809895","18.567489","","",""
"Srednjoskolski centar Petrovo","High School","Ozrenskih odreda bb","RS","","Petrovo","44.625579","18.360079","","",""
"Gimnazija Sveti Sava","High School","Nikole Pasica 6b","RS","","Prijedor","44.976306","16.709974","","",""
"Elektrotehnicka skola","High School","Nikole Pasica 4","RS","","Prijedor","44.976272","16.708502","","",""
"Masinska skola","High School","Nikole Pasica 4","RS","","Prijedor","44.976398","16.708597","","",""
"Poljoprivredno-prehrambena skola","High School","Nikole Pasica 4","RS","","Prijedor","44.976598","16.707727","","",""
"Ugostiteljsko-ekonomska skola","High School","Vuka Karadzica 16","RS","","Prijedor","44.975878","16.710252","","",""
"Medicinsko-tehnoloska i gradjevinska skola","High School","Nikole Pasica 4","RS","","Prijedor","44.976574","16.707791","","",""
"Srednja i osnovna muzicka skola","High School","Branislava Nusica 9","RS","","Prijedor","44.980501","16.7101","","",""
"Specijalna osnovna i srednja skola Djordje Natosevic","High School","Kralja Aleksandra 6","RS","","Prijedor","44.974787","16.710738","","",""
"Gimnazija","High School","Rade Vranjesevic 1","RS","","Prnjavor","44.866191","17.670629","","",""
"Srednja skola Prnjavor","High School","Rade Vranjesevic 1","RS","","Prnjavor","44.865793","17.670431","","",""
"Sednjoskolski centar Lazar Djukic","High School","Rade Jovanovica bb","RS","","Ribnik","44.415562","16.818405","","",""
"Srednja skola 27. januars Rogatica","High School","Srpske sloge 116","RS","","Rogatica","43.805935","19.001498","","",""
"Srednjoskolski centar","High School","Cara Dusana bb","RS","","Rudo","43.618317","19.369462","","",""
"Srednja skola Sokolac","High School","Omladinska 2","RS","","Sokolac","43.931851","18.793426","","",""
"Mjesoviti skolski centar Petar Kocic","High School","Danka Mitrova bb","RS","","Srbac","45.096745","17.519864","","",""
"Srednjoskolski centar Srebrenica","High School","Svetosavska bb","RS","","Srebrenica","44.110899","19.294415","","",""
"Mjesovita skola Nikola Tesla","High School","Karadjordjeva bb","RS","","Teslic","44.603193","17.859599","","",""
"Srednja mjesovita skola Jovan Ducic","High School","Karadjordjeva bb","RS","","Teslic","44.603636","17.859432","","",""
"Gimnazija Jovan Ducic","High School","Vozda Karadjordja 1","RS","","Trebinje","42.71257","18.34018","","",""
"Centar srednjih skola","High School","Vozda Karadjordja 1","RS","","Trebinje","","","","",""
"Tehnicka skola","High School","Vozda Karadjordja 1","RS","","Trebinje","42.712503","18.339652","","",""
"Srednja skola Mihajlo Petrovic Alas","High School","Karadjordjeva 19","RS","","Ugljevik","42.712334","18.340144","","",""
"Srednjoskolski centar Foca","High School","Cara Dusana bb","RS","","Foca","43.503755","18.783925","","",""
"Bogoslovija Sveti Petar Dabrobosanski","High School","Velecevo bb","RS","","Foca","43.494302","18.79976","38758212030","bogoslovija.svetipetar@gmail.com","https://www.bogoslovijafoca.org/"
"Srednjoskolski centar Petar Petrovic Njegos","High School","Kralja Petra I Oslobodioca 36","RS","","Cajnice","43.556581","19.071945","","",""
"Srednja skola","High School","Vojvode Misica 21","RS","","Celinac","44.727711","17.321222","","",""
"Srednja skola Nikola Tesla","High School","Cara Lazara bb","RS","","Samac","45.058987","18.47291","","",""
"Srednja skola Petar II Petrovic Njegos","High School","Branka Radicevica bb","RS","","Sekovici","44.296699","18.860268","","",""
"Srednjoskolski centar","High School","Nikole Tesle 32","RS","","Sipovo","44.286421","17.087343","","",""