Name,Type,Address,Entity,Canton,Municipality,Latitude,Longitude,Phone,Email,Url
"Al Amel","Elementary","Osik 8","FBiH","KS","Ilidza","43.83444165","18.27962994","38733230294","",""
"Centar 'Vladimir Nazor'","Elementary","Azize Širbegović 80","FBiH","KS","","43.84837829","18.37751985","38733650196","","http://www.vladimirnazor.edu.ba"
"Centar za slijepu i slabovidnu djecu i omladinu","Elementary","Aleje Bosne srebrene 22","FBiH","KS","","43.84083387","18.33657861","38733473019","","http://www.czsd.edu.ba"
"Centar za slušnu i govornu rehabilitaciju","Elementary","Asima Ferhatovića 2","FBiH","KS","","43.87237479","18.41514587","38733664523","","http://www.cersig.edu.ba"
"Četvrta osnovna škola - Ilidža","Elementary","Put Famosa 33","FBiH","KS","Ilidza","43.79476516","18.32296371","38733698202","","http://www.oscetvrta.edu.ba"
"Deseta osnovna škola Ilidža","Elementary","Osik 210","FBiH","KS","Ilidza","43.84224997","18.27739835","38733564540","",""
"Deveta osnovna škola","Elementary","Rakovička cesta 339","FBiH","KS","","43.85978209","18.227005","38733428415","","http://www.osdeveta.edu.ba"
"Druga osnovna škola","Elementary","Školska 1, Hrasnica","FBiH","KS","Ilidza","43.79820354","18.31140876","38733514137","","http://www.osdruga.edu.ba"
"Francuska osnovna škola CIFS Sarajevo","Elementary","Paromlinska 66","FBiH","KS","","43.85474968","18.3726114","38733444405","",""
"Osnovna škola 'Aneks'","Elementary","Vrbovska bb, Sarajevo","FBiH","KS","","43.84322887","18.37163504","38733658883","",""
"Katolicki školski  centar - Osnovna škola Centar","Elementary","Mehmed paše Sokolovića 11","FBiH","KS","","43.86108944","18.42247367","38733665521","","http://www.ksc-sarajevo.edu.ba"
"Međunarodna njemačka škola Sarajevo - Internationale Deutsche Schule Sarajevo","Elementary","Buka 13","FBiH","KS","","43.8609328","18.4195447","38733560520","","http://idss.ba"
"Medjunarodna osnovna škola 'Richmond Park International Primary school'","Elementary","Francuske revolucije bb","FBiH","KS","Ilidza","43.84802237","18.39425683","38733944140","","http://www.internationalschool.ba"
"OŠ 'Mehmed Handžić'","Elementary","Lužani bb - Ilidža","FBiH","KS","","43.82668649","18.30249309","38733626077","","http://www.osmh.edu.ba"
"OŠ 'Ðulistan'","Elementary","Lješevo - Ilijaš","FBiH","KS","","43.99147916","18.23356032","38733403321","","http://www.djulistan.edu.ba"
"OŠ 'Hadžići'","Elementary","Hadželi bb","FBiH","KS","Hadžići","43.8250786","18.20876595","38733408811","","http://oshadzici.edu.ba"
"OŠ '6.mart' Hadžići","Elementary","6. Mart 1","FBiH","KS","Hadžići","43.82201123","18.19971085","38733420120","","http://www.os6mart.edu.ba"
"OŠ '9. maj' Hadžići-Pazarić","Elementary","Bjelašnička 59","FBiH","KS","","43.78887144","18.15194607","38733417527","","http://www.os9majpa.edu.ba"
"OŠ 'Al-Walidein-Gazzaz'","Elementary","Hasiba Brankovića 2","FBiH","KS","","43.83769589","18.3501023","38733235507","","http://www.osgazzaz.edu.ba"
"OŠ 'Aleksa Šantić'","Elementary","Branislava Nušića 95","FBiH","KS","","43.83578825","18.33770513","38733456533","","http://www.osas.edu.ba"
"OŠ 'Alija Nametak'","Elementary","Zaima Šarca 15","FBiH","KS","","43.86530526","18.42203379","38733562297","","http://www.osansa.edu.ba"
"OŠ 'Avdo Smailović'","Elementary","Adema Buće 63-b","FBiH","KS","","43.86154971","18.36440384","38733619155","","http://www.osasmailovic.edu.ba"
"OŠ 'Behaudin Selmanović'","Elementary","Viteška 6, Briješće, Sarajevo","FBiH","KS","","43.85783261","18.32325339","38733780020","","http://www.osbs.edu.ba"
"OŠ 'Ćamil Sijarić'","Elementary","Braće Mulić 16","FBiH","KS","","43.83066481","18.3403337","38733544301","","http://www.oscsijaricsa.edu.ba"
"OŠ 'Čengić Vila I'","Elementary","Fetaha Bećirbegovića 2","FBiH","KS","","43.85148863","18.36882949","38733653759","","http://www.oscvila1.edu.ba"
"OŠ 'Džemaludin Čaušević'","Elementary","Prvomajska 24","FBiH","KS","","43.84479578","18.35541844","38733611651","","http://www.oscausevic.edu.ba"
"OŠ 'Edhem Mulabdić'","Elementary","Konak 1","FBiH","KS","","43.85690427","18.43124986","38733236044","","http://www.osem.edu.ba"
"OŠ 'Fatima Gunić'","Elementary","Nerkeza Smailagića 18","FBiH","KS","","43.84387497","18.34545135","38733545181","","http://www.osfg.edu.ba"
"OŠ 'Grbavica II'","Elementary","Behdžeta Mutevelića bb","FBiH","KS","","43.84978647","18.38928938","38733642642","","http://www.osgrbavica2.edu.ba"
"OŠ 'Grbavica I'","Elementary","Grbavička 14","FBiH","KS","","43.85241706","18.39707851","38733661278","","http://osgrbavica1.edu.ba"
"OŠ 'Hamdija Kreševljaković'","Elementary","Carina 2","FBiH","KS","","43.86221498","18.44324469","38733272720","","http://www.oshk.edu.ba"
"OŠ 'Hasan Kaimija'","Elementary","Cicin han 93","FBiH","KS","","43.84912107","18.41786027","38733559906","","http://www.oshkaimija.edu.ba"
"OŠ 'Hasan Kikić'","Elementary","Gorica 27","FBiH","KS","","43.86076067","18.41036618","38733445137","","http://www.oshkikic.edu.ba"
"OŠ 'Hašim Spahić' Ilijaš","Elementary","Krajiška bb","FBiH","KS","","43.96020212","18.2681179","38733400996","","http://www.oshs.edu.ba"
"OŠ 'Hilmi ef. Šarić' Hadžići-Tarčin","Elementary","Bratstva i jedinstva 38","FBiH","KS","","43.79309236","18.09267998","38733428395","","http://www.oshilmi.edu.ba"
"OŠ 'Hrasno'","Elementary","Porodice Ribar 2","FBiH","KS","","43.84994896","18.38244438","38733647451","","http://www.oshrasno.edu.ba"
"OŠ 'Isa-beg Ishaković'","Elementary","Kemala Kapetanovića 43","FBiH","KS","","43.85057566","18.38854909","38733652231","","http://www.isabeg.edu.ba"
"OŠ 'Isak Samokovlija'","Elementary","Fra Anđela Zvizdovića 1","FBiH","KS","","43.85782101","18.40625703","38733212499","","http://www.osis.edu.ba"
"OŠ 'Izet Šabić' Hotonj - Vogošća","Elementary","Donji Hotonj bb","FBiH","KS","","43.89844902","18.37167263","38733481090","","http://www.osizetsabic.edu.ba"
"OŠ 'Kovačići'","Elementary","Zagrebačka 22a","FBiH","KS","","43.8513571","18.39882731","38733615878","","http://www.oskovacici.edu.ba"
"OŠ 'Malta'","Elementary","Marka Marulića 27","FBiH","KS","","43.85504753","18.37939739","38733613502","","http://www.osmalta.edu.ba"
"OŠ 'Mehmed beg Kapetanović Ljubušak'","Elementary","Braće Begić 19","FBiH","KS","","43.86748654","18.40596199","38733220491","","http://www.osmbklj.edu.ba"
"OŠ 'Mehmedalija Mak Dizdar'","Elementary","Žrtava fašizma 14","FBiH","KS","","43.8465445","18.36530507","38733644897","","http://www.osmmdsa.edu.ba"
"OŠ 'Meša Selimović'","Elementary","Geteova 16","FBiH","KS","","43.84446305","18.35139513","38733543113","","http://www.osmssa.edu.ba"
"OŠ 'Mirsad Prnjavorac' - Vogošća","Elementary","Jošanićka 51","FBiH","KS","","43.90011886","18.34326267","38733430910","","http://www.osmp.edu.ba"
"OŠ 'Mula Mustafa Bašeskija'","Elementary","Logavina 52","FBiH","KS","","43.86263656","18.42804193","38733238151","","http://www.osmmbsa.edu.ba"
"OŠ 'Musa Ćazim Ćatić'","Elementary","Čekaluša 53","FBiH","KS","","43.86345652","18.41543555","38733216567","","http://www.osmccsa.edu.ba"
"OŠ 'Mustafa Busuladžić'","Elementary","Ahatovićka 41","FBiH","KS","","43.88137679","18.28667879","38733629574","","http://www.osdobrosevici.edu.ba"
"OŠ 'Nafija Sarajlić'","Elementary","Patriotske lige 57","FBiH","KS","","43.87377855","18.41244757","38733209232","","http://www.osnsarajlic.edu.ba"
"OŠ 'Osman Nakaš'","Elementary","Gradačačka 39","FBiH","KS","","43.84860267","18.3716619","38733641287","","http://www.osonakas.edu.ba"
"OŠ 'Osman Nuri Hadžić'","Elementary","Lava Tolstoja 6","FBiH","KS","","43.82495266","18.3541739","38733460362","","http://www.osonh.edu.ba"
"OŠ 'Podlugovi' Ilijaš","Elementary","Žrtava genocida u Srebrenici 212","FBiH","KS","","43.9690673","18.25951338","38733401017","","http://www.ospodlugovi.edu.ba"
"OŠ 'Pofalići'","Elementary","Ivanjska 1","FBiH","KS","","43.85965831","18.38947177","38733644163","","http://www.ospofalici.edu.ba"
"OŠ 'Porodice ef. Ramić' - Vogošća","Elementary","Nova cesta 62","FBiH","KS","","43.92016109","18.31919789","38733430993","","http://www.osramic.edu.ba"
"OŠ 'Saburina'","Elementary","Saburina 4","FBiH","KS","","43.86371566","18.43593836","38733538340","","http://www.ossaburina.edu.ba"
"OŠ 'Safvet beg Bašagić'","Elementary","Gimnazijska 1","FBiH","KS","","43.85686172","18.42371285","38733205923","","http://www.ossbb.edu.ba"
"OŠ 'šejh Muhamed ef. Hadžijamaković'","Elementary","Iza Hrida 11","FBiH","KS","","43.85373618","18.43701124","38733532324","","http://www.ossmeh.edu.ba"
"OŠ 'Skender Kulenović'","Elementary","Bulevar Mimar Sinana bb","FBiH","KS","","43.82782428","18.34634185","38733451600","","http://www.os-sk.edu.ba"
"OŠ 'Sokolje'","Elementary","Numan paše Ćuprilića do 17","FBiH","KS","","43.86620254","18.3164835","38733765540","","http://www.ossokolje.edu.ba"
"OŠ 'Srednje' Ilijaš","Elementary","Srednje bb","FBiH","KS","","44.00902137","18.43626022","38733489047","","http://www.ossrednje.edu.ba"
"OŠ 'Umihana Čuvidina'","Elementary","Smaje Šikala 1","FBiH","KS","","43.85247122","18.3445394","38733541009","","http://www.osuc.edu.ba"
"OŠ 'Velešićki heroji'","Elementary","Velešići 2","FBiH","KS","","43.86809373","18.39685857","38733214598","","http://www.osvh.edu.ba"
"OŠ 'Vladislav Skarić'","Elementary","Terezija 48","FBiH","KS","","43.85330679","18.40929866","38733212031","","http://www.osvs.edu.ba"
"OŠ 'Vrhbosna'","Elementary","Baruthana 60","FBiH","KS","","43.87716984","18.46026063","38733240100","","http://www.osvrhbosna.edu.ba"
"OŠ 'Zahid Baručija' - Vogošća","Elementary","Omladinska 14","FBiH","KS","","43.8982944","18.34886312","38733432650","","http://www.oszb.edu.ba"
"OŠ 'Zaim Kolar' - Trnovo","Elementary","Dejčići","FBiH","KS","","43.68646737","18.34131539","38733438001","","http://www.oszk.edu.ba"
"OŠ 'Zajko Delić' - Vogošća","Elementary","Slatinski put 3","FBiH","KS","","43.88432303","18.38522315","38733426830","","http://www.oszd.edu.ba"
"Osma osnovna škola 'Amer Ćenanović' - Ilidža","Elementary","Ilirska 2","FBiH","KS","","43.8229169","18.32060337","38733771316","","http://www.osmaosnovnail.edu.ba"
"Osnovna muzička i baletska škola - Novo Sarajevo","Elementary","Kemala Kapetanovića 43","FBiH","KS","","43.85031647","18.38864565","38733651523","","http://www.osmbaletska.edu.ba"
"Osnovna muzička škola  - Ilidža","Elementary","Josipa Slavenskog 24","FBiH","KS","Ilidza","43.83443391","18.30635548","38733623400","","http://www.muzickail.edu.ba"
"Osnovna muzička škola 'Mladen Pozajić'","Elementary","Josipa Štadlera 1","FBiH","KS","","43.8603236","18.42482328","38733212410","","http://www.omsmp.edu.ba"
"Osnovna škola 'Maarif'","Elementary","","FBiH","KS","","43.83717741","18.34920641","38762271004","","http://www.maarifschools.edu.ba"
"OŠ 'Silvije Strahimir Kranjčević'","Elementary","Mehmed paše Sokolovića 2","FBiH","KS","","43.8608651","18.4214437","38733219825","","http://www.ossskranjcevic.edu.ba"
"Peta osnovna škola - Ilidža","Elementary","Umihane Čuvidine 58","FBiH","KS","Ilidza","43.81097958","18.31111908","38733515177","","http://www.ospeta.edu.ba"
"Privatna osnovna škola 'Bloom'","Elementary","Nalina 16, Stari Grad Sarajevo","FBiH","KS","","43.85307856","18.44050884","38733207899","","http://www.bloom.edu.ba"
"Prva osnovna škola - Ilidža","Elementary","Mala aleja 15","FBiH","KS","Ilidza","43.81310091","18.28748345","38733639575","","http://www.osprvail.edu.ba"
"Quality Schools International - International School of Sarajevo (QSIS Sarajevo)","Elementary","Omladinska 16","FBiH","KS","","43.89812432","18.34923863","38733424450","",""
"Sedma osnovna škola - Ilidža","Elementary","Blažuj 118","FBiH","KS","Ilidza","43.84795273","18.24521184","38733761630","","http://www.sedma-osnovna.edu.ba"
"Šesta osnovna škola  - Ilidža","Elementary","Barska bb","FBiH","KS","Ilidza","43.84762002","18.30562591","38733623405","","http://www.ossesta.edu.ba"
"Treća osnovna škola - Ilidža","Elementary","Nasihe Kapidžić Hadžić 1","FBiH","KS","Ilidza","43.83376834","18.30261111","38733638479","","http://www.trecaosnovna.edu.ba"
"Zavod  'Mjedenica'","Elementary","Mjedenica 34","FBiH","KS","","43.8554537","18.42464089","38733207963","","http://www.zamjed.edu.ba"
"OŠ 'Musa Ćazim Ćatić'","Elementary","Školska ulica 23","FBiH","ZDK","Zenica","44.2040385","17.9067343","38732401106","",""
"Mak Dizdar","Elementary","Čurukovića put 17","FBiH","ZDK","Zenica","44.2033958","17.9190767","38732460348","",""
"OŠ 'Meša Selimović'","Elementary","","FBiH","ZDK","Zenica","44.1969917","17.9111923","38732408020","",""
"Arnauti","Elementary","","FBiH","ZDK","Zenica","44.2011076","18.0509696","38732439021","",""
"Vladimir Nazor","Elementary","Sarajevska 20","FBiH","ZDK","Zenica","44.195959","17.9084459","38732445210","",""
"Miroslav Krleža","Elementary","Travnička cesta 8","FBiH","ZDK","Zenica","44.2008083","17.9003569","38732401536","","http://www.osmkze.com.ba/"
"Hasan Kikić - Tetovo","Elementary","Tetovska 391","FBiH","ZDK","Zenica","44.2321035","17.8882179","38732460585","",""
"Skender Kulenović","Elementary","Profesora M. Čauševića 1","FBiH","ZDK","Zenica","44.1952676","17.9319063","38732426920","",""
"Alija Nametak - Pehare","Elementary","Rišićki put","FBiH","ZDK","Zenica","44.221499","17.91374","38732456156","",""
"Enver Čolaković - Janjići","Elementary","Sarajevska 210","FBiH","ZDK","Zenica","44.158187","17.961556","38732453004","",""
"Hamza Humo - Babino","Elementary","Babino","FBiH","ZDK","Zenica","44.235599","18.008291","38732436126","",""
"Ćamil Sijarić - Nemila","Elementary","Doglodska 7","FBiH","ZDK","Zenica","44.332822","17.912249","38732465001","","http://oscsijaricsa.edu.ba/"
"Aleksa Šantić - Perin Han","Elementary","Bistua Nuova 213","FBiH","ZDK","Zenica","44.185641","17.96769","38732465035","",""
"Ahmed Muradbegović - Stranjani","Elementary","Stranjani bb","FBiH","ZDK","Zenica","44.230329","17.848248","38732434042","",""
"Osnovna muzička škola","Elementary","Školska 17","FBiH","ZDK","Zenica","44.203211","17.905116","38732242307","",""
"Osnovna specijalna škola","Elementary","M. Tarabara 10","FBiH","ZDK","Zenica","44.200381","17.907568","38732407985","",""
"Hamdija Kresevljaković","Elementary","Ulica šehida b.b.","FBiH","ZDK","Kakanj","44.123473","18.114953","38732552860","",""
"Rešad Kadić - Brnjić","Elementary","Brnjić","FBiH","ZDK","Kakanj","44.22844","18.104922","","",""
"Ahmed Muradbegović","Elementary","","FBiH","ZDK","Kakanj","44.23041","17.848149","38732434042","",""
"Mula Mustafa Bašeskija","Elementary","Rudarska 19","FBiH","ZDK","Kakanj","44.135864","18.125003","38732557440","",""
"Omer Music - Ricice","Elementary","Podbjelavići","FBiH","ZDK","Kakanj","44.10133","18.150561","38732777118","",""
"15. April","Elementary","29. Novembra","FBiH","ZDK","Kakanj","44.114436","18.108726","38732775443","",""
"Alija Nametak","Elementary","A.Bešlagića b.b.","FBiH","ZDK","Žepče","44.351857","17.991515","38732894291","",""
"Abdulvehab Ilhamija","Elementary","Zeljzno Polje","FBiH","ZDK","Žepče","44.405195","17.933023","38762670377","",""
"Žepče","Elementary","Stjepana Radica","FBiH","ZDK","Žepče","44.424381","18.03866","38762881724","",""
"Glazbena škola Katarina Kosača Kotromanić","Elementary","Zagrebačka","FBiH","ZDK","Žepče","44.426074","18.032024","38732880453","",""
"Prva osnovna škola - Zavidovići","Elementary","Safvet-bega Bašagića bb","FBiH","ZDK","Zavidovići","44.437833","18.145461","38732878808","",""
"Druga osnovna škola - Zavidovići","Elementary","8. Marta","FBiH","ZDK","Zavidovići","44.445782","18.143168","38732877728","",""
"Osnovna škola Kovači","Elementary","Kovači","FBiH","ZDK","Zavidovići","44.4422","18.212264","38732871425","",""
"Vozuća-Ribnica","Elementary","Vozuća bb","FBiH","ZDK","Zavidovići","44.379515","18.361034","38732856375","","https://www.osvozuca.edu.ba/"
"Hajdarevići","Elementary","Hajdarevići bb","FBiH","ZDK","Zavidovići","44.469738","18.250745","38732465076","pkonak@bih.net.ba",""
"OŠ 'Gostović'","Elementary","Gostović bb","FBiH","ZDK","Zavidovići","44.418087","18.16544","38732465114","osgostovic@bih.net.ba",""
"Maglaj","Elementary","Aleja Ljiljana 11","FBiH","ZDK","Maglaj","44.54442","18.09808","38732603465","",""
"Prva osnovna škola","Elementary","Aleja Ljiljana 46","FBiH","ZDK","Maglaj","44.552342","18.100586","38732603386","","prvaosmaglaj.com.ba"
"Novi šeher","Elementary","Novi Šeher bb","FBiH","ZDK","Maglaj","44.51285","18.025988","38732611803","",""
"Osnovna škola Mustafa Mulić","Elementary","Šije","FBiH","ZDK","Tešanj","44.661939","18.070627","38732694004","",""
"Abdulvehab Ilhamija","Elementary","Kalošević","FBiH","ZDK","Tešanj","44.646225","17.905839","38732664178","","http://osaik.com.ba"
"Gazi Ferhat-beg","Elementary","Jablanica","FBiH","ZDK","Tešanj","44.58722","18.022431","38732651087","",""
"9. Septembar","Elementary","Medakovo","FBiH","ZDK","Tešanj","44.637972","18.015077","38732662094","",""
"Rešad Kadić","Elementary","Novo naselje","FBiH","ZDK","Tešanj","44.620045","17.986338","38732650274","",""
"1. Mart","Elementary","Jelah","FBiH","ZDK","Tešanj","44.654262","17.962843","38732663210","",""
"Kulin Ban","Elementary","Tešanjka","FBiH","ZDK","Tešanj","44.672561","18.011593","38732662034","",""
"Džemal Bijedić","Elementary","Miljanovci","FBiH","ZDK","Tešanj","44.686158","17.929884","38732668888","",""
"Huso Hodžić","Elementary","Braće Pobrić","FBiH","ZDK","Tešanj","44.608966","17.987963","38732656290","",""
"21. Mart","Elementary","Trg 21. marta 12","FBiH","ZDK","Doboj Jug","44.69649","18.048945","38732691909","os21mart@bih.net.ba",""
"Safvet-beg Bašagić","Elementary","Donja Mahala 42","FBiH","ZDK","Visoko","43.990358","18.177246","38732738423","",""
"Kulin Ban","Elementary","Gornje Rosulje 1","FBiH","ZDK","Visoko","43.988052","18.176903","38732731050","",""
"Mula Mustafa Bašeskija","Elementary","Donje Moštre","FBiH","ZDK","Visoko","44.02354","18.131581","38732740987","",""
"Musa Ćazim Ćatić","Elementary","Veliko Čajno","FBiH","ZDK","Visoko","44.024401","18.201443","38732745815","",""
"Mehmedalija Mak Dzidar","Elementary","Dobrinje","FBiH","ZDK","Visoko","44.049924","18.112573","38732748008","",""
"Avdo Smajlović","Elementary","Islamovića 6","FBiH","ZDK","Visoko","43.990383","18.177623","38732738790","",""
"Alija Nametak","Elementary","Buci 74","FBiH","ZDK","Visoko","43.961375","18.182033","38732720147","",""
"Safvet-beg Bašagić","Elementary","Branilaca grada b.b.","FBiH","ZDK","Breza","44.010181","18.255998","38732789030","",""
"Enver Čolaković","Elementary","Šehidska broj 32","FBiH","ZDK","Breza","44.022596","18.265688","38732789350","",""
"Vareš","Elementary","Put mira 37","FBiH","ZDK","Vareš","44.161919","18.325906","38732849250","","http://www.os-vares.com.ba/"
"Vareš Majdan","Elementary","Perunska 24","FBiH","ZDK","Vareš","44.137344","18.316105","38732843018","",""
"Olovo","Elementary","Školska b.b.","FBiH","ZDK","Olovo","44.129766","18.582563","38732825163","ossaudb@bih.net.ba",""
"Hasan Kikić","Elementary","Solun","FBiH","ZDK","Olovo","44.167008","18.543115","38732827002","ossaudb@bih.net.ba",""
"Ivan fra Frano Jukić","Elementary","","FBiH","ZDK","Usora","44.70012","17.976879","38732895272","",""
"Mustafa Ejubović - šejh Jujo","Elementary","Šehovina bb","FBiH","HNK","Mostar","43.332659","17.823106","38736576765","","https://modos.ba/"
"IV osnovna škola","Elementary","Salke Šestića 23","FBiH","HNK","Mostar","43.343524","17.815535","38736551463","ivosnovnamo@yahoo.com",""
"VI osnovna škola","Elementary","A. Šantića 10","FBiH","HNK","Mostar","43.344907","17.809512","38736580288","",""
"O.Š. Mujaga Komadina","Elementary","Gojka Vukovića 9","FBiH","HNK","Mostar","43.334056","17.815334","38736578217","",""
"Centar za dje. i omla.sa pos.potr.Los Rosales","Elementary","Južni logor","FBiH","HNK","Mostar","43.32435","17.823066","38736556581","","http://www.los-rosales.com/"
"Osnovna škola Blagaj","Elementary","Blagaj bb","FBiH","HNK","","43.258782","17.88797","38736572479","",""
"Osnovna škola Gnojnice","Elementary","Gnojnice bb","FBiH","HNK","","43.302486","17.844604","38736584598","",""
"O.Š. Omer Maksumić Podveležje","Elementary","Podveležje bb","FBiH","HNK","","43.308737","17.91155","38736560291","",""
"Osnovna škola Zalik","Elementary","Sjeverni logor bb","FBiH","HNK","","43.357502","17.812034","38736571113","","http://oszalik.com.ba/"
"Osnovna škola Vrapčići","Elementary","Vrapčići bb","FBiH","HNK","","43.373499","17.850007","38736582162","",""
"O.Š. Bijelo Polje - Potoci","Elementary","Potoci bb","FBiH","HNK","","43.401493","17.888932","38736556841","",""
"Osnovna škola Drešnica","Elementary","Drešnica bb","FBiH","HNK","","43.525465","17.715817","38736586235","",""
"O.Š. Suljo Čilić","Elementary","Bokulja 28","FBiH","HNK","","43.662493","17.756499","38736752801","","http://www.suljocilic.com.ba/"
"O.Š. Alija Isaković - Prozor","Elementary","Prozor bb","FBiH","HNK","","43.820266","17.611894","38736770513","",""
"Prva osnovna škola - Konjic","Elementary","3. Mart","FBiH","HNK","Konjic","43.654491","17.954709","38736734031","",""
"Druga osnovna škola - Konjic","Elementary","Musala bb","FBiH","HNK","Konjic","43.650867","17.964467","38736726192","",""
"Osnovna škola Čelebići - Konjic","Elementary","Čelebići bb","FBiH","HNK","Konjic","43.684325","17.897218","38736721464","",""
"Osnovna škola Parsovići","Elementary","Parsovići bb Polje","FBiH","HNK","Konjic","43.770805","17.813957","38736741197","",""
"Osnovna škola Šćipe","Elementary","Šćipe bb","FBiH","HNK","","43.82441","17.743661","38736285106","",""
"Osnovna škola Seonica - Konjic","Elementary","Seonica bb Polje","FBiH","HNK","Konjic","43.738777","17.84135","38736742457","",""
"Osnovna škola Glavatičevo","Elementary","Glavatičevo bb","FBiH","HNK","Konjic","43.503452","18.104726","38736739044","",""
"Osnovna škola Čapljina","Elementary","Petra Krešimira IV","FBiH","HNK","","43.111055","17.701448","38736806275","",""
"Prva osnovna škola Stolac","Elementary","Stolac bb","FBiH","HNK","","43.083377","17.959429","38736854006","",""
"Međunarodna osnovna škola Mostar","Elementary","Zalik bb","FBiH","HNK","","43.358586","17.814563","38736833410","",""
"O.Š. Antuna Branka Šimića","Elementary","Kraljice Katarine 38","FBiH","HNK","","43.337996","17.801907","38736330552","",""
"III Osnovna škola","Elementary","Trg hrvatskih velikana bb","FBiH","HNK","Mostar","43.342735","17.802143","38736318451","",""
"O.Š. Ilići","Elementary","Ilići bb","FBiH","HNK","Mostar","43.3448","17.775588","38736330732","",""
"O.Š. Ivana Gundulića","Elementary","Rudarska 87","FBiH","HNK","Mostar","43.353912","17.799376","38736347196","",""
"O.Š. Silvije S. Kranjčevića","Elementary","Bleiburških žrtava 35","FBiH","HNK","Mostar","43.34965","17.791783","38736311160","",""
"O.Š. Cim","Elementary","Treće cimske bojne","FBiH","HNK","Mostar","43.35098","17.782768","38736341712","",""
"O.š Petra Bakule","Elementary","Kralja Tomislava 9","FBiH","HNK","Mostar","43.347957","17.799453","38736328675","",""
"O.Š. Ilije Jakovljevića","Elementary","Ante Starčevića bb","FBiH","HNK","Mostar","43.352497","17.803746","38736324919","",""
"O.Š. za djecu s posebnim potrebama","Elementary","Nikole Šubića Zrinjskog bb","FBiH","HNK","Mostar","","","38736313250","",""
"O.Š. Bartola Kašića Rodoč","Elementary","Rude Hrozničeka 46","FBiH","HNK","Mostar","43.316412","17.816866","38736350128","",""
"O.Š. Marina Držića","Elementary","Buna bb","FBiH","HNK","Mostar","","","38736480510","",""
"O.Š. Kruševo","Elementary","Kruševo bb","FBiH","HNK","Mostar","43.285679","17.753615","38736486380","",""
"O.Š. fra Didaka Buntića","Elementary","Čitluk bb","FBiH","HNK","","43.227897","17.698069","38736642086","",""
"O.Š. Čerin Čitluk","Elementary","Čerin bb","FBiH","HNK","","43.269807","17.636775","38736652554","",""
"O.Š. Bijakovići","Elementary","Bijakovići bb","FBiH","HNK","","43.190858","17.680488","38736651102","",""
"O.Š. Vladimira Pavlovića","Elementary","Čapljina bb","FBiH","HNK","","43.113285","17.702626","38736805091","",""
"O.Š. Lipanjske zore","Elementary","Višići bb","FBiH","HNK","","43.064885","17.710916","38736814066","",""
"Osnovna škola Stolac","Elementary","Stolac bb","FBiH","HNK","","43.083376","17.959411","38736853443","",""
"Osnovna škola Crnići","Elementary","Crnići bb","FBiH","HNK","","43.126174","17.857986","38736862235","",""
"Osnovna škola Ravno","Elementary","Ravno bb","FBiH","HNK","","42.887737","17.963443","38736891525","",""
"O.Š. Kardinala Stepinca","Elementary","Neum bb","FBiH","HNK","","42.929304","17.616859","38736880017","",""
"O.Š. Marka Marulića","Elementary","Kralja Tomislava bb","FBiH","HNK","Prozor-Rama","43.821866","17.607904","38736770070","",""
"O.Š. fra Jeronima","Elementary","Ripci bb","FBiH","HNK","Prozor-Rama","","","38736780675","",""
"O.Š. Ivana Mažuranića","Elementary","Gračac bb","FBiH","HNK","","43.728065","17.680841","38736784012","",""
"O.Š. Veselka Tenžere Uzdol","Elementary","Uzdol bb","FBiH","HNK","","","","38736783004","",""
"Glazbena škola Brotnjo - Čitluk","Elementary","S.S.Kranjčevića 2","FBiH","HNK","","43.227554","17.697559","38736644687","",""
"OŠ Harmani 1","Elementary","Harmanski Sokak 3","FBiH","USK","","44.813877","15.867208","38737223292","os.harmani1@bih.net.ba",""
"OŠ Harmani 2","Elementary","Ešrefa Kovačevića bb","FBiH","USK","","44.811716","15.865522","38737220198","harmani_2@hotmail.com",""
"OŠ Prekounje","Elementary","Safvet-bega Bašagića 26","FBiH","USK","","44.817292","15.876488","38737311030","skola_prekounje@hotmail.com",""
"OŠ Gornje Prekounje Ripač","Elementary","Vejzovac bb","FBiH","USK","","44.813933","15.883303","38737319231","os.gornjep@hotmail.com",""
"OŠ Kamenica","Elementary","Mula Mustafe Bašeskije bb","FBiH","USK","","44.843671","15.829912","38737388142","os.kamenica@gmail.com",""
"OŠ Gata Ilidža-Vrsta","Elementary","Gata, Bihać","FBiH","USK","Bihać","44.931559","15.810354","38737370310","skolagata.gata@gmail.com",""
"OŠ Brekovica","Elementary","Brekovica bb","FBiH","USK","","44.880411","15.885134","38737302131","os.brekovica@bih.net.ba",""
"OŠ Kulen Vakuf - Orašac","Elementary","Trg žrtava 12. juni","FBiH","USK","","44.627411","16.070285","38737365651","os.kulenvakuf.orasac@bih.net.ba",""
"KšC 'Ivan Pavao II'","Elementary","Ceravci bb","FBiH","USK","","44.816814","15.850486","38737350850","ksc-bihac@net.hr",""
"Medjunarodna osnovna škola 'Richmond Park International Primary school'","Elementary","Safvet-bega Bašagića","FBiH","USK","Bihać","44.818598","15.877278","38737312902","bihac@rps.edu.ba",""
"Prva osnovna škola","Elementary","Trg Avde Ćuka 36","FBiH","USK","Bosanska Krupa","44.882873","16.158731","38737471107","prvaosnovna_bk@yahoo.com",""
"Druga osnovna škola","Elementary","Zahum bb","FBiH","USK","","44.885751","16.160608","38737472066","druga_osnovna_skola@hotmail.com",""
"OŠ 'Jezerski'","Elementary","Jezerski bb","FBiH","USK","","44.976092","16.09199","38737481063","osjezerski@hotmail.com",""
"OŠ Otoka","Elementary","Otoških heroja bb","FBiH","USK","","44.962609","16.181094","38737477003","juotoka@bih.net.ba",""
"OŠ Ahmet Hromadžić","Elementary","V Korpusa bb","FBiH","USK","","44.552688","16.368356","38737881047","skola.bp@bih.net.bos.buzim@bih.net.ba",""
"OŠ Bužim","Elementary","Generala Izeta Nanića 35","FBiH","USK","","45.063648","16.028758","38737410114","os.buzim@bih.net.ba",""
"OŠ Konjodor","Elementary","Konjodor bb","FBiH","USK","","45.005641","16.0289","38737425089","os_konjodor@hotmail.com",""
"OŠ Mirsad Salkić","Elementary","Čava bb","FBiH","USK","Bužim","45.027206","16.092354","38737423265","osmirsad.salkic@gmail.com","https://oscava.com/"
"OŠ Cazin I","Elementary","Hasana Mujezinovića","FBiH","USK","","44.96396","15.937528","38737514221","osnovna.skola.cazin.1@gmail.com",""
"OŠ Cazin II","Elementary","Ćuprija bb","FBiH","USK","","44.967161","15.925122","38737539032","oscazin2@gmail.com",""
"OŠ Ćoralići","Elementary","Ćoralići bb","FBiH","USK","","44.982997","15.883709","38737536598","juoscoralici@gmail.com",""
"OŠ Gornja Koprivna","Elementary","Gornja Koprivna bb","FBiH","USK","","45.01093","15.954915","38737550673","os.gornjakoprivna@bih.net.ba",""
"OŠ Liskovac","Elementary","Liskovac bb Pećigrad","FBiH","USK","","45.04447","15.846904","38737551008","mirsada.beganovic@hotmail.com",""
"OŠ Ostrožac","Elementary","Ostrožac bb","FBiH","USK","","44.908346","15.93171","38737531159","juosostrozac@hotmail.com",""
"OŠ Pećigrad","Elementary","Pećigrad bb","FBiH","USK","","45.053939","15.89726","38737540204","ospecigrad@hotmail.com",""
"OŠ Skokovi","Elementary","Skokovi bb","FBiH","USK","","45.029848","15.915172","38737547302","os.skokovi@gmail.com",""
"OŠ Stijena","Elementary","Stijena bb","FBiH","USK","","44.943729","16.020051","38737543536","osstijena@hotmail.com",""
"OŠ Šturlić","Elementary","Šturlić bb","FBiH","USK","","45.058561","15.782533","38737555002","os.sturlic@gmail.com",""
"OŠ Tržačka Raštela","Elementary","Tržačka Raštela bb","FBiH","USK","","44.975897","15.78447","38737520033","juosrastela1@hotmail.com",""
"OŠ Ključ","Elementary","Kulina bana bb","FBiH","USK","","44.53332","16.77713","38737660127","os.kljuc@bih.net.ba",""
"OŠ Velagić","Elementary","Velagići bb","FBiH","USK","","44.559153","16.723689","38737647712","ju.os.velagici@gmail.com",""
"OŠ Sanica","Elementary","Sanica","FBiH","USK","","44.615467","16.642678","38737671008","skola.sanica@hotmail.com",""
"Prva osnovna škola","Elementary","Ibrahima Mršljaka 27","FBiH","USK","","45.185166","15.80441","38737773811","prvaosnovnaskola.vk@gmail.com",""
"OŠ 25. Novembar","Elementary","Bihaćkih brigada 7","FBiH","USK","","45.183053","15.811749","38737770208","os.25.novembar@bih.net.ba",""
"OŠ Crvarevac","Elementary","Crvarevac, Zborište bb","FBiH","USK","","45.128627","15.992269","38737725632","juos.crvarevac@yahoo.se",""
"OŠ Donja Vidovska","Elementary","Donja Vidovska","FBiH","USK","","45.128313","15.815685","38737723331","os.donjavidovska@hotmail.com",""
"OŠ Sead Ćehić","Elementary","Grahovo, Mala Kladuša","FBiH","USK","Velika Kladuša","45.141381","15.842332","38737720504","osseadcehic@hotmail.com",""
"OŠ Podzvizd","Elementary","Podzvizd bb","FBiH","USK","","45.18082","15.873527","38737718923","podzvizd@bih.net.ba",""
"OŠ Fadil Bilal","Elementary","Šumatac bb","FBiH","USK","Velika Kladuša","45.097419","15.858521","38737713448","os.fadilbilal@bih.net.ba",""
"OŠ Todorovska Slapnica","Elementary","Todorovska slapnica bb","FBiH","USK","","45.129923","15.909253","38737728388","os.todslapnica@bih.net.ba",""
"OŠ Todorovo","Elementary","Todorovo bb","FBiH","USK","","45.084282","15.92986","38737716858","os_todorovo@hotmail.com",""
"OŠ 1. Mart","Elementary","Vrnograč bb","FBiH","USK","","45.16342","15.954978","38737710481","os1mart.vrnograc@gmail.com",""
"OŠ 5. Oktobar","Elementary","Naselje 17, Viteške bb","FBiH","USK","","44.768872","16.655601","38737686172","oss.5.oktobar@bih.net.ba",""
"OŠ Hasan Kikić","Elementary","Ključka 23","FBiH","USK","Sanski Most","44.763475","16.668178","38737685271","hasankikic_sa@hotmail.com",""
"OŠ Prva sanska škola","Elementary","Banjalučka bb","FBiH","USK","","44.768522","16.673879","38737689437","os.prvasanskaskola@hotmail.com",""
"OŠ Mahala","Elementary","Hamzibegova mahala bb","FBiH","USK","","44.75623","16.668927","38737681989","os.mahala@gmail.com",""
"OŠ Skender Kulenović","Elementary","Donji kamengrad bb","FBiH","USK","","44.787172","16.574918","38737695040","skulenovic@live.com",""
"OŠ Fajtovci","Elementary","Fajtovci","FBiH","USK","","44.79045","16.51349","38737698404","sekretar@osfajtovci.com",""
"OŠ Vrhpolje","Elementary","Vrhpolje bb","FBiH","USK","","44.685326","16.735685","38737692809","vrhpolje.skola@gmail.com",""
"Osnovna muzička škola 'Avdo Smailović'","Elementary","Seada Sofovića Sofe bb","FBiH","BPK","","43.667971","18.97571","38738222422","muzicka.gorazde@gmail.com",""
"Osnovna škola 'Prača'","Elementary","Trg Kemala Keme Hrve 1","FBiH","BPK","","43.76259","18.763757","38738799104","juospraca@bih.net.ba",""
"Osnovna škola 'Hasan Turčalo Brzi'","Elementary","Omladinska 1","FBiH","BPK","","43.639995","18.816293","3873824022","osbrzi@bih.net.ba",""
"Osnovna škola 'Fahrudin Fahro Baščelija'","Elementary","","FBiH","BPK","Goražde","43.664339","18.972435","38738240750","juosffb@bih.net.ba",""
"Osnovna škola 'Husein ef. Đozo'","Elementary","Seada Sofovića Sofe 4","FBiH","BPK","Goražde","43.668007","18.975281","38738221215","oshed@bih.net.ba","http://oshed.com.ba/"
"Osnovna škola 'Mehmedalija Mak Dizdar'","Elementary","","FBiH","BPK","","43.626841","18.958362","38738230553","mak000@bih.net.ba",""
"Osnovna škola 'Mehmedalija Mak Dizdar'","Elementary","","FBiH","BPK","","43.618621","18.912935","38738230553","mak000@bih.net.ba",""
"Osnovna škola 'Ustikolina'","Elementary","","FBiH","BPK","","43.581596","18.790197","38738518139","os_ustikolina@hotmail.com",""
"Osnovna škola 'Mehmedalija Mak Dizdar'","Elementary","","FBiH","BPK","","43.665531","18.886515","38738825163","mak000@bih.net.ba",""
"Osnovna škola Marka Marulića - Ljubuški","Elementary","Zrinsko-frankopanska bb","FBiH","ZHK","","43.196112","17.543845","38739833724","os.marko.marulic.ljubuski@tel.net.ba","http://os-markamarulica.info/"
"Osnovna škola Ivane Brlić Mažuranić Ljubuški","Elementary","Gračine, Humac I","FBiH","ZHK","","43.182619","17.526955","38739831315","oshumac@tel.net.ba",""
"Osnovna škola Tina Ujevića - Vitina","Elementary","Vitina bb","FBiH","ZHK","","43.239555","17.480938","38739841651","os.vitina@tel.net.ba",""
"Osnovna škola Ante Brune Bušića - Rakitno","Elementary","Poklečani bb","FBiH","ZHK","","43.549905","17.42871","38739692410","os.abb@rakitno.net",""
"Osnovna škola Franica Dall'era - Vir","Elementary","Mečet bb","FBiH","ZHK","","43.52391","17.204688","38739691291","os.vir@tel.net.ba",""
"Osnovna škola Ivana Mažuranića- Posušje","Elementary","Šimuna Čuture 16","FBiH","ZHK","","43.472142","17.330803","38739681023","o.s.posusje@tel.net.ba",""
"Osnovna škola Ruđera Boškovića -Grude","Elementary","Ivana Alilovića bb","FBiH","ZHK","","43.3694","17.415917","38739662329","os.grude@tel.net",""
"Osnovna škola Antuna Branka i Stanislava Šimića - Drinovci","Elementary","Središte 203","FBiH","ZHK","","43.360839","17.322715","38739672520","osdrinovci@gmail.com",""
"Osnovna škola fra. Stipana Vrljića - Sovići","Elementary","","FBiH","ZHK","","43.405752","17.322056","38739670062","os.sovici@tel.net.ba",""
"Prva osnovna škola - Široki Brijeg","Elementary","Augusta Šenoe 6","FBiH","ZHK","","43.377612","17.586251","38739703359","prvaosnovnaskola.sbrijeg@gmail.com",""
"Druga osnovna škola - Široki Brijeg","Elementary","","FBiH","ZHK","","43.378375","17.604844","38739704590","druga.ossb@yahoo.com",""
"Osnovna škola Kočerin","Elementary","Kočerin bb","FBiH","ZHK","","43.389618","17.484661","38739711213","oskocerin@gmail.com","www.os-kocerin.com"
"Osnovna škola Biograci","Elementary","Biograci bb","FBiH","ZHK","","43.323011","17.674317","38739713417","os.biograci@wic.ba",""
"Osnovna škola Vranić","Elementary","Vranić bb","FBiH","ZHK","","43.42953","17.409632","38739694355","osnovnaskolavranic@gmail.com ",""
"JU OŠ Banovići","Elementary","Patriotske lige 8","FBiH","TK","Banovići","44.404569","18.525017","38735876214","os.banovici@montk.gov.ba","https://juosbanovici.weebly.com/"
"JU OŠ 'Grivice'","Elementary","Božićka Banovića 4","FBiH","TK","Banovići","44.40847","18.526421","38735871150","juos.grivice@bih.net.ba","www.grivice.com"
"JU OŠ 'Seona' Aljkovići","Elementary","Aljkovići bb","FBiH","TK","Banovići","44.43451","18.377131","38735883440","os.seona@bih.net.ba",""
"JU OŠ 'Banovići Selo'","Elementary","Banovići Selo bb","FBiH","TK","Banovići","44.405161","18.443896","38735872105","banovici.s.s@bih.net.ba","www.skola-banovici-selo.com"
"JU OŠ Treštenica","Elementary","Treštenica bb","FBiH","TK","Banovići","44.436919","18.455906","38735890445","os.trestenica@bih.net.ba",""
"JU OŠ Čelić","Elementary","Alije Izetbegovića 61","FBiH","TK","Čelić","44.721589","18.82079","38735660111","os.celic@gmail.com",""
"JU OŠ Humci","Elementary","Odreda Vjetrenik 8","FBiH","TK","Čelić","44.685577","18.698846","38735669750","kitovnica@yahoo.com",""
"JU OŠ Vražići","Elementary","Abdulaha Kovačevića 50","FBiH","TK","Čelić","44.738314","18.754755","38735663090","skola_vrazici@bih.net.ba","www.osvrazici.com.ba"
"JU OŠ Brijesnica","Elementary","Brijesnica Velika bb","FBiH","TK","Doboj - istok","44.722301","18.207595","38735723454","juosvbrijesnica@bih.net.ba","www.osbrijesnica.com.ba"
"JU OŠ Klokotnica","Elementary","Klokotnica bb","FBiH","TK","Doboj - istok","44.725784","18.187209","38735722121","skola.klokotnica@bih.net.ba","www.juosklokotnica.edu.ba"
"JU OŠ Gornja Orahovicaš","Elementary","Gornja Orahovica bb","FBiH","TK","Gračanica","44.687641","18.395285","38735710250","juos_gorahovica@yahoo.com",""
"JU Druga osnovna škola Gračanica","Elementary","Patriotske lige bb","FBiH","TK","Gračanica","44.695515","18.298807","38735708333","drugaosgracanica@bih.net.ba","www.drugaosgracanica.com.ba"
"JU OŠ Doborovci","Elementary","Doborovci bb","FBiH","TK","Gračanica","44.752376","18.396375","38735798061","juosdoborovci@bih.net.ba",""
"JU OŠ Džakule","Elementary","Džakule bb","FBiH","TK","Gračanica","44.773951","18.389486","38735719663","juosdzakule@wirac.ba",""
"JU OŠ Lukavica","Elementary","Lukavica bb","FBiH","TK","Gračanica","44.763922","18.185549","38735729106","skola000@bih.net.ba",""
"JU OŠ Malešići","Elementary","Hodžići bb","FBiH","TK","Gračanica","44.737378","18.274446","38735796061","juosmalesici@hotmail.com","www.juosmalesicicjb.net"
"JU OŠ Miričina","Elementary","Miričina bb","FBiH","TK","Gračanica","44.61949","18.405118","38735716336","juosmiricina@yahoo.com",""
"JU OŠ Orahovica","Elementary","Orahovica Donja bb","FBiH","TK","Gračanica","44.642924","18.375821","38735712144","juosdorahovica@yahoo.com",""
"JU OŠ Soko","Elementary","Soko bb","FBiH","TK","Gračanica","44.742408","18.338827","38735790282","juossoko@gmail.com",""
"JU OŠ Stjepan Polje","Elementary","Stjepan Polje bb","FBiH","TK","Gračanica","44.706715","18.250396","38735792019","osnovna.sk@bih.net.ba","www.osstjepanpolje.4t.com"
"JU OŠ Hasan Kikić","Elementary","111. gračaničke brigade 2","FBiH","TK","Gračanica","44.706367","18.311401","38735700430","has-ki@bih.net.ba","www.oshk.gracanica.net"
"JU OŠ Hasan Kikić","Elementary","Vida I bb","FBiH","TK","Gradačac","44.874386","18.407242","38735823615","oshkgra1@bih.net.ba","www.oshasankikic.com"
"JU OŠ 'Dr. Safvet-beg Bašagić'","Elementary","Žrtava Srebrenice bb","FBiH","TK","Gradačac","44.877419","18.432307","38735821250","dauf@bih.net.ba","www.sbbgra.org"
"JU OŠ Edhem Mulabdić","Elementary","Međiđa Donja bb","FBiH","TK","Gradačac","44.802607","18.411862","38735869026","skolaemc@bih.net.ba",""
"JU OŠ Hamdija Kreševljaković","Elementary","Kamberi bb Mionica","FBiH","TK","Gradačac","44.860209","18.488101","38735857243","juos.hk@gmail.com",""
"JU OŠ Ivan Goran Kovačić","Elementary","Husein-kapetana Gradaščevića 53","FBiH","TK","Gradačac","44.877829","18.422798","38735821240","senad.hecim@gmail.com","www.kovacic.com"
"JU OŠ Musa Ćazim Ćatić Zelinja Donja","Elementary","Zelinja Donja 196","FBiH","TK","Gradačac","44.827775","18.39417","38735829800","os_sk_ze@bih.net.ba","www.geocities.com/musa2001.ba"
"JU OŠ Mebmed-beg Kapetanović Ljubušak","Elementary","Srnice Donje bb","FBiH","TK","Gradačac","44.7921","18.47477","38735858004","juos.ljubusak@bih.net.ba",""
"JU OŠ Kalesija","Elementary","Patriotske lige bb","FBiH","TK","Kalesija","44.442586","18.875858","38735610080","os.kalesija@neon.ba","www.os.kalesija.com"
"JU OŠ Rainci Gornji","Elementary","Rainci Gornji bb","FBiH","TK","Kalesija","44.466504","18.815642","38735638099","osrainci@bih.net.ba","www.os-raincigornji.npage.eu"
"JU OŠ Tojšići","Elementary","Tojšići Centar bb","FBiH","TK","Kalesija","44.479957","18.787837","38735635635","juos.toj@bih.net.ba","www.ostojsici.com"
"JU OŠ Vukovije","Elementary","Gornje Vukovije bb","FBiH","TK","Kalesija","44.465915","18.765116","38735611670","osvukovije@hotmail.com",""
"JU OŠ Memići","Elementary","Memići bb","FBiH","TK","Kalesija","44.425909","18.927379","38735615218","skolamemici@gmail.com",""
"JU OŠ Kladanj","Elementary","Kladanjskih brigada 28","FBiH","TK","Kladanj","44.228546","18.696358","38735621094","kladanj@bih.net.ba","www.os-kladanj.edu.ba"
"JU OŠ Stupari","Elementary","Stupari bb","FBiH","TK","Kladanj","44.31152","18.679273","38735622400","osstupari@gmail.com",""
"JU OŠ 'Lukavac Mjesto' Lukavac","Elementary","Tuzlanskog odreda bb","FBiH","TK","Lukavac","44.540973","18.527405","38735553732","ooslukavacmjesto@hotmail.com",""
"JU OŠ 'Lukavac Grad'","Elementary","Derviša Sušića bb","FBiH","TK","Lukavac","44.531936","18.537617","38735554199","os.lukavacgrad@montk.gov.ba","www.lukavac-grad.com.ba"
"JU OŠ Gnojnica","Elementary","Gnojnica bb","FBiH","TK","Lukavac","44.61804","18.445958","38735575230","os.gnojnica@montk.gov.ba",""
"JU OŠ Poljice","Elementary","Poljice bb","FBiH","TK","Lukavac","44.479519","18.489287","38735540698","skolapoljice@gmail.com","www.poljice.ba"
"JU OŠ Prokosovići","Elementary","Prokosovići bb","FBiH","TK","Lukavac","44.514528","18.485009","38735561123","osprokosovici@yahoo.com","www.osprokosovici.info"
"JU OŠ Puračić","Elementary","Školska bb","FBiH","TK","Lukavac","44.546265","18.478248","38735562255","os.puracic.bb@gmail.com",""
"JU OŠ Dobošnica","Elementary","Donja Dobošnica bb","FBiH","TK","Lukavac","44.583926","18.447438","38735577078","os.dobos@yahoo.com",""
"JU OŠ Turija","Elementary","Turija bb","FBiH","TK","Lukavac","44.513011","18.419287","38735564087","osturija@yahoo.com",""
"JU OŠ Sapna","Elementary","206. viteške brigade bb","FBiH","TK","Sapna","44.490905","19.002049","38735599015","os.sapna@bih.net.ba","www.os.sapna.ba"
"JU Druga osnovna škola Srebrenik","Elementary","Meše Selimovića bb","FBiH","TK","Srebrenik","44.705867","18.498955","38735647091","druga.osnovna@bih.net.ba",""
"JU OŠ Duboki Potok","Elementary","Duboki Potok bb","FBiH","TK","Srebrenik","44.666876","18.502342","38735653098","os.dpotok@osdpotok.edu.ba",""
"JU OŠ Podorašje","Elementary","Podorašje bb","FBiH","TK","Srebrenik","44.637708","18.590248","38735651979","os.pod@hotmail.com",""
"JU OŠ Špionica","Elementary","Špionica bb","FBiH","TK","Srebrenik","44.756729","18.486892","38735650022","spionica27@gmail.com",""
"JU Prva osnovna škola Srebrenik","Elementary","Alije Izetbegovića 2","FBiH","TK","Srebrenik","44.705474","18.489802","38735647260","besacica@yahoo.com","www.prvaos.net"
"JU OŠ Rapatnica","Elementary","Novo naselje Luka bb","FBiH","TK","Srebrenik","44.701375","18.475391","38735696054","o.s.rapatnica@bih.net.ba",""
"JU OŠ Sladna","Elementary","Sladna bb","FBiH","TK","Srebrenik","44.728928","18.426061","38735654254","ossladna@hotmail.com",""
"JU OŠ Tinja","Elementary","Tinja bb","FBiH","TK","Srebrenik","44.637214","18.554244","38735651619","os.tinja@bih.net.ba",""
"JU OŠ Teočak","Elementary","Teočak","FBiH","TK","Teočak","44.601499","18.981005","38735755517","os.teocak@bih.net.ba","www.osteocak.com.ba"
"JU Osnovna muzička škola Tuzla","Elementary","Ludvika Kube 1","FBiH","TK","Tuzla","44.536494","18.683811","38735252005","omskola.tz@gmail.com",""
"JU OŠ Breške","Elementary","Breške bb","FBiH","TK","Tuzla","44.611165","18.653685","38735812218","osbreske@gmail.com",""
"JU OŠ Bukinje","Elementary","Vojka Milovanovića 46","FBiH","TK","Tuzla","44.522869","18.600756","38735215414","os.bukinje@gmail.com",""
"JU OŠ Husino","Elementary","27.jula 9","FBiH","TK","Tuzla","44.513768","18.614469","38735802015","nedimsivcevic@yahoo.com","www.husino.ioskole.net"
"JU OŠ Jala","Elementary","Muharema Fizovića 2","FBiH","TK","Tuzla","44.531495","18.686771","38735272598","os_jala@hotmail.com",""
"JU OŠ Kiseljak","Elementary","1. Maja 117","FBiH","TK","Tuzla","44.490267","18.569868","38735382184","oskiseljak@hotmail.com",""
"JU OŠ Kreka","Elementary","Bosne Srebrene 119","FBiH","TK","Tuzla","44.533479","18.657529","38735227047","oskreka@yahoo.com",""
"JU OŠ Lipnica","Elementary","S. Matijevića 2","FBiH","TK","Tuzla","44.570087","18.612136","38735806220","juos.lipnica@bih.net.ba",""
"JU OŠ Miladije","Elementary","Hasana Kikića 7","FBiH","TK","Tuzla","44.526031","18.641635","38735398075","os_miladije@hotmail.com","www.osmiladije.com"
"JU OŠ Mramor","Elementary","Rudarska 149, Stari Mramor","FBiH","TK","Tuzla","44.578139","18.563951","38735810414","adem_bajric@hotmail.com","www.freewebsmramoros.com"
"JU OŠ Pasci","Elementary","Par Selo bb","FBiH","TK","Tuzla","44.49461","18.668881","38735318121","muhamed_odobasic@yahoo.com",""
"JU OŠ Pazar","Elementary","Pazar 1","FBiH","TK","Tuzla","44.538888","18.669171","38735270045","os.pazar@bih.net.ba","www.ospazar.edu.ba"
"JU OŠ Simin Han","Elementary","Sarajac 4","FBiH","TK","Tuzla","44.52449","18.743863","38735312921","senadap@multicom.ba","www.multicom.ba/siminhan"
"JU OŠ Slavinovići","Elementary","Žarka Vukovića Pucara 15","FBiH","TK","Tuzla","44.529701","18.717841","38735225765","osslavin@yahoo.com",""
"JU OŠ Solina","Elementary","Veljka Lukića Kurjaka 167","FBiH","TK","Tuzla","44.567866","18.693296","38735269424","skola.solina@bih.net.ba",""
"JU OŠ Tušanj","Elementary","4. Jula 29","FBiH","TK","Tuzla","44.543089","18.66214","38735311051","tusanj@hotmail.com","www.os-tusanj.tk"
"JU OŠ Brčanska Malta","Elementary","Miroslava Krleže 27","FBiH","TK","Tuzla","44.538628","18.695868","38735362990","b.malta@bih.net.ba",""
"JU OŠ Centar","Elementary","Mirze Delibašića 14","FBiH","TK","Tuzla","44.536277","18.683784","38735275120","oscentar@bih.net.ba",""
"JU OŠ Gornja Tuzla","Elementary","Abdurahmana Saračevića 163","FBiH","TK","Tuzla","44.556716","18.761571","38735391003","osgt@wispi.ba",""
"JU OŠ Mejdan","Elementary","Muftije-efendije Kurta bb","FBiH","TK","Tuzla","44.536334","18.664878","38735315370","osmejdan@bih.net.ba","http://mejdan.cjb.net"
"JU OŠ Novi Grad Tuzla","Elementary","DR.Ivana Ribara 17","FBiH","TK","Tuzla","44.532055","18.694272","38735250851","ngrad@bih.net.ba","www.osngtz.edu.ba"
"JU OŠ Podrinje","Elementary","Mihatovići bb","FBiH","TK","Tuzla","44.53948","18.564039","38735216285","skola.podrinje@gmail.com",""
"JU OŠ 'Sveti Franjo'","Elementary","Klosterska 10","FBiH","TK","Tuzla","44.536614","18.680785","38735300842","direktor.os@ksc-tuzla.edu.ba","www.ksc-tuzla.edu.ba"
"JU Zavod za odgoj i obrazovanje djece sa smetnjama u psihičkom i tjelesnom razvoju","Elementary","Krečanska 5","FBiH","TK","Tuzla","44.538119","18.658072","38735281427","muratovicdamir@gmail.com",""
"JU OŠ Sjenjak","Elementary","Ismeta Mujezinovića bb","FBiH","TK","Tuzla","44.533119","18.704398","38735261666","ossjenjak@yahoo.com","www.juossjenjak.com.ba"
"JU Centar za obrazovanje i vaspitanje i rehabilitaciju slušanja i govora","Elementary","Husinskih rudara 161","FBiH","TK","Tuzla","44.526997","18.635152","38735312390","gest.tuz@bih.net.ba",""
"JU Druga osnovna škola","Elementary","Druga ulica 46","FBiH","TK","Živinice","44.445891","18.654079","38735775045","drugaosz@yahoo.com","www.drugaos.tk"
"JU OŠ Bašigovci","Elementary","Bašigovci bb","FBiH","TK","Živinice","44.412588","18.696996","38735769473","juosbasigovci@hotmail.com","www.osbasigovci.web1000.com"
"JU OŠ Dubrave","Elementary","Dubrave Donje bb","FBiH","TK","Živinice","44.473776","18.699586","38735813014","osdubrave@gmail.com","www.os-dubrave.web1000.com"
"JU OŠ Đurđevik","Elementary","Đurđevik bb","FBiH","TK","Živinice","44.399324","18.663844","38735762095","red_huso@yahoo.com","www.juosdjurdjevik.tk"
"JU OŠ Gračanica","Elementary","Gračanica bb","FBiH","TK","Živinice","44.397756","18.766121","3.87E+10","aljo_osgracanica@yahoo.com",""
"JU OŠ Šerići","Elementary","Šerići bb","FBiH","TK","Živinice","44.470691","18.557778","38735760221","osserici@gmail.com","www.osserici.com"
"JU OŠ Višća","Elementary","Višća bb","FBiH","TK","Živinice","44.41755","18.622219","38735767248","viscaos@live.com",""
"JU Prva osnovna škola Živinice","Elementary","II Krajiške brigade 19","FBiH","TK","Živinice","44.454768","18.644405","38735740056","prvaosnovnaskolazivinice@yahoo.com","www.prvaosnovna.i8.com"
"JU OŠ Živinice Gornje","Elementary","Gornje Živinice","FBiH","TK","Živinice","44.440688","18.617168","38735770224","o.s.g.zivinice@live.com",""
"Osnovna škola 'Karaula'","Elementary","Ćosići bb","FBiH","SBK","Travnik","44.26466233","17.50478476","38730535050","os.karaula@hotmail.com",""
"Druga Osnovna škola","Elementary","Ul. Armije BiH br. 7","FBiH","SBK","Bugojno","44.05269226","17.44907579","38730251702","drosskola@bih.net.ba",""
"Osnovna Muzička škola","Elementary","Slobode 149","FBiH","SBK","Bugojno","44.0527","17.449076","38730251181","osmuzicka.bu@bih.net.ba",""
"Prva Osnovna škola","Elementary","Hendek VII/2","FBiH","SBK","Bugojno","44.05903961","17.45232082","38730251700","prvaosbu@bih.net.ba",""
"Treća Osnovna škola","Elementary","Jaklić br. 2","FBiH","SBK","Bugojno","44.0476803","17.45222148","38730251701","trosjaklic@hotmail.com",""
"Osnovna škola 'Gračanica'","Elementary","Gračanica kod Bugojna","FBiH","SBK","Bugojno","44.00226076","17.49492172","38730281036","gracanca@bih.net.ba ",""
"Osnovna škola 'Drvetine'","Elementary","Drvetine - Bugojno","FBiH","SBK","Bugojno","44.10275601","17.45154429","38730277343","drvetine@hotmail.com",""
"Osnovna škola 'Bristovi'","Elementary","Rostovska bb","FBiH","SBK","Bugojno","44.06535522","17.47649152","38730250692","skola.bristovi@bih.net.ba",""
"Osnovna škola 'Busovača'","Elementary","Nikole Šubića Zrinjskog bb","FBiH","SBK","Busovača","44.10025714","17.87987545","38730733095","o.s.busovaca@gmail.com",""
"Osnovna škola Kaćuni","Elementary","Kaćuni bb","FBiH","SBK","Busovača","44.06860358","17.93794775","38730591019","deno.1111@hotmail.com",""
"Prva Osnovna škola'","Elementary","Vrbaska bb","FBiH","SBK","Donji Vakuf","44.14050759","17.40225425","38730205115","prvaosdonjivakuf@hotmail.com",""
"Treća Osnovna škola","Elementary","Oborci bb","FBiH","SBK","Donji Vakuf","44.19464502","17.41942178","38730261005","osoborci@bih.net.ba",""
"Osnovna škola 'Muhsin Rizvić'","Elementary","Novo naselje 7","FBiH","SBK","Fojnica","43.9590903","17.90223652","38730831855","osmuhsinrizvic@bih.net.ba",""
"Osnovna škola 'Gornji Vakuf'","Elementary","Omladinska bb","FBiH","SBK","Gornji Vakuf - Uskoplje","43.93991548","17.59017375","38730265658","emirsin@yahoo.com",""
"Osnovna škola 'Uskoplje'","Elementary","Bana Jelačića bb","FBiH","SBK","Gornji Vakuf - Uskoplje","43.93734361","17.58189189","38730494018","os.uskoplje@tel.net.ba",""
"Osnovna škola 'Gromiljak' Kiseljak","Elementary","Gromiljak bb","FBiH","SBK","","43.96666803","18.0544354","38730877462","os.gromiljak@gmail.com",""
"Osnovna škola 'Kiseljak 1' Bilalovac Kiseljak","Elementary","Bilalovac","FBiH","SBK","","43.94220162","18.07753897","38730594005","oskiseljak1bilalovac@hotmail.com",""
"Osnovna škola 'Dr. Boris Ćorić' Kreševo","Elementary","Fra Grge Martića 124","FBiH","SBK","","43.86594657","18.04004456","38730806710","o.s.kresevo@gmail.com",""
"Osnovna Glazbena škola Jakova Gotovca Novi Travnik Novi Travnik","Elementary","Stjepana Tomaševića bb","FBiH","SBK","","44.17107685","17.65566999","38730791182","glazbena.skola-jakova.gotovca@tel.net.ba",""
"Osnovna škola 'Novi Travnik' Novi Travnik","Elementary","Ljudevita Gaja bb","FBiH","SBK","","44.17205946","17.65851731","38730793027","os.novi.travnik@tel.net.ba",""
"Osnovna škola 'Safvet-Beg Bašagić' Novi Travnik","Elementary","Omladinska bb","FBiH","SBK","","44.16909292","17.65096017","38730525013","oskolasafvetn.tr@bih.net.ba",""
"Osnovna Muzička škola","Elementary","Lukačka 6","FBiH","SBK","Travnik","44.22493508","17.6634283","38730512130","muzickaskolatr@bih.net.ba",""
"Osnovna škola 'Dolac'","Elementary","Dolac na Lašvi bb","FBiH","SBK","Travnik","44.21725504","17.69059206","38730540737","os.skoladolac@bih.net.ba",""
"Osnovna škola 'Guča Gora' Travnik","Elementary","Guča Gora bb","FBiH","SBK","","44.24341613","17.73526607","38730560019","os.gucagora@bih.net.ba",""
"Osnovna škola 'Han Bila' Travnik","Elementary","Han Bila bb","FBiH","SBK","","44.23732548","17.75954881","38730562402","skola-hb@bih.net.ba",""
"Osnovna škola 'Kalibunar'","Elementary","Vjekoslava Karas bb","FBiH","SBK","Travnik","44.23189478","17.64176297","38730510442","oskola_kalibunar@bih.net.ba",""
"Osnovna škola 'Mehurići'","Elementary","Mehurići bb","FBiH","SBK","Travnik","44.27195943","17.73457461","38730564402","osmehurici@bih.net.ba",""
"Osnovna škola 'Travnik'","Elementary","školska bb","FBiH","SBK","","44.22524549","17.65521634","38730518697","ostravnik@bih.net.ba",""
"Osnovna škola 'Turbe'","Elementary","Aleja bb","FBiH","SBK","Travnik","44.24123971","17.57118207","38730530092","osskola.turbe@bih.net.ba",""
"Osnovna škola 'Bila'","Elementary","Marosi b.b.","FBiH","SBK","Vitez","44.17728603","17.75794403","38730716243","skolabila@gmail.com",""
"Osnovna škola 'Dubravica'","Elementary","22. Prosinca bb","FBiH","SBK","Vitez","44.15204397","17.80926284","38730712775","skola.dubravica@gmail.com",""
"Osnovna škola 'Vitez'","Elementary","Josipa Kurevije bb (H)","FBiH","SBK","Vitez","44.15121733","17.79022753","38730711579","osnovnaskola.vitez@gmail.com",""
"Osnovna škola ''Vitez''","Elementary","Josipa Kurevije bb (B)","FBiH","SBK","Vitez","44.15196934","17.789918","38730710998","os-vitez@tel.net.ba",""
"Osnovna škola 'Nova Bila' Nova Bila","Elementary","Nova Bila bb","FBiH","SBK","","44.18889596","17.73849308","38730708057","osnovabila@yahoo.com",""
"Prva Osnovna škola'","Elementary","Jaklić V/2","FBiH","SBK","Bugojno","44.04787016","17.45268347","38730253440","posbugojno@yahoo.com",""
"Osnovna škola 'Berta Kučera'","Elementary","Fra Antuna Kneževića 8","FBiH","SBK","Jajce","44.34199355","17.27431675","38730654297","bertajajce@gmail.com",""
"Osnovna škola '13. Rujan' Jajce","Elementary","Volijak bb","FBiH","SBK","","44.34581829","17.26409989","38730654133","os.13.rujan@tel.net.ba",""
"Osnovna škola 'Braća Jezerčić' Divičani - Jajce Jajce","Elementary","Divičani","FBiH","SBK","","44.36607371","17.32592996","38730654612","os.divicani@gmail.com",""
"Osnovna škola 'Voljevac'","Elementary","Voljevac bb","FBiH","SBK","Gornji Vakuf - Uskoplje","43.87805999","17.66073242","38730260567","osvoljevac@bih.net.ba",""
"Osnovna škola 'Pajić Polje'","Elementary","Pajić Polje bb","FBiH","SBK","Gornji Vakuf - Uskoplje","43.97709984","17.52589563","38730286827","ppolje@bih.net.ba",""
"Osnovna škola 'Hasan Kjafija-Pruščak'","Elementary","Prusac bb","FBiH","SBK","Donji Vakuf","44.09374231","17.37797801","38730271162","drugaosprusac@gmail.com",""
"Četvrta Osnovna škola","Elementary","Torlakovac","FBiH","SBK","","44.23065759","17.31285772","38730275111","os.torlakovac@bih.net.ba",""
"Osnovna škola 'Edhem Mulabdić'","Elementary","Opara","FBiH","SBK","Novi Travnik","44.0923753","17.65155679","38730527002","skola-opara@hotmail.com",""
"Osnovna škola 'Mehmedalija Mak Dizdar'","Elementary","Vodovod bb","FBiH","SBK","Novi Travnik","44.14617837","17.61290269","38730542931","os.mak@bih.net.ba",""
"Osnovna škola 'Musa Ćazim Ćatić'","Elementary","Trenica","FBiH","SBK","Novi Travnik","44.14847575","17.66956171","38730529451","skolatrenica@bih.net.ba",""
"Osnovna škola 'Fra Marijan Šunjić'","Elementary","Stojkovići","FBiH","SBK","Novi Travnik","44.18676556","17.68548924","38730791063","osstojkovici@net.hr",""
"Osnovna škola 'Ivan Goran Kovačić'","Elementary","Gojevići bb","FBiH","SBK","Fojnica","43.91357275","17.94488459","38730803206","os.igk-gojevici@tel.net.ba",""
"Osnovna škola 'Dubravica'","Elementary","Preočica bb","FBiH","SBK","Vitez","44.19113512","17.8142452","38730545442","os_dubravica@yahoo.com",""
"Osnovna škola 'Kaonik'","Elementary","Kaonik bb","FBiH","SBK","Busovača","44.1185935","17.87487899","38730736058","oskaonik@gmail.com",""
"Osnovna škola 'Kiseljak 2'","Elementary","Zabrđe bb","FBiH","SBK","Kiseljak","43.83991347","18.11435722","38730596200","oskis2zabrdje@bih.net.ba",""
"Osnovna škola 'Kiseljak'","Elementary","Josipa bana Jelačića 42/A","FBiH","SBK","Kiseljak","43.94220162","18.07753897","38730877358","os.kiseljak@tel.net.ba",""
"Osnovna škola 'Brestovsko'","Elementary","Dugo Polje 52","FBiH","SBK","Kiseljak","44.00749747","18.02830487","38730876063","os.brestovsko1@tel.net.ba",""
"Osnovna škola 'Lepenica'","Elementary","Kuliješ 36","FBiH","SBK","Kiseljak","43.87045781","18.14587146","38730873154","os.lepenica@tel.net.ba",""
"Osnovna škola 'Vitovlje'","Elementary","Vitovlje bb","FBiH","SBK","Travnik","44.3306805","17.4941484","38730539555","osvitovlje01@hotmail.com",""
"Osnovna Muzička škola","Elementary","Mehmeda Spahe 11 C","FBiH","SBK","Novi Travnik","44.17032508","17.65329312","38730525533","omsnovitravnik2010@gmail.com",""
"Katolički školski centar 'Petar Barbarić' - Osnovna škola Travnik","Elementary","Školska 1","FBiH","SBK","Travnik","44.22539641","17.66188083","38730518823","ksctr@bih.net.ba",""
"Osnovna škola 'Jajce'","Elementary","Krušćica bb","FBiH","SBK","Jajce","44.12957","17.786982","38730279568","osjajcekruscica@gmail.com",""
"Mješovita Srednja škola Bugojno","High School","Zlatnih Ljiljana bb","FBiH","SBK","","44.05502348","17.44782234","38730260112","gimnazija_bug@yahoo.com",""
"Srednja Stručna škola Bugojno","High School","Ciglane II","FBiH","SBK","","44.05253224","17.43733308","38730252207","srednjastrucna@yahoo.com",""
"Srednja Tehnička škola Bugojno","High School","Ciglane II","FBiH","SBK","","44.05238396","17.4387525","38730251915","tehskolabu@hotmail.com",""
"Srednja škola 'Busovača'","High School","Kulina bana bb","FBiH","SBK","Busovača","44.10086168","17.87916574","38730732042","ssbusovaca@gmail.com",""
"Srednja Mješovita škola 'Zijah Dizdarević'","High School","Novo naselje 7","FBiH","SBK","Fojnica","43.96068638","17.90201776","38730544370","smszijahdizdarevic@gmail.com",""
"Srednja škola 'Nikola Šop'","High School","Fra Antuna Kneževića 27","FBiH","SBK","Jajce","44.34301168","17.27555469","38730654174","gimnazija.nikola.sop@tel.net.ba",""
"Srednja Strukovna škola 'Jajce'","High School","Berte Kučere 3","FBiH","SBK","Jajce","44.34712272","17.25353151","38730654273","ss-skola-jajce@tel.net.ba",""
"Srednja Strukovna škola Fojnica u Kiseljaku","High School","Žrtava domovinskog rata 5","FBiH","SBK","Kiseljak","43.94220162","18.07753897","38730879113","srednjaskolafoj@yahoo.com",""
"Srednja škola 'Ivan Goran Kovačić'","High School","Ul. žrtava domovinskog rata 5","FBiH","SBK","Kiseljak","43.94348196","18.07979395","38730879002","srednjaskolakis@yahoo.com",""
"Srednja škola 'Kreševo'","High School","Troska 2A","FBiH","SBK","","43.86855","18.0539","38730800202","ss.kresevo@tel.net.ba",""
"Mješovita Srednja škola'","High School","Omladinska bb","FBiH","SBK","Novi Travnik","44.1694029","17.64830704","38730525407","jasmina_ntr@hotmail.com",""
"Srednja Glazbena škola Jakova Gotovca","High School","Ljudevita Gaja bb","FBiH","SBK","Novi Travnik","44.17177899","17.6578985","38730791076","sr.gl.sk.jakova.gotovca@tel.net.ba",""
"Srednja škola 'Novi Travnik'","High School","Ljudevita Gaja bb","FBiH","SBK","Novi Travnik","44.1717231","17.65731864","38730793504","ss-novi.travnik@tel.net.ba",""
"Mješovita Srednja Ekonomsko-Ugostiteljska škola","High School","Školska 3","FBiH","SBK","Travnik","44.22569446","17.6569607","38730541621","mseus@bih.net.ba",""
"Mješovita Srednja škola 'Travnik'","High School","Školska 3","FBiH","SBK","Travnik","44.22535026","17.66231183","38730511059","mss.travnik@bih.net.ba",""
"Mješovita Srednja Tehnička škola Travnik","High School","Školska bb","FBiH","SBK","Travnik","44.22570087","17.65685096","38730510280","psecurity@msts-travnik.net",""
"Srednja škola 'Vitez'","High School","Ilije Petrovića bb","FBiH","SBK","Vitez","44.15107518","17.78905149","38730711336","ss.vitez@tel.net.ba",""
"Mješovita Srednja škola 'Vitez'","High School","Ilije Petrovića bb","FBiH","SBK","Vitez","44.15144823","17.78892773","38730717540","mss.vitez.kruscica@tel.net.ba",""
"Mješovita Srednja škola ''Gornji Vakuf'","High School","Gradska bb","FBiH","SBK","Gornji Vakuf - Uskoplje","43.93926314","17.58144622","38730265654","mssgv@yahoo.com",""
"Srednja škola 'Uskoplje'","High School","Gradska bb","FBiH","SBK","Gornji Vakuf - Uskoplje","43.93879365","17.58111609","38730494039","sskola.uskoplje@tel.net.ba",""
"Mješovita Srednja škola","High School","Žrtava genocida u Srebrenici","FBiH","SBK","Donji Vakuf","44.14045112","17.40191754","38730205355","mssdvakuf@bih.net.ba",""
"Srednja škola 'Travnik'","High School","Nova Bila","FBiH","SBK","Travnik","44.18918591","17.73756042","38730707486","ss.travnik@tel.net.ba",""
"Mješovita Srednja škola","High School","Kulina bana bb","FBiH","SBK","Busovača","44.10062683","17.88044054","38730593155","mail@mssbusovaca.com.ba",""
"Katolički školski Centar 'Petar Barbarić' - Gimnazija Travnik","High School","Školska 1","FBiH","SBK","Travnik","44.22536681","17.66163326","38730518823","ksctr@bih.net.ba",""
"Osnovna škola Orašje","Elementary","XI. ulica br. 2","FBiH","PK","Orašje","45.034693","18.689056","38731712137","osnovnaskolaorasje@gmail.com",""
"Ruđera Boškovića","Elementary","Školska 33","FBiH","PK","","45.043871","18.66735","38731713045","os.donja.mahala@tel.net.ba","www.tel.net.ba/oskola-d.mahala"
"Antuna Gustava Matoša","Elementary","J.B.Jelačića 141","FBiH","PK","","44.979442","18.736075","38731731332","","www.tel.net.ba/os-vidovice"
"Stjepana Radića Oštra Luka-Bok","Elementary","Filipovići 55","FBiH","PK","","45.008064","18.62237","38731772029","os.stjepanaradic.ol@tel.net.ba",""
"Braće Radića","Elementary","Posavskih branitelja 41","FBiH","PK","","45.06435","18.576848","38731791055","os.domaljevac@tel.net.ba",""
"Fra Ilije Starčevića","Elementary","Vladimira Nazora 192","FBiH","PK","","45.039436","18.640624","38731754077","osnovna.skola.tolisa@tel.net.ba",""
"Vladimira Nazora","Elementary","Nova ulica b.b.","FBiH","PK","","45.017157","18.327455","38731761247","os.vladimir.nazor@tel.net.ba","www.tel.net.ba/osvnazora-odzak"
"Fra Martina Nedića","High School","XI. ulica b.b.","FBiH","PK","","45.034525","18.690321","38731712131","sskola.orasje@skor.ba","www.skor.ba"
"Pere Zečevića","High School","Džemala Bijedića 13","FBiH","PK","","45.015965","18.324321","38731761865","office@sskola-odzak.edu.ba","www.sskola-odzak.edu.ba"
"OŠ 'Ivan Goran Kovačić'","Elementary","","FBiH","Kanton 10","Livno","43.821578","17.004511","","",""
"OŠ 'Fra Lovro Karaula'","Elementary","","FBiH","Kanton 10","Livno","43.82624","16.998913","","",""
"Osnovna glazbena škola 'Franjo S. Vilhar'","Elementary","","FBiH","Kanton 10","","43.82522","17.007039","","",""
"OŠ Stjepana Radića Prisoje","Elementary","","FBiH","Kanton 10","","43.690622","17.085305","","",""
"OŠ Ivana Mažuranića","Elementary","","FBiH","Kanton 10","","43.715322","17.233692","","",""
"OŠ Fra Mije Čuića Bukovica","Elementary","","FBiH","Kanton 10","","43.604218","17.305237","","",""
"Osnovna glazbena škola 'Tomislavgrad'","Elementary","","FBiH","Kanton 10","","43.71931","17.225479","","",""
"OŠ 'Drvar'","Elementary","","FBiH","Kanton 10","","44.373262","16.387648","","",""
"OŠ Fra Miroslava džaje","Elementary","","FBiH","Kanton 10","","43.991085","17.278532","","",""
"OŠ 'Fra Franjo Glavinić'","Elementary","","FBiH","Kanton 10","","44.049375","16.852048","","",""
"OŠ 'Grahovo'","Elementary","","FBiH","Kanton 10","","44.178352","16.362112","","",""
"OŠ Branko Ćopićš","Elementary","Miše Stupara 24","RS","","Banja Luka","44.771341","17.201942","38751258302","os001@skolers.org","http://www.osbrankocopic.net/"
"OŠ Dositej Obradovićš","Elementary","Mirka Kovačevića 27","RS","","Banja Luka","44.76193","17.187714","38751461826","",""
"OŠ Zmaj Jova Jovanović","Elementary","Branka Zagorca 1","RS","","Banja Luka","44.762541","17.180008","38751431770","","http://www.oszmajjovajovanovic.edu.ba/"
"OŠ Petar Petrović Njegošš","Elementary","Stepe Stepanovića 28","RS","","Banja Luka","44.761988","17.194059","38751","os004@skolers.org","http://www.osppnjegos.rs.ba/"
"OŠ Branislav Nušić","Elementary","Manjačkih ustanika 32","RS","","Banja Luka","44.747569","17.155416","38751412020","os005@skolers.org","https://osbranislavnusic.wordpress.com/"
"OŠ Ivan Goran Kovačić","Elementary","Marka Lipovca 1","RS","","Banja Luka","44.797113","17.206315","38751345150","",""
"OŠ Sveti Sava","Elementary","Užička bb","RS","","Banja Luka","44.777748","17.168144","38751288890","os007@skolers.org","http://www.ossvetisava.edu.ba/"
"OŠ Jovan Cvijić","Elementary","Đure Jakšića 12","RS","","Banja Luka","44.766178","17.181435","38751212374","",""
"OŠ Branko Radićević","Elementary","Vojvode S.Stepanovića 116","RS","","Banja Luka","44.76538","17.205805","38751436825","os009@skolers.org","http://brankoradicevic-bl.rs.ba/"
"OŠ Ivo Andrić","Elementary","Branka Radićevića 16","RS","","Banja Luka","44.773685","17.187647","38751213196","os010@skolers.rs","http://osivoandric.org/"
"OŠ Aleksa Šantić","Elementary","Trive Amelice 24","RS","","Banja Luka","44.785952","17.200237","38751327451","","http://skolasantic.com/"
"OŠ Vuk S. Karadžićš","Elementary","Save Kovačevića bb","RS","","Banja Luka","44.769226","17.20503","38751254071","",""
"OŠ Borisav Stanković","Elementary","Ivana Kosančića 2","RS","","Banja Luka","44.804969","17.210423","38751371126","","https://osbsbl.org/"
"OŠ Georgi S. Rakovski","Elementary","Dragiše Vasića 29","RS","","Banja Luka","44.77889","17.194085","38751309658","","http://www.georgistojkovrakovski.rs.ba/"
"OŠ Mladen Stojanovićš","Elementary","Bronzani Majdan bb","RS","","Bronzani Majdan","44.91308","17.305263","38751535517","os054@teol.net","http://osmladenstojanovic.com"
"OŠ Miroslav Antić","Elementary","Bistrica bb","RS","","Bistrica","44.813971","17.051347","38751277057","",""
"OŠ Janko Veselinovićš","Elementary","Mišin Han bb","RS","","Donja Ivanjska","44.903316","17.113226","38751","",""
"OŠ Desanka Maksimovićš","Elementary","Dragočaj bb","RS","","Dragočaj","44.854685","17.160939","38751392166","os018@skolers.org","https://osdmaksimovicbl.org/"
"OŠ Milutin Bojić","Elementary","Potkozarje bb","RS","","Potkozarje","44.915633","17.067602","38751395365","",""
"OŠ Petar Kočićš","Elementary","Kola bb","RS","","Kola","44.695929","17.084168","38751","",""
"OŠ Milan Rakićš","Elementary","Karanovac bb","RS","","Karanovac","44.698965","17.19477","38751","",""
"OŠ Vojislav Ilić","Elementary","Krupa na Vrbasu bb","RS","","Krupa na Vrbasu","44.617864","17.146216","38751","",""
"OŠ Ćirilo i Metodije","Elementary","Piskavica bb","RS","","Piskavica","44.867106","16.976512","38751","",""
"OŠ Đura Jakšić","Elementary","Subotićka 28","RS","","Srpski Milanovac","44.817663","17.197993","38751380980","os024@skolers.org","http://osdjurajaksicbl.org/"
"OŠ Stanko Rakitaš","Elementary","Jove G. Popovića 9","RS","","Vrbanja","44.759722","17.250562","38751424085","",""
"OŠ Jovan Dučićš","Elementary","Nenada Kostića 7","RS","","Zalušani","44.835576","17.217334","38751389381","","http://www.osjovanduciczaluzani.edu.ba"
"OŠ Miloš Crnjanskiš","Elementary","Zore Kovačević bb","RS","","Banja Luka","44.788165","17.18992","38751358121","",""
"Muzička škola Vlado Milošević","Elementary","Jovana Dučića 23","RS","","Banja Luka","44.773929","17.186444","38751214739","","http://muzicka-skola.org/"
"Centar za obrazovanje, vaspitanje i rehabilitaciju sluha i govora","Elementary","Jovana Raškovića 28a","RS","","Banja Luka","44.775048","17.179728","38751214491","","http://www.centar-ovrsg.com"
"Dječiji dom Rada Vranješević","Elementary","Filipa Macure 25","RS","","Banja Luka","44.762148","17.176423","38751461932","","http://www.djecijidom.com/"
"Centar Zaštiti me","Elementary","Poljokanov park bb","RS","","Banja Luka","44.757097","17.174464","38751201708","",""
"OŠ Danilo Borković","Elementary","Milana Tepića 19","RS","","Gradiška","45.1499","17.259792","38751","",""
"OŠ Vasa Čubrilović","Elementary","Mihajla Pupina 10","RS","","Gradiška","45.145362","17.253029","38751813313","",""
"OŠ Kozarska djecaš","Elementary","Kralja Dragutina 17","RS","","Gradiška","45.131799","17.233257","38751","",""
"OŠ Mladen Stojanovićš","Elementary","Gornji Podgradci bb","RS","","G.Podgradci","44.91308","17.305339","38751","",""
"OŠ Petar Kočićš","Elementary","Nova Topola bb","RS","","Nova Topola","45.056533","17.306877","38751891010","","http://www.nova-topola.rs.ba"
"OŠ Vuk S. Karadžićš","Elementary","Turjak bb","RS","","Turjak","45.007895","17.148624","38751","",""
"OŠ Sveti Sava","Elementary","Dubrave bb","RS","","Dubrave","45.096843","17.291473","38751860410","",""
"Osnovna muzička škola B. Smiljanić","Elementary","Mladena Stojanovića bb","RS","","Gradiška","45.147364","17.250064","38751","","http://oms-brankosmiljanic.com/"
"OŠ Miloš Dujić","Elementary","Kralja Petra I Karađorđevića","RS","","Čelinac","44.727284","17.319974","38751551009","",""
"OŠ Novak Pivašević","Elementary","Stara Dubrava bb","RS","","Stara Dubrava","44.746847","17.568072","38751561255","",""
"OŠ Mladen Stojanovićš","Elementary","Jošavka bb","RS","","Jošavka","44.747547","17.418117","38751","",""
"OŠ Sveti Sava","Elementary","Svetosavska 2","RS","","Kotor Varoš","44.61869","17.371712","38751927220","","http://svetisava-kotorvaros.org/"
"OŠ Petar Petrović Njegoš","Elementary","Maslovare bb","RS","","Maslovare","44.563572","17.53503","38751","",""
"OŠ Petar Kočić","Elementary","šiprage bb","RS","","šiprage","44.466544","17.565291","38751","",""
"OŠ Mladen Stojanović","Elementary","Karađorđeva bb","RS","","Laktaši","44.913038","17.305317","38751","",""
"OŠ Georgios A. Papandreu","Elementary","Aleksandrovac bb","RS","","Aleksandrovac","44.964634","17.316396","38751","",""
"OŠ Holandija","Elementary","Slatina bb","RS","","Slatina","44.829015","17.307982","38751","",""
"OŠ Desanka Maksimović","Elementary","Dositejeva 34","RS","","Trn","44.852278","17.239765","38751584487","","http://www.osdesankam-trn.org/"
"OŠ Branko Ćopić","Elementary","Rade Vranješević 1","RS","","Prnjavor","44.866569","17.670133","38751","",""
"OŠ Nikola Tesla","Elementary","Cara Lazara 26","RS","","Prnjavor","44.872527","17.660425","38751","",""
"OŠ Vuk Karadžić","Elementary","Donji Vijačani bb","RS","","Donji Vijačani","44.808824","17.604387","38751","",""
"OŠ Sveti Sava","Elementary","Gornji Smrtići bb","RS","","Smrtići","44.9722616","17.7417642","38751668653","os079@skolers.org","https://ossvetisavasmrtici.org/"
"OŠ Ivo Andrić","Elementary","Kulaši bb","RS","","Kulaši","44.768875","17.7414","38751","",""
"OŠ Meša Selimović","Elementary","Naseobina Lišnja 36","RS","","Naseobina Lišnja","44.886","17.560411","38751","",""
"OŠ Miloš Crnjanski","Elementary","Potočani bb","RS","","Potočani","44.872265","17.492096","38751","",""
"OŠ Petar Kočić","Elementary","Šibovska 1","RS","","Prnjavor","44.960418","17.651117","38751684122","os083@skolers.org","https://ospetarkocic-sibovska.org/"
"OŠ Osnovna muzička škola","Elementary","Laze Lazarevića 4","RS","","Prnjavor","44.869806","17.665899","38751","",""
"OŠ Dositej Obradović","Elementary","Dujka Komjenović bb","RS","","Kneževo","44.489217","17.378132","38751","",""
"OŠ Petar Kočić","Elementary","Imnjani bb","RS","","Imnjani","44.608015","16.988989","38751","",""
"OŠ Vuk Karadžić","Elementary","Živinice bb","RS","","Živinice","44.529298","17.344752","38751","",""
"OŠ Jovan Jovanović Zmaj","Elementary","Mome Vidovića 14","RS","","Srbac","45.095787","17.51832","38751","",""
"OŠ Vuk Karadžić","Elementary","Sitneši bb","RS","","Sitneši","45.041663","17.566678","38751","",""
"OŠ Dositej Obradović","Elementary","Razboj Lijevče bb","RS","","Razboj Lijevče","45.061166","17.449926","38751","",""
"OŠ Petar Kočić","Elementary","Sime šolaje 89","RS","","Mrkonjić-Grad","44.41245","17.085999","38751","",""
"OŠ Ivan Goran Kovačić","Elementary","Njegoševa bb","RS","","Mrkonjić-Grad","44.41955","17.084986","38751","",""
"OŠ Vuk Karadžić","Elementary","Barači bb","RS","","Barači","44.320141","16.936731","38751","",""
"OŠ Branko Ćopić","Elementary","Bjelajce bb","RS","","Bjelajce","44.436262","17.150386","38751","",""
"OŠ Nemanja Vlatković","Elementary","Omladinska 1","RS","","Šipovo","44.286235","17.087","38751","",""
"OŠ Rade Marijanac","Elementary","Strojice bb","RS","","Strojice","44.178659","17.161712","38751","",""
"OŠ Drinić","Elementary","Centar bb","RS","","Drinić","44.50695","16.467187","38751","",""
"OŠ Vuk Karadžić","Elementary","Vuka Karadžića bb","RS","","Jezero","44.346951","17.165736","38751","",""
"OŠ Nikola Mačkić","Elementary","Donja Previja bb","RS","","Donja Previja","44.475486","16.820113","38751","",""
"OŠ Desanka Maksimović","Elementary","Ribnik bb","RS","","Ribnik","44.41673","16.816804","38751","",""
"OŠ Petar Kočić","Elementary","Sitnica bb","RS","","Sitnica","44.519639","16.933105","38751","",""
"OŠ Branko Ćopić","Elementary","Rudnička 13","RS","","Prijedor","44.976349","16.715734","38751","",""
"OŠ Petar Kočić","Elementary","Petog korpusa bb","RS","","Prijedor","44.979337","16.723473","38751","",""
"Specijalna škola Đorđe Natošević","Elementary","Kralja Aleksandra 6","RS","","Prijedor","44.974592","16.7107","38751","",""
"OŠ Dositej Obradović","Elementary","Pećani bb","RS","","Prijedor","44.983709","16.704646","38751","",""
"OŠ Desanka Maksimović","Elementary","Branislava Nušića 7","RS","","Prijedor","44.980782","16.709544","38751","",""
"Muzička škola","Elementary","Branislava Nušića 9","RS","","Prijedor","44.980495","16.710088","38751","",""
"OŠ Jovan Cvijić","Elementary","Brezičani bb","RS","","Brezičani","45.013506","16.65576","38751","",""
"OŠ Petar Petrović Njegoš","Elementary","Busnovi bb","RS","","Busnovi","44.855774","16.809317","38751","",""
"OŠ Branko Radićević","Elementary","Petrovo bb","RS","","Petrovo","44.932862","16.73943","38751","",""
"OŠ Jovan Dučić","Elementary","Lamovita 28","RS","","Lamovita","44.944852","16.927911","38751","",""
"OŠ Mladen Stojanović","Elementary","Drage Lukića bb","RS","","Ljubija","44.918271","16.607222","38751","",""
"OŠ Vuk Karadžić","Elementary","Vuka Karadžića bb","RS","","Omarska","44.890629","16.897794","38751","",""
"OŠ Ćirilo i Metodije","Elementary","Trnopolje bb","RS","","Trnopolje","44.934465","16.804293","38751","",""
"Dom za djecu i oml. ometenu u razvoju","Elementary","Milana Vrhovca 117","RS","","Prijedor","44.980097","16.733373","38751","",""
"OŠ Kozarac","Elementary","Maršala Tita bb","RS","","Kozarac","44.974886","16.839998","38751","",""
"OŠ Vuk Karadžić","Elementary","Ive Andrića bb","RS","","Novi Grad","45.047579","16.383436","38751","",""
"OŠ Sveti Sava","Elementary","Nikole Pašića 13","RS","","Novi Grad","45.050096","16.375142","38751","",""
"OŠ Branko Ćopić","Elementary","Donji Agići bb","RS","","","44.952871","16.465068","38751","",""
"OŠ Dragan Vujanović","Elementary","Svodna bb","RS","","Svodna","45.037727","16.5375","38751","",""
"OŠ Petar Mećava","Elementary","Vase Pelagića bb","RS","","Kostajnica","45.220048","16.541791","38751","",""
"OŠ Sveti Sava","Elementary","Dositejeva bb","RS","","Kozarska Dubica","45.180437","16.805912","38751","",""
"OŠ Vuk Stefanović Karadžić","Elementary","Đakona Avakuma 15","RS","","Kozarska Dubica","45.179857","16.815049","38751","",""
"OŠ Majka Knežopoljka","Elementary","Knežica bb","RS","","Knežica","45.105507","16.677021","38751","",""
"OŠ Petar Škundrić","Elementary","Budimlić Japra 131","RS","","","44.88446","16.429031","38751","",""
"OŠ Josif Pančić","Elementary","Kozica bb","RS","","Kozica","44.69169","16.823555","38751","",""
"OŠ Desanka Maksimović","Elementary","OŠtra Luka bb","RS","","OŠtra Luka","44.859626","16.689663","38751","",""
"OŠ Branko Ćopić","Elementary","Donji Dubovik bb","RS","","Donji Dubovik","44.891317","16.322869","38751","",""
"OŠ Vuk Stefanović Karadžić","Elementary","Srpskih sokolova 2","RS","","Doboj","44.734953","18.089204","38751","",""
"OŠ Dositej Obradović","Elementary","Hilandarska 2","RS","","Doboj","44.73186","18.081878","38751","",""
"OŠ Sveti Sava","Elementary","Vojvode Sinđelića 10","RS","","Doboj","44.728675","18.085413","38753203670","",""
"OŠ Petar Petrović Njegoš","Elementary","Boljanić","RS","","Doboj","44.688314","18.220653","38751","",""
"OŠ Radoje Domanović","Elementary","Osječani bb","RS","","Osječani","44.833879","18.113899","38751","",""
"OŠ Đura Jakšić","Elementary","Podnovlje bb","RS","","Podnovlje","44.934487","18.112642","38753280007","os115@skolers.org","https://osdjurajaksic-podnovlje.com/"
"OŠ Milan Rakić","Elementary","Rudanka bb","RS","","Rudanka","44.759377","18.035264","38751","",""
"OŠ Petar Kočić","Elementary","Sjenina Rijeka bb","RS","","Sjenina Rijeka","44.783653","18.161028","38751","",""
"OŠ Desanka Maksimović","Elementary","Rudarsko naselje","RS","","Stanari","44.751998","17.839979","38751","",""
"OŠ šOzren","Elementary","Paklenica Donja bb","RS","","Paklenica Donja","44.615685","18.104694","38751","",""
"Muzička škola","Elementary","Vidovdanska bb","RS","","Doboj","44.7326","18.081893","38751","",""
"OŠ Vuk Karadžić","Elementary","Svetog Save bb","RS","","Teslić","44.607803","17.846122","38751","",""
"OŠ Petar Petrović Njegoš","Elementary","Karađorđeva 19","RS","","Teslić","44.600993","17.862629","38751","",""
"OŠ Dositej Obradović","Elementary","Blatnica bb","RS","","Blatnica","44.485499","17.822533","38751","",""
"OŠ Petar Kočić","Elementary","Ugodnović bb","RS","","Ugodnović","44.489965","17.742127","38751","",""
"OŠ Stevan Dušanić","Elementary","Pribinić bb","RS","","Pribinić","44.611207","17.690615","38751","",""
"OŠ Ivo Andrić","Elementary","Đulići 515","RS","","Teslić","44.59677","17.817143","38753420484","os098@skolers.org","https://juosivoandricts.org/"
"OŠ Jevrem Stanković","Elementary","Čečava 775","RS","","Čečava","44.685599","17.770382","38753455040","os099@skolers.org","https://osjevremstankovic.org/"
"OŠ Vuk Karadžić","Elementary","Vitkovci bb","RS","","Vitkovci","44.69106","17.881023","38751","",""
"OŠ Sveti Sava","Elementary","Vuka Karadžića bb","RS","","Brod","45.140276","18.013301","38751","",""
"OŠ Liješća","Elementary","","RS","","Liješća","43.993341","19.555574","38751","",""
"OŠ š19. april","Elementary","Svetog Save 4","RS","","Derventa","44.985329","17.903835","38751","",""
"OŠ Nikola Tesla","Elementary","Trg oslobođenja 10","RS","","Derventa","44.976375","17.907378","38751","",""
"OŠ Todor Dokić","Elementary","Kalenderovci bb","RS","","Kalenderovci","44.936472","17.813782","38751","",""
"OŠ Đorđe Panzalović","Elementary","Osinja 55","RS","","Osinja","44.854444","17.864992","38751","",""
"Zavod za slijepe i slabov. Budućnost","Elementary","Stevana Nemanje 12","RS","","Derventa","44.974505","17.907817","38751","",""
"OŠ Sveti Sava","Elementary","Cara Lazara 7","RS","","Modriča","44.956508","18.297335","38751","",""
"OŠ Sutjeska","Elementary","Maksima Gorkog 2","RS","","Modriča","44.951223","18.305403","38751","",""
"OŠ Vuk Karadžić","Elementary","Petrovo bb","RS","","Petrovo","44.626061","18.360147","38751","",""
"OŠ Sveti Sava","Elementary","Bare bb","RS","","Kakmu","44.648126","18.330843","38751","",""
"OŠ Aleksa Šantić","Elementary","Branka Radićevića 3","RS","","Vukosavlje","45.008732","18.268517","38751","",""
"OŠ ššamac","Elementary","Dositeja Obradovića 4","RS","","šamac","45.057925","18.472245","38751","",""
"OŠ šCrkvina","Elementary","Gornja Crkvina 1","RS","","Gornja Crkvina","45.031679","18.436827","38751","",""
"OŠ šGornja Slatina","Elementary","Gornja Slatina","RS","","Gornja Slatina","44.96508","18.471398","38751","",""
"OŠ šObudovac","Elementary","Obudovac bb","RS","","Obudovac","44.967439","18.597475","38751","",""
"OŠ Donji šabar","Elementary","Donji šabar bb","RS","","Donji šabar","44.945468","18.642793","38751","",""
"OŠ Vasa Pelagić","Elementary","Pelagićevo bb","RS","","Pelagićevo","44.905647","18.605764","38751","",""
"OŠ Jovan Dučić","Elementary","Srpske vojske 104","RS","","Bijeljina","44.747236","19.221334","38751","",""
"OŠ Vuk Karadžić","Elementary","Vojvode Stepe 4","RS","","Bijeljina","44.742387","19.274067","38751","",""
"OŠ Knez Ivo od Semberije","Elementary","Neznanog junaka 46","RS","","Bijeljina","44.768007","19.195006","38751","",""
"OŠ Sveti Sava","Elementary","Svetog Save 26","RS","","Bijeljina","44.757883","19.213059","38751","",""
"OŠ Petar Kočić","Elementary","Brodac bb","RS","","Brodac","44.825172","19.304747","38751","",""
"OŠ Ćirilo i Metodije","Elementary","Glavičice bb","RS","","Glavičice","44.596829","19.174485","38751","",""
"OŠ Stevan Nemanja","Elementary","Gornji Dragaljevac bb","RS","","G. Dragaljevac","44.764626","19.03376","38751","",""
"OŠ Meša Selimović","Elementary","Karađorđeva 250","RS","","Janja","44.662587","19.248933","38751","",""
"OŠ Sveti Sava","Elementary","Crnjelovo bb","RS","","Crnjelevo","44.841677","19.125423","38751","",""
"OŠ Dositej Obradović","Elementary","Suvo Polje bb","RS","","Suho Polje","44.691811","19.097331","38751","",""
"OŠ Petar Petrović Njegoš","Elementary","Velika Obarska bb","RS","","Velika Obarska","44.801057","19.170314","38751","",""
"Muzička školaS. S. Mokranjac","Elementary","Karađorđeva 5","RS","","Bijeljina","44.757442","19.218942","38751","",""
"OŠ Dvorovi","Elementary","Karađorđeva bb","RS","","Dvorovi","44.805272","19.25863","38751","",""
"OŠ Sveti Sava","Elementary","školska 3","RS","","Lopare","44.631904","18.845144","38751","",""
"OŠ Veljko Čubrilović","Elementary","Priboj bb","RS","","Priboj","44.600484","18.928793","38751","",""
"OŠ Dositej Obradović","Elementary","Koraj bb","RS","","Koraj","44.704463","18.880596","38751","",""
"OŠ šAleksa Šantić","Elementary","Ćirila i Metodija bb","RS","","Ugljevik","44.692045","18.997751","38751","",""
"OŠ Filip Višnjić","Elementary","Donja Trnova bb","RS","","Donja Trnova","44.652511","19.093309","38751","",""
"OŠ Vuk Karadžić","Elementary","Zabrđe bb","RS","","Zabrđe","44.706962","18.989023","38751","",""
"OŠ Sveti Sava","Elementary","Svetog Save 71a","RS","","Zvornik","44.382449","19.103217","38751","",""
"OŠ Petar Kočić","Elementary","Podrinjska bb","RS","","Kozluk","44.498383","19.112296","38751","",""
"OŠ Nikola Tesla","Elementary","Pilica bb","RS","","Pilica","44.581683","19.142051","38751","",""
"OŠ Vuk Karadžić","Elementary","Roćević bb","RS","","Roćević","44.53593","19.143928","38756398082","os147@skolers.org","https://www.osvukkaradzicrocevic.org/"
"Muzička škola","Elementary","Svetog Save 71a","RS","","Zvornik","44.382147","19.102864","38751","",""
"OŠ Desanka Maksimović","Elementary","Čelopek bb","RS","","Čelopek","44.432072","19.130726","38751","",""
"Dom za djecu i omladinu Kiseljak","Elementary","Zvornik bb","RS","","Zvornik","44.533574","19.052457","38751","",""
"OŠ šAleksa Šantić","Elementary","Centar bb","RS","","Osmaci","44.391496","18.89967","38751","",""
"OŠ Jovan Cvijić","Elementary","","RS","","Drinjača","44.288512","19.148077","38751","",""
"OŠ Vuk Karadžić","Elementary","Petra Kočića bb","RS","","Bratunac","44.181996","19.335016","38751","",""
"OŠ Branko Radićević","Elementary","Dositeja Obradovića bb","RS","","Bratunac","44.185507","19.330424","38751","",""
"OŠ Petar Kočić","Elementary","Kravica bb","RS","","Kravica","44.212625","19.198727","38751","",""
"OŠ Vuk Karadžić","Elementary","Svetosavska 30","RS","","Vlasenica","44.183968","18.937078","38751","",""
"OŠ Braća Jakšić","Elementary","J.J.Zmaja br. 3","RS","","Milići","44.168047","19.078298","38751","",""
"OŠ Jovan Dučić","Elementary","Matije Nenadovića 5","RS","","Šekovići","44.298178","18.853599","38751","",""
"OŠ Petar Petrović Njegoš","Elementary","Milivoja Mićića bb","RS","","Srebrenica","44.110056","19.294901","38751","",""
"OŠ Kosta Todorović","Elementary","Skelani bb","RS","","Skelani","43.971844","19.5334","38751","",""
"OŠ Aleksa Šantić","Elementary","Druge sarajevske brigade 108","RS","","Vojkovići","43.793614","18.353521","38751","",""
"OŠ Jovan Dučić","Elementary","Mladićka 3","RS","","Kasindo","43.801414","18.381488","38751","",""
"OŠ Petar Petrović Njegoš","Elementary","Draše Mihajlovića 38","RS","","Istočno Sarajevo","43.821398","18.355068","38751","",""
"OŠ Sveti Sava","Elementary","Karađorđeva 1","RS","","Lukavica","43.825284","18.364969","38751","",""
"Muzička škola","Elementary","Draše Mihajlovića 40","RS","","Lukavica","43.830617","18.367309","38751","",""
"OŠ Sokolac","Elementary","Omladinska 2","RS","","Sokolac","43.932028","18.79419","38751","",""
"OŠ Milan Ilić Čiča Šumadijski","Elementary","Aleksandra Karađorđevića 10","RS","","Han Pijesak","44.304255","20.568816","38751","",""
"OŠ Mokro","Elementary","Mokro bb","RS","","Mokro","43.881727","18.609808","38751","",""
"OŠ šPale","Elementary","Milana Simovića 26","RS","","Pale","43.812912","18.569799","38751","",""
"OŠ Srbija","Elementary","Dobrovoljnih davalaca krvi bb","RS","","Pale","43.807573","18.576943","38751","",""
"OŠ Trnovo","Elementary","Trnovskog bataljona 33","RS","","Trnovo","43.666511","18.44756","38751","",""
"OŠ Sveti Sava","Elementary","Nemanjina bb","RS","","Foča","43.509806","18.775954","38751","",""
"OŠ Veselin Masleša","Elementary","Karađorđeva 68A","RS","","Foča","43.504813","18.772346","38751","",""
"Muzička škola","Elementary","Nemanjina bb","RS","","Foča","","","38751","",""
"OŠ Rudo","Elementary","Cara Dušana 36","RS","","Rudo","43.617914","19.369296","38751","",""
"OŠ Boško Buha","Elementary","štrpci bb","RS","","štrpci","43.637804","19.485556","38751","",""
"OŠ Vuk Karadžić","Elementary","Vojvode Putnika 16","RS","","Višegrad","43.785289","19.299654","38751","",""
"OŠ Sveti Sava","Elementary","Preobrašenjska bb","RS","","Rogatica","43.79876","19.005488","38751","",""
"OŠ Jovan Dučić","Elementary","Igumana Vasilija bb","RS","","Čajniče","43.558611","19.070771","38751","",""
"OŠ šLjutica Bogdan","Elementary","Srpskih dobrovoljaca bb","RS","","Kalinovik","43.504676","18.443613","38751","",""
"OŠ Jovan Jovanović Zmaj","Elementary","Oktobarska 1","RS","","Trebinje","42.707755","18.344377","38751","",""
"OŠ Sveti Vasilije Ostroški","Elementary","Gorićka 19","RS","","Trebinje","42.719505","18.357767","38751","",""
"OŠ Vuk Karadžić","Elementary","Miloša Crnjanskog 4","RS","","Trebinje","42.711335","18.35346","38751","",""
"Muzička škola","Elementary","Miloša Obilića 21","RS","","Trebinje","","","38751","",""
"OŠ Sveti Sava","Elementary","Svetosavska 23","RS","","Ljubinje","42.949003","18.090608","38751","",""
"OŠ Sveti Sava","Elementary","Hercegovačkih ustanaka bb","RS","","Bileća","42.871939","18.427857","38751","",""
"Prva osnovna škola","Elementary","Josipa Juraja Štrosmajera 1","Brčko Distrikt","","Brčko","44.873397","18.813739","38749215260","",""
"Druga osnovna škola","Elementary","Vase Pelagića 6","Brčko Distrikt","","Brčko","44.86812","18.8088","38749212509","",""
"Treća osnovna škola","Elementary","Reisa Džemaludina Čauševića bb","Brčko Distrikt","","Brčko","44.878036","18.799369","38749211101","",""
"Četvrta osnovna škola","Elementary","Bulevar mira 4","Brčko Distrikt","","Brčko","44.876202","18.81128","38749216165","","http://www.ivosnovna.com/"
"Peta osnovna škola","Elementary","Muderisa Ibrahimbegovića 75","Brčko Distrikt","","Brčko","44.87362","18.790843","38749213312","",""
"Šesta osnovna škola Brezovo Polje","Elementary","Čaršija bb","Brčko Distrikt","","","44.84459","18.955316","38749382001","",""
"Sedma osnovna škola Gornji Rahić","Elementary","","Brčko Distrikt","","","44.786506","18.697263","38749512222","",""
"Osma osnovna škola Brka","Elementary","","Brčko Distrikt","","","44.831063","18.720401","38749500259","",""
"Deveta osnovna škola Maoča","Elementary","","Brčko Distrikt","","","44.773828","18.658605","38749520222","",""
"Deseta osnovna škola Bijela","Elementary","","Brčko Distrikt","","","44.788598","18.561438","38749750342","",""
"Jedanaesta osnovna škola Zovik","Elementary","","Brčko Distrikt","","","44.757738","18.711891","38749749143","",""
"Dvanaesta osnovna škola Ulice","Elementary","","Brčko Distrikt","","","44.884385","18.687891","38749","",""
"Trinaesta osnovna škola Bukvik","Elementary","","Brčko Distrikt","","","44.820914","18.655547","38749","",""
"Četrnaesta osnovna škola Krepšić","Elementary","","Brčko Distrikt","","","","","38749","",""
"Osnovna muzička škola","Elementary","","Brčko Distrikt","","Brčko","44.872052","18.81122","38749212436","",""
"Gimnazija Vaso Pelagić","High School","Trg pravde 3","Brčko Distrikt","","Brčko","44.872118","18.813117","38749211941","",""
"Ekonomska škola","High School","Studentska 9","Brčko Distrikt","","Brčko","44.872134","18.813127","38749217812","",""
"Tehnička škola","High School","Musala 44","Brčko Distrikt","","Brčko","44.879827","18.800648","38749217052","",""
"Poljoprivredna i medicinska škola","High School","Vase Pelagića 2","Brčko Distrikt","","Brčko","44.868839","18.808589","38749214803","",""
"Centar za slijepu i slabovidnu djecu i omladinu","High School","","FBiH","KS","","43.84100412","18.33680391","38733473019","","www.czsd.edu.ba"
"Centar za slušnu i govornu rehabilitaciju","High School","","FBiH","KS","","43.87256815","18.41510296","38733440969","","www.cersig.edu.ba"
"Četvrta gimnazija","High School","","FBiH","KS","","43.82951159","18.30687046","38733636704","","www.cetvrta-gimnazija.edu.ba"
"Druga gimnazija","High School","","FBiH","KS","","43.86223432","18.41288209","38733667438","","www.2gimnazija.edu.ba"
"Elektrotehnička škola za energetiku","High School","","FBiH","KS","","43.85404178","18.39340925","38733235014","","www.etssa.edu.ba"
"Gazi Husrev-Begova Medresa","High School","","FBiH","KS","","43.85954614","18.4294045","38733534888","","www.medresasa.edu.ba"
"Gimnazija Dobrinja","High School","","FBiH","KS","","43.83164774","18.34347725","38733464948","","www.gdobrinja.edu.ba"
"Gimnazija Obala","High School","","FBiH","KS","","43.8568269","18.41592908","38733214960","","www.obala.edu.ba"
"Gimnazija Richmond Park Collegeš Sarajevo","High School","","FBiH","KS","","43.81870582","18.31064701","38733944115","","www.sarajevocollege.ba"
"Katolički školski centar - srednja medicinska škola","High School","","FBiH","KS","","43.8580879","18.41897607","38733218295","","www.ksc-sarajevo.edu.ba"
"Katolički školski centar š Opća realna gimnazija","High School","","FBiH","KS","","43.86111265","18.42236638","38733653506","","www.ksc-sarajevo.edu.ba"
"Međunarodna gimnazija 'Richmond Park International Secondary School'","High School","","FBiH","KS","","43.81925544","18.31048608","38733944130","","www.internationalschool.ba"
"Perzijsko-Bosanski koledž sa internatom","High School","","FBiH","KS","","43.99093113","18.23361397","38733402204","","www.pbk.edu.ba"
"Peta gimnazija","High School","","FBiH","KS","","43.83137299","18.34331632","38733235521","","www.peta-gimnazija.edu.ba"
"Prva bošnjačka gimnazija","High School","","FBiH","KS","","43.86039322","18.4230423","38733461780","","www.bosnjackagim.edu.ba"
"Prva gimnazija","High School","","FBiH","KS","","43.85715956","18.42365384","38733203567","","www.prva-gimnazija.edu.ba"
"Škola za srednje stručno obrazovanje i radno osposobljavanje","High School","","FBiH","KS","","43.84876516","18.37733746","38733655950","","www.strucnoobraz.edu.ba"
"Srednja ekonomska škola","High School","","FBiH","KS","","43.85372844","18.3922559","38733250041","","www.ses.edu.ba"
"Srednja elektrotehnička škola","High School","","FBiH","KS","","43.85377873","18.36215615","38733650989","","www.ets-sa.edu.ba"
"Srednja građevinsko geodetska škola","High School","","FBiH","KS","","43.85729495","18.402282","38733214543","","www.ggs.edu.ba"
"Srednja mašinska tehnička škola","High School","","FBiH","KS","","43.85643235","18.40244293","38733275620","","www.smts.edu.ba"
"Srednja medicinska škola","High School","","FBiH","KS","","43.86322446","18.41907263","38733666185","","www.sms.edu.ba"
"Srednja medicinska škola - Jezero","High School","","FBiH","KS","","43.87623407","18.40884805","38733443987","","www.ssmstsa.edu.ba"
"Srednja muzička škola","High School","","FBiH","KS","","43.86049379","18.42493057","38733441958","","www.muzickasa.edu.ba"
"Srednja poslovno-komercijalna i trgovačka škola","High School","","FBiH","KS","","43.86320512","18.41981292","38733205942","","www.sts.edu.ba"
"Srednja škola - Gimnazija 'Maarif'","High School","","FBiH","KS","","43.83728576","18.34951218","38762271004","","www.maarifschools.edu.ba"
"Srednja škola metalskih zanimanja","High School","","FBiH","KS","","43.85645556","18.40184212","38733207369","","www.ssmz.edu.ba"
"Srednja škola poljoprivrede, prehrane, veterine i uslušnih djelatnosti","High School","","FBiH","KS","","43.85633565","18.42408836","38733262900","","www.mspvps.edu.ba"
"Srednja škola primijenjenih umjetnosti","High School","","FBiH","KS","","43.8577243","18.42361629","38733440520","","www.artschoolsa.edu.ba"
"Srednja škola za okoliš i drvni dizajn","High School","","FBiH","KS","","43.85372457","18.39406371","38733641036","","www.msdss.edu.ba"
"Srednja škola za saobraćaj i komunikacije","High School","","FBiH","KS","","43.86534394","18.39908481","38733561940","","www.mssskola.edu.ba"
"Srednja škola za tekstil, kožu i dizajn","High School","","FBiH","KS","","43.86687548","18.43220472","38733531675","","www.msts.edu.ba"
"Srednja tehnička škola grafičkih tehnologija, dizajna i multimedije","High School","","FBiH","KS","","43.83114467","18.30609798","38733764225","","www.sgts.edu.ba"
"Srednja ugostiteljsko-turistička škola","High School","","FBiH","KS","","43.8572524","18.43357265","38733534633","","www.msuts-sa.edu.ba"
"Srednja zubotehnička škola","High School","","FBiH","KS","","43.86501132","18.41426611","38733262180","","www.szs.edu.ba"
"Srednjoškolski centar 'Nedžad Ibrišimović'","High School","","FBiH","KS","Ilijaš","43.96061915","18.2667017","38733400815","","www.mssilijas.edu.ba"
"Srednjoškolski centar Hadžići","High School","","FBiH","KS","","43.82213508","18.19843411","38733420337","","www.sscha.edu.ba"
"Srednjoškolski centar Vogošća","High School","","FBiH","KS","","43.89961637","18.34178209","38733432638","","www.mssvogosca.edu.ba"
"Treća gimnazija","High School","","FBiH","KS","","43.85277296","18.39055538","38733279250","","www.treca-gimnazija.edu.ba"
"Željeznički školski centar","High School","","FBiH","KS","","43.85490828","18.38516951","38733722940","","www.zsc.edu.ba"
"Prva gimnazija u Zenici","High School","Bulevar Kulina Bana 26","FBiH","ZDK","Zenica","44.201848","17.907655","38732402626","gim_zedo@bih.net.ba",""
"Druga gimnazija u Zenici","High School","Mejdandžik 2","FBiH","ZDK","Zenica","44.198119","17.908905","38732405431","drugagimn.zenica@hotmail.com",""
"Opća gimnazija u sastavu Katoličkog školskog centra 'Sveti Pavao'","High School","Dr. Abdulaha Aska Borića 20","FBiH","ZDK","Zenica","44.205332","17.905186","38732449106","ksc.ze.gimn@gmail.com","www.ksc-zenica.edu.ba"
"Srednja muzička škola u Zenici","High School","školska 11","FBiH","ZDK","Zenica","44.203028","17.905251","38732240814","srednjamuzicka@yahoo.com",""
"Ekonomska škola","High School","Mejdandžik 2","FBiH","ZDK","Zenica","44.198191","17.908967","38732404255","ekonomze@bih.net.ba",""
"Medicinska škola","High School","Crkvice bb","FBiH","ZDK","Zenica","44.206579","17.924213","38732443070","med.skola.ze@bih.net.ba",""
"Tehnička škola","High School","Bilmišće 69","FBiH","ZDK","Zenica","44.19304","17.922194","38732200260","tscze@bih.net.ba","https://tscze.ba/"
"Stručna zanatska škola","High School","Bilmišće 69","FBiH","ZDK","Zenica","44.19304","17.922194","38732401423","szskola@bih.net.ba",""
"Stručna industrijska škola","High School","Bulevar Kralja Tvrtka 11","FBiH","ZDK","Zenica","44.21128","17.909151","38732202040","indsko@hotmail.com",""
"Mješovita srednja škola","High School","Dr. Adolfa Goldbergera 10","FBiH","ZDK","Zenica","44.209378","17.907214","38732404601","pprehrambena@yahoo.com",""
"Specijalna srednja škola","High School","Bilmišće 69","FBiH","ZDK","Zenica","","","38732243615","spsrskze@bih.net.ba",""
"Gimnazija 'Muhsin Rizvić'","High School","šehidska 34","FBiH","ZDK","Breza","44.023427","18.265806","38732784596","gimn.breza@bih.net.ba",""
"Mješovita srednja škola 'Mehmedalija Mak Dizdar'","High School","šehidska 34","FBiH","ZDK","Breza","44.023427","18.265806","38732784595","mssbreza@yahoo.com",""
"Gimnazija 'Muhsin Rizvić'","High School","šehida 32","FBiH","ZDK","Kakanj","44.123569","18.116725","38732556890","gimnazijakakanj@bih.net.ba",""
"Srednja tehnička škola 'Kemal Kapetanović'","High School","šehida 32","FBiH","ZDK","Kakanj","44.122853","18.116878","38732552552","stskemkap1@yahoo.com",""
"Srednja stručna škola","High School","šehida 33","FBiH","ZDK","Kakanj","44.123599","18.117169","38732556960","ssskakanj@gmail.com",""
"Gimnazija 'Edhem Mulabdić'","High School","Aleja ljiljana 50","FBiH","ZDK","Maglaj","44.553189","18.10054","38732603221","gimnazija.maglaj@ogmaglaj.edu.ba",""
"Mješovita srednja škola","High School","Aleja ljiljana 50","FBiH","ZDK","Maglaj","44.553112","18.100908","38732603884","mss_maglaj@bih.net.ba",""
"Mješovita srednja škola 'Musa Ćazim Ćatić'","High School","školska bb","FBiH","ZDK","Olovo","44.12913","18.581489","38732825372","mssolovo@bih.net.ba",""
"Gimnazija 'Musa Ćazim Ćatić'","High School","Patriotske lige bb","FBiH","ZDK","Tešanj","44.605119","17.978618","38732650083","gimna@bih.net.ba",""
"Srednja tehnička škola","High School","Patriotske lige bb","FBiH","ZDK","Tešanj","44.605231","17.978674","38732650669","stsmedi@bih.net.ba",""
"Mješovita srednja škola","High School","Patriotske lige bb","FBiH","ZDK","Tešanj","44.605047","17.978841","38732650812","sss32@bih.net.ba",""
"Mješovita srednja škola Stjepana Radića u Sivši","High School","šabljak bb","FBiH","ZDK","Usora","44.673974","18.00851","38732893722","ss.stjepana_radica@tel.net.ba",""
"Mješovita srednja škola 'NORDBAT-2'","High School","Zvjezda bb","FBiH","ZDK","Vare","44.163435","18.328448","38732843002","nordbat@tel.net.ba",""
"Gimnazija 'Visoko'","High School","Musala 23","FBiH","ZDK","Visoko","43.993321","18.181407","38732735501","ki_selma@yahoo.com",""
"Mješovita srednja škola 'Hazim šabanović'","High School","Branilaca 24","FBiH","ZDK","Visoko","43.995227","18.175698","38732738165","mss.hazimsabanovic@gmail.com",""
"Medresa 'Osman-ef. Redžović'","High School","Veliko Čajno bb","FBiH","ZDK","Visoko","44.028173","18.201885","38732745771","info@medresa.org","https://www.medresa.ba/"
"Gimnazija 'Rizah Odžečkić'","High School","Stjepana Radića 43","FBiH","ZDK","Zavidovići","44.444589","18.141073","38732866678","gimzav@bih.net.ba",""
"Srednja tehnička škola","High School","Mehmeda paše Sokolovića bb","FBiH","ZDK","Zavidovići","44.437729","18.144347","38732879002","stszav@bih.net.ba",""
"Srednja stručna škola","High School","Stjepana Radića 43","FBiH","ZDK","Zavidovići","44.123502","18.117292","38732877773","skolastrucna@bih.net.ba",""
"Gimnazija Bihać","High School","Safvet bega Bašagića bb","FBiH","USK","Bihać","44.817925","15.87751","38737312915","","www.gimnazijabihac.edu.ba"
"Medicinska škola","High School","Safvet bega Bašagića bb","FBiH","USK","Bihać","44.816607","15.876265","38737319073","",""
"Mješovita srednja škola","High School","Džanića mahala bb","FBiH","USK","Bihać","44.816554","15.877217","38737311075","",""
"Mašinsko - saobraćajna srednja škola","High School","Irfana Ljubijankića 64","FBiH","USK","Bihać","44.820072","15.863273","38737226166","","www.etsbi.edu.ba"
"Mješovita elektrotehnička i drvoprerađivačka srednja škola","High School","Irfana Ljubijankića 64","FBiH","USK","Bihać","44.820072","15.863273","38737110181","",""
"Umjetnička škola","High School","V korpusa bb","FBiH","USK","Bihać","44.812781","15.868299","38737311045","","www.umjetnicka-bihac.com"
"Katolički školski centar 'IvanPavao II'","High School","šegar bb","FBiH","USK","Bihać","44.816813","15.85034","38737223874","","ksc-bihac.net"
"Tursko-bosanski Unsko-sanski koledž","High School","","FBiH","USK","Bihać","44.818649","15.87719","38737312903","","www.unasanacollege.edu.ba"
"Gimnazija","High School","Izeta Nanića 12","FBiH","USK","Bosanska Krupa","44.884179","16.1559","38737471057","",""
"Mješovita srednja škola 'Safet Krupić'","High School","Izeta Nanića 12","FBiH","USK","Bosanska Krupa","44.890887","16.155649","38737471077","",""
"Mješovita srednja škola","High School","Bosanska bb","FBiH","USK","Bosanski Petrovac","44.558729","16.368456","38737883347","",""
"Mješovita srednja škola","High School","","FBiH","USK","Bužim","45.072108","16.018902","38737410115","",""
"Gimnazija","High School","H.Mujezinovića 1","FBiH","USK","Cazin","44.967748","15.914822","38737514072","",""
"I srednja škola","High School","H.Mujezinovića 1","FBiH","USK","Cazin","44.963584","15.929787","38737514436","",""
"II srednja škola","High School","H.Mujezinovića 1","FBiH","USK","Cazin","44.963584","15.929787","38737514036","",""
"Medresa 'Džemaludin Čaušević'","High School","M.Terzić 3","FBiH","USK","Cazin","44.96149","15.932772","38737514893","",""
"Mješovita srednja škola","High School","Branilaca BiH 86","FBiH","USK","Ključ","44.5336","16.776156","38737661038","",""
"Gimnazija","High School","Prijedorska bb","FBiH","USK","Sanski Most","44.767827","16.657781","38737686039","",""
"Mješovita srednja škola","High School","Prijedorska bb","FBiH","USK","Sanski Most","44.767828","16.657763","38737686426","",""
"Srednja poljoprivredna škola 'Sanus futurum'","High School","Krkojevci bb","FBiH","USK","Sanski Most","44.747551","16.661157","38737684210","",""
"Gimnazija","High School","Ibrahima Mršljaka bb","FBiH","USK","Velika Kladuša","45.185845","15.803117","38737770896","",""
"I srednja škola 'Dr.Husein Džanić'","High School","Ibrahima Mršljaka bb","FBiH","USK","Velika Kladuša","45.185481","15.803029","38737770043","",""
"II srednja škola","High School","Ibrahima Mršljaka bb","FBiH","USK","Velika Kladuša","45.185481","15.803029","38737772876","",""
"Srednja škola 'Pero Zečević'","High School","džemala Bijedića 13","FBiH","PK","Odžak","45.015972","18.324339","38731761866","office@sskola-odzak.edu.ba",""
"Srednja škola 'Fra Martin Nedić'","High School","XI ulica","FBiH","PK","Orašje","45.034493","18.690663","38731710100","","www.skor.tel.net.ba"
"Gimnazija 'Meša Selimović'","High School","M.Fizovića 1","FBiH","TK","Tuzla","44.532185","18.685335","38735247620","gmstz@bih.net.ba",""
"Gimnazija 'Ismet Mujezinović'","High School","Mehmeda Hevaije Uskufije 1","FBiH","TK","Tuzla","44.538996","18.668198","38735252006","gimim@bih.net.ba",""
"Katolički školski centar 'Sveti Franjo' Opća gimnazija","High School","Klosterska 14","FBiH","TK","Tuzla","44.536637","18.680781","38735300800","","www.ksc-tuzla.edu.ba"
"Srednja ekonomska škola","High School","Muhameda Hevaije Uskufije 3","FBiH","TK","Tuzla","44.539481","18.66788","38735271007","info@ekonomskaskola.com","www.ekonomskaskola.com"
"Srednja medicinska škola","High School","Fra Grge Martića 5","FBiH","TK","Tuzla","44.538412","18.670964","38735252040","medicinska.tuzla@montk.gov.ba","https://smstz.edu.ba/"
"Srednja muzička škola","High School","Ludvika Kube 1","FBiH","TK","Tuzla","44.536324","18.683582","38735262531","Sms_tuzla@yahoo.com",""
"Mješovita srednja trgovinska škola","High School","Muhameda Hevaije Uskufije 3","FBiH","TK","Tuzla","44.539556","18.667279","38735252405","trg.skola@bih.net.ba","www.trgskola.com.ba"
"Mješovita srednja elektrotehnička škola","High School","Muhameda Hevaije Uskufije 2","FBiH","TK","Tuzla","44.540622","18.664618","38735282009","Ets.tz@bih.net.ba","www.etstuzla.edu.ba"
"Mješovita srednja građevinsko-geodetska škola","High School","Bosne Srebrene 61","FBiH","TK","Tuzla","44.53657","18.663197","38735228513","gradskola@bih.net.ba","www.gradjevinskogeodetska.com.ba"
"Mješovita srednja hemijska škola","High School","Bosne Srebrene 8","FBiH","TK","Tuzla","44.537977","18.662826","38735281092","hemijska.skola@gmail.com",""
"Mješovita srednja mašinska škola","High School","Bosne Srebrene 6","FBiH","TK","Tuzla","44.538353","18.666981","38735315800","masinska.skola.tz@bih.net.ba",""
"Mješovita srednja rudarska škola","High School","Bosne Srebrene 61","FBiH","TK","Tuzla","44.536824","18.662772","38735228514","msrudskola@bih.net.ba",""
"Mješovita srednja saobraćajna škola","High School","Bosne Srebrene 6","FBiH","TK","Tuzla","44.538407","18.66696","38735315390","jumsss@bih.net.ba",""
"Mješovita srednja škola","High School","Bosne Srebrene 8","FBiH","TK","Tuzla","44.537867","18.662769","38735282548","jumsstuzla@gmail.com",""
"Turističko-ugostiteljska škola","High School","Muhameda Hevajije Uskufije 1","FBiH","TK","Tuzla","44.539247","18.667904","38735247900","tru.ugostiteljska@gmail.com",""
"Behram-begova medresa","High School","Behram-begova 1","FBiH","TK","Tuzla","44.538648","18.654141","38735281151","info@medresatz.edu.ba",""
"Gimnazija","High School","Prva ulica 58b","FBiH","TK","Živinice","44.448631","18.652593","38735772612","gimnaz.zivinice@bih.net.ba",""
"Mješovita srednja škola","High School","Prva ulica 58b","FBiH","TK","Živinice","44.448481","18.652005","38735772611","msszivinice@gmail.com",""
"Mješovita srednja škola","High School","Branilaca Banovića 38","FBiH","TK","Banovići","44.409476","18.533004","38735876739","ju.mss@bih.net.ba",""
"Mješovita srednja škola","High School","","FBiH","TK","Čelić","44.72176","18.821304","38735668010","mss.celic@bih.net.ba",""
"Mješovita srednja škola","High School","Velika Brijesnica","FBiH","TK","Doboj-istok","44.722259","18.207706","38735723460","mjesovita.skola@bih.net.ba",""
"Gimnazija 'Dr. Mustafa Kamarić'","High School","Mula Mustafe Bašeskije 2","FBiH","TK","Gračanica","44.708641","18.308873","38735786899","gimmko@bih.net.ba",""
"Mješovita srednja škola","High School","Mula Mustafe Bašeskije 2","FBiH","TK","Gračanica","44.708915","18.308697","38735700311","mssgracanica@bih.net.ba",""
"Gimnazija 'Mustafa Novalić'","High School","Sarajevska bb","FBiH","TK","Gradačac","44.885681","18.417633","38735821150","gimngrad@gmail.com",""
"Mješovita srednja škola 'Hasan Kikić'","High School","Husein-kapetana Gradaščevića bb","FBiH","TK","Gradačac","44.885551","18.418444","38735631043","",""
"Mješovita srednja škola","High School","Patriotske lige bb","FBiH","TK","Kalesija","44.442166","18.876478","38735631043","ju.mss.k@bih.net.ba",""
"Mješovita srednja škola 'Musa Ćazim Ćatić'","High School","Kladanjskih brigada 88a","FBiH","TK","Kladanj","44.231379","18.700316","38735621215","jumss.k@bih.net.ba",""
"Gimnazija 'Gimnazija Lukavac'","High School","školska 5","FBiH","TK","Lukavac","44.534988","18.530178","38735550540","gimn.lu@bih.net.ba",""
"Mješovita srednja elektro-mašinska škola","High School","školska 5","FBiH","TK","Lukavac","44.535376","18.529445","38735553377","ems.lukavac@yahoo.com",""
"Mješovita srednja ekonomsko-hemijska","High School","školska 5","FBiH","TK","Lukavac","44.535273","18.530596","38735550250","",""
"Mješovita srednja škola","High School","206. Viteške brigade bb","FBiH","TK","Sapna","44.491222","19.00175","38735597067","sapnass@bih.net.ba",""
"Mješovita srednja škola","High School","Radnička 19","FBiH","TK","Srebrenik","44.704626","18.489536","38735645679","jumss@bih.net.ba",""
"Mješovita srednja škola","High School","","FBiH","TK","Teočak","44.601421","18.980836","38735755561","mssteocak@bih.net.ba",""
"Mješovita srednja škola 'Enver Pozderović'","High School","Zaima Imamovića 20","FBiH","BPK","Goražde","43.663962","18.973679","38738221020","mssep@bih.net.ba",""
"Srednja tehnička škola 'Hasib Hadžović'","High School","Zaima Imamovića 60","FBiH","BPK","Goražde","43.663172","18.975551","38738221137","justsgo@bih.net.ba",""
"Srednja stručna škola 'džemal Bijedić'","High School","Titova 20","FBiH","BPK","Goražde","43.66862","18.978689","38738221214","nicka_f@hotmail.com",""
"Gimnazija","High School","Zlatnih ljiljana","FBiH","SBK","Bugojno","44.054957","17.447838","38730260112","bug.gim@bih.net.ba",""
"Srednja stručna škola","High School","Ciglane II","FBiH","SBK","Bugojno","44.052557","17.437698","38730252207","",""
"Srednja tehnička škola","High School","Ciglane II","FBiH","SBK","Bugojno","44.05222","17.438525","38730251915","tehskolabu@yahoo.com",""
"Mješovita srednja škola 'Busovača'","High School","Kulina bana bb","FBiH","SBK","Busovača","44.100612","17.879049","38730593155","mail@mssbusovaca.com.ba","https://mssbusovaca.com.ba/"
"Srednja škola 'Busovača'","High School","Kulina bana bb","FBiH","SBK","Busovača","44.100612","17.879049","38730732042","ssbusovaca@gmail.com","https://www.ss-busovaca.com/"
"Mješovita srednja škola","High School","šrtava genocida u Srebrenici","FBiH","SBK","Donji Vakuf","44.139848","17.401169","38730205355","mssdvakuf@bih.net.ba",""
"Srednja mješovita škola 'Zijah Dizdarević'","High School","Novo naselje","FBiH","SBK","Fojnica","43.95884","17.90254","38730831821","smszijahdizdarevic@yahoo.com",""
"Mješovita srednja škola 'Gornji Vakuf'","High School","Kralja Tomislava bb","FBiH","SBK","Gornji Vakuf","43.939242","17.581508","38730266255","vahid.sehic@yahoo.com",""
"Mješovita srednja škola 'Uskoplje'","High School","Kralja Tomislava bb","FBiH","SBK","Gornji Vakuf","43.938762","17.581116","38730494039","sskola.uskoplje@tel.net.ba",""
"Srednja strukovna škola 'Jajce'","High School","Tina Ujevića 3","FBiH","SBK","Jajce","44.347236","17.253766","38730654043","ss-skola-jajce@tel.net.ba",""
"Srednja škola 'Nikola Šop'","High School","Fra Antuna Kneževića 27","FBiH","SBK","Jajce","44.342983","17.275563","38730654174","gimnazija.nikola.sop@tel.net.ba",""
"Srednja škola 'Ivan Goran Kovačić'","High School","Žrtava domovinskog rata 11","FBiH","SBK","Kiseljak","43.943452","18.079831","38730879002","srednja_skola_kis@yahoo.com",""
"Srednja strukovna škola 'Fojnica'","High School","","FBiH","SBK","Fojnica","43.95884","17.90254","38730879113","srednjaskolafoj@yahoo.com",""
"Srednja škola 'Kreševo'","High School","Troska 2a","FBiH","SBK","Kreševo","43.870461","18.057744","38730800202","ss.kresevo@tel.net.ba",""
"Srednja glazbena škola Jakova Gotovca","High School","Ljudevita Gaja bb","FBiH","SBK","Novi Travnik","44.171337","17.655827","38730792286","sr.gl.sk.jakova.gotovca@tel.net.ba",""
"Mješovita srednja škola '308. slavna brigada'","High School","Omladinska bb","FBiH","SBK","Novi Travnik","44.169275","17.649008","38730525407","",""
"Srednja škola 'Novi Travnik'","High School","Ljudevita Gaja bb","FBiH","SBK","Novi Travnik","44.171337","17.655827","38730793504","ss-novi.travnik@tel.net.ba",""
"Mješovita srednja tehnička škola","High School","školska bb","FBiH","SBK","Travnik","44.225549","17.656774","38730511618","psecurity@msts-travnik.net",""
"Mješovita srednja ekonomsko-ugostiteljska škola","High School","školska bb","FBiH","SBK","Travnik","44.224568","17.658843","38730511076","",""
"Mješovita srednja škola "Travnik"","High School","školska 3","FBiH","SBK","Travnik","44.225237","17.662377","38730511059","srednjatr@bih.net.ba",""
"Katolički školski centar 'Petar Barbarić' - Gimnazija","High School","Školska 1","FBiH","SBK","Travnik","44.225288","17.661558","38730518823","šksctr@bih.net.ba",""
"JU Srednja škola","High School","","FBiH","SBK","Nova Bila","44.189026","17.737568","38730707486","ss.travnik@tel.net.ba",""
"Elči Ibrahim-pašina medresa","High School","Mostarska bb","FBiH","SBK","Nova Bila","44.228963","17.673723","38730512023","medresa@gmail.com",""
"Mješovita srednja škola","High School","Ilija Petrovića bb","FBiH","SBK","Vitez","44.151094","17.789063","38730717540","mss.vitez.kruscica@tel.net.ba",""
"Srednja škola","High School","Ilija Petrovića bb","FBiH","SBK","Vitez","44.151094","17.789063","38730711336","ss.vitez@tel.net.ba",""
"Gimnazija Mostar","High School","španjolski trg 1","FBiH","HNK","Mostar","43.342922","17.807231","38736315216","",""
"Gimnazija fra Grge Martića","High School","","FBiH","HNK","Mostar","43.348353","17.798974","38736326994","",""
"Srednja ekonomska škola Joze Martinovića","High School","Kralja Tomislava 2","FBiH","HNK","Mostar","43.346844","17.800285","38736310846","",""
"Druga gimnazija Mostar","High School","Sjeverni logor bb","FBiH","HNK","Mostar","43.355422","17.806351","38736551615","",""
"Srednja medicinska škola","High School","Sjeverni logor bb","FBiH","HNK","Mostar","43.355642","17.806172","38736576851","",""
"Ekonomska i ugostiteljsko-turistička škola","High School","Konak bb","FBiH","HNK","Mostar","43.337832","17.817382","38736576766","",""
"Mašinsko-saobraćajna škola","High School","Mile Budaka 26a","FBiH","HNK","Mostar","43.348971","17.808352","38736566290","",""
"Srednja građevinska škola","High School","","FBiH","HNK","Mostar","43.337535","17.817463","38736551456","",""
"Srednja elektrotehnička škola","High School","Alekse Šantića","FBiH","HNK","Mostar","43.345411","17.809394","38736580126","",""
"Srednja tekstilna i poljoprivredna škola","High School","Sjeverni logor bb","FBiH","HNK","Mostar","43.355642","17.806172","38736570034","",""
"Muzička škola I u II stupnja","High School","Maršala Tita","FBiH","HNK","Mostar","43.334766","17.817574","38736551462","",""
"Karađozbegova medresa","High School","Glavna ulica","FBiH","HNK","Mostar","43.341906","17.814241","38736550921","",""
"Srednja građevinska škola Jurja Dalmatinca","High School","Kralja Zvonimira 24","FBiH","HNK","Mostar","43.345616","17.799956","38736318527","",""
"Srednja turističko-ugostiteljska škola","High School","Kralja Zvonimira bb","FBiH","HNK","Mostar","43.344921","17.803151","38736320107","",""
"Srednja medicinska škola Sestara milosrdnica","High School","Franjevačka 18","FBiH","HNK","Mostar","43.337867","17.807079","38736332971","",""
"Srednja elektrotehnička škola Ruđera Boškovića","High School","Kralja Zvonimira 24","FBiH","HNK","Mostar","43.346889","17.800273","38736318525","",""
"Srednja strojarska škola Fausta Vrančića","High School","Kralja Zvonimira 24","FBiH","HNK","Mostar","43.345886","17.799887","38736318526","",""
"Srednja škola likovnih umjetnosti Gabrijela Jurkića","High School","Bleiburških šrtava 35","FBiH","HNK","Mostar","43.34965","17.792052","38736322571","",""
"Srednja glazbena škola Ivana PL. Zajca","High School","Trg hrvatskih velikana","FBiH","HNK","Mostar","43.34225","17.802279","38736320127","",""
"IPG Internacionalna privatna gimnazija s pravom javnosti","High School","Bleiburških šrtava 100","FBiH","HNK","Mostar","43.353142","17.792451","38736327808","",""
"Srednja škola Prozor","High School","Kralja Tomislava","FBiH","HNK","Prozor","43.828037","17.606807","38736771214","",""
"Srednja škola Čapljina i Podružni odjel Neum","High School","","FBiH","HNK","Čapljina","43.112618","17.70234","38736801506","",""
"Srednja škola dr.fra Slavka Barbarića","High School","Kralja Tomislava 72","FBiH","HNK","Čitluk","43.225045","17.697673","38736642357","",""
"Srednja škola Stolac","High School","Don Lazara Lazarevića","FBiH","HNK","Stolac","43.083423","17.960258","38736853404","",""
"Srednja škola Konjic","High School","Maksima Kujundžića","FBiH","HNK","Konjic","43.651914","17.963036","38736727321","",""
"Srednja škola Jablanica","High School","P. Bilića 7","FBiH","HNK","Jablanica","43.664511","17.758091","38736752833","",""
"Gimnazija Ljubuški","High School","Sestre Silvije Antić 1","FBiH","ZHK","Ljubuški","43.190767","17.538628","38739830068","gimnazija.lj@gmail.com",""
"Srednja strukovna škola Ruđera Boškovića","High School","Sestre Silvije Antić 1","FBiH","ZHK","Ljubuški","43.191374","17.53806","38739831921","ss.skola-rudjer.boskovic@tel.net.ba",""
"Srednja škola Antuna Branka Šimića Grude","High School","Dr Franje Tuđmana 14","FBiH","ZHK","Grude","43.370565","17.415857","38739662230","ravnatelj@ssgrude.net",""
"Gimnazija fra Grge Martića","High School","Bartola Kašića bb","FBiH","ZHK","Posušje","43.472187","17.329458","38739682458","ss.fra.grge.martica.posusje@wic.ba",""
"Srednja strukovna škola","High School","Bartola Kašića bb","FBiH","ZHK","Posušje","43.472187","17.329458","38739682458","",""
"Gimnazija fra Dominika Mandića","High School","Kardinala Alojzija Stepinca 24","FBiH","ZHK","Široki Brijeg","43.374992","17.590003","38739704393","direktor@gimnazija-sb.edu.ba",""
"Glazbena škola","High School","Matije Gubca 1","FBiH","ZHK","Široki Brijeg","43.383558","17.594579","38739707632","silvana.zadro@tel.net.ba",""
"Srednja strukovna škola","High School","Kardinala Alojzija Stepinca 24","FBiH","ZHK","Široki Brijeg","43.374992","17.590003","38739704393","strukovna.skola.sb@tel.net.ba",""
"Gimnazija Livno","High School","Kraljice Katarine 16","FBiH","Kanton 10","Livno","43.828289","17.006507","38734202041","luka.novokmet@tel.net.ba",""
"Srednja ekonomska škola","High School","Silvija Strahimira Kranjčevića 1","FBiH","Kanton 11","Livno","43.823679","17.00135","38734202015","sskola-ekonomska.livno@tel.net.ba",""
"Srednja strukovna škola Silvija Strahimira Kranjčevića","High School","Dinarina 2","FBiH","Kanton 12","Livno","43.825805","17.006849","38734201580","strukovna.skola.livno@tel.net.ba",""
"Gimnazija Marka Marulića","High School","Mijata Tomića 10","FBiH","Kanton 13","Tomislavgrad","43.723553","17.221406","38734352507","gimnazija.tg@tel.net.ba",""
"Srednja strukovna škola","High School","Maka Dizdara bb","FBiH","Kanton 14","Tomislavgrad","43.718575","17.224017","38734352312","sss.tg@tel.net.ba",""
"Srednja škola 'Kupres'","High School","Splitska bb","FBiH","Kanton 15","Kupres","43.99182","17.277964","38734274100","sskola-kupres@tel.net.ba",""
"Srednja škola 'Drvar'","High School","Jole Marića bb","FBiH","Kanton 16","Drvar","44.373908","16.386804","38734819013","srednjaskola.drvar@gmail.com",""
"Srednja škola 'Tin Ujević'","High School","Stjepana Radića bb","FBiH","Kanton 17","Glamoč","44.048577","16.85302","38734273023","ss.tin.ujevic.glamoc@tel.net.ba",""
"Gimnazija Banja Luka","High School","Zmaj Jovina 13","RS","","Grad Banjaluka","44.769683","17.183513","38734","",""
"Građevinska škola","High School","Dr Mladena Stojanovića 7","RS","","Grad Banjaluka","44.78011","17.19859","","",""
"Ekonomska škola","High School","Kralja Alfonsa XIII 34","RS","","Grad Banjaluka","44.769377","17.196023","","","ekonomskaskolabl.org"
"Elektrotehnička škola Nikola Tesla","High School","Jevrejska 48","RS","","Grad Banjaluka","44.768543","17.195134","","",""
"Medicinska škola Banja Luka","High School","Cetinska 1","RS","","Grad Banjaluka","44.760457","17.176875","","",""
"Poljoprivredna škola","High School","Knjaza Miloša 9","RS","","Grad Banjaluka","44.791347","17.205369","","",""
"Tehnička škola","High School","Đure Daničića 2","RS","","Grad Banjaluka","44.768856","17.193059","38751348212","ss07@skolers.org","https://www.tehnickaskolabl.com/"
"Tehnološka škola","High School","Pilanska bb","RS","","Grad Banjaluka","44.784792","17.21069","","",""
"Ugostiteljsko-trgovinsko-turistička škola","High School","Vojvode Stepe 44","RS","","Grad Banjaluka","44.763192","17.197611","","",""
"Škola učenika u privredi","High School","Nikole Pašića bb","RS","","Grad Banjaluka","44.768997","17.195875","","",""
"Muzička škola Vlado Milošević","High School","Jovana Dučića 23","RS","","Grad Banjaluka","44.773973","17.186416","","",""
"Centar za OIV i rehabilitaciju","High School","Jovana Raškovića 28","RS","","Grad Banjaluka","44.775029","17.179747","","",""
"Centar šZaštiti me","High School","Poljokanov park bb","RS","","Grad Banjaluka","44.757089","17.174555","","",""
"Srednja poslovna škola","High School","Despota Stefana Lazarevića bb","RS","","Grad Banjaluka","44.809451","17.201516","","",""
"Srednjoškolski centar šGemit-Apeiron","High School","Vojvode Pere Krece 13","RS","","Grad Banjaluka","44.7556","17.185015","","",""
"Katolički školski centar Blašeni Ivan Merc","High School","Srpska 30","RS","","Grad Banjaluka","44.770564","17.194617","","",""
"Gimnazija Filip Višnjić","High School","Račanska 94","RS","","Grad Bijeljina","44.769947","19.226119","","",""
"Ekonomska škola","High School","Račanska 94","RS","","Grad Bijeljina","44.770442","19.226289","","",""
"Poljoprivredna i medicinska škola","High School","Semberskih ratara 1","RS","","Grad Bijeljina","44.774327","19.222666","","",""
"Tehnička škola Mihajlo Pupin","High School","Račanska 76","RS","","Grad Bijeljina","44.770882","19.226085","","",""
"Muzička škola Stevan Stojanović Mokranjac","High School","Karađorđeva 5","RS","","Grad Bijeljina","44.757446","19.218917","","",""
"Srednja stručna škola","High School","Karađorđeva 250","RS","","Grad Bijeljina","44.757917","19.220728","","",""
"Srednjoškolski centar Golub Kureš","High School","Vladimira Gaćinovića 1","RS","","Bileća","42.875077","18.430506","","",""
"Srednjoškolski centar Bratunac","High School","Petra Kočića bb","RS","","Bratunac","42.875077","18.430506","","",""
"Srednja škola Nikola Tesla","High School","Kralja Petra I Oslobodioca bb","RS","","Brod","45.145552","18.011428","","",""
"Srednja škola šIvo Andrić","High School","Kralja Petra I 16","RS","","Višegrad","43.784064","19.292398","","",""
"Srednjoškolski centar Milorad Vlačić","High School","Svetih Apostola Petra i Pavla 37","RS","","Vlasenica","44.17892","18.944384","","",""
"Srednjoškolski centar Nikola Tesla","High School","Branka Radićevića 1","RS","","Vukosavlje","44.981236","18.278404","","",""
"Srednjoškolski centar Pero Slijepčević","High School","Solunskih dobrovoljaca 24","RS","","Gacko","43.167313","18.530822","","",""
"Gimnazija","High School","Trg Svetog Save 3 A","RS","","Gradiška","45.147672","17.255141","","","gimnazija.gradiska.com"
"Tehnička škola","High School","Kosovke djevojke bb","RS","","Gradiška","45.147438","17.25587","","",""
"Srednja stručna škola","High School","Vidovdanska bb","RS","","Gradiška","45.149211,","17.25605","","",""
"Gimnazija sa tehničkim školama","High School","Svetog Save bb","RS","","Derventa","44.986821","17.90177","","",""
"Stručna škola za radnička zanimanja","High School","Svetog Save bb","RS","","Derventa","44.986085","17.902067","","",""
"Zavod za slijepe i slabovidne Budućnost","High School","Stevana Nemanje 12","RS","","Derventa","44.974579","17.907826","","",""
"Gimnazija","High School","Hilandarska 2","RS","","Doboj","44.731598","18.082035","","",""
"Ekonomska i trgovinska škola","High School","Cara Dušana 18","RS","","Doboj","44.728607","18.080852","","",""
"Medicinska škola","High School","Pop Ljubina 103","RS","","Doboj","44.741834","18.091077","","",""
"Tehnička škola","High School","Cara Dušana 19","RS","","Doboj","44.72862","18.080869","","",""
"Saobraćajna i elektro-škola","High School","Cara Dušana 18","RS","","Doboj","44.72862","18.080869","","",""
"Upravna, ugostiteljska i škola učenika u privredi","High School","Cara Dušana 18","RS","","Doboj","44.72862","18.080869","","",""
"Gimnazija i srednja stručna škola Petar Kočić","High School","Vuka Karadžića 69","RS","","Zvornik","44.390045","19.103486","","",""
"Tehnički školski centar","High School","Karakaj bb","RS","","Zvornik","44.412845","19.122664","","",""
"Srednjoškolski centar Istočna Ilidža","High School","Stefana Nemanje 10","RS","","Istočna Ilidža","43.823062","18.364128","","",""
"Srednja škola 28. juni","High School","Stefana Nemanje 10","RS","","Istočna Ilidža","43.823141","18.364119","","",""
"Srednja stručna škola Jovan Dučić","High School","Dujka Komljenovića bb","RS","","Kneževo","44.488881","17.376445","","",""
"Mješovita srednja škola Nikola Tesla","High School","Dositejeva bb","RS","","Kozarska Dubica","45.181374","16.806854","","",""
"Srednjoškolski centar","High School","Tavija bb","RS","","Kostajnica","45.210168","16.545945","","",""
"Srednjoškolski centar Nikola Tesla","High School","Nikole Tesle bb","RS","","Kotor Varoš","44.623536","17.372273","","",""
"Srednjoškolski centar Vuk Karadžić","High School","","RS","","Lopare","44.629775","18.844861","","",""
"Srednja škola Svetozar Ćorović","High School","Svetosavska bb","RS","","Ljubinje","42.94878","18.090702","","","https://sscsvetozarcorovic.org/"
"Srednjoškolski centar Milići","High School","","RS","","Milići","44.164263","19.069596","","",""
"Srednjoškolski centar Jovan Cvijić","High School","Omladinska bb","RS","","Modriča","44.953214","18.309633","","",""
"Gimnazija","High School","Sime šolaje 25","RS","","Mrkonjić Grad","44.41181","17.086352","","",""
"Mašinska škola","High School","Sime šolaje 25","RS","","Mrkonjić Grad","44.411931","17.08652","","",""
"Srednjoškolski centar šAleksa Šantić","High School","Obrena Ivkovića bb","RS","","Nevesinje","43.256855","18.114985","","",""
"Gimnazija Petar Kočić","High School","Dositeja Obradovića 6","RS","","Novi Grad","45.045494","16.373509","","",""
"Mješovita škola Đuro Radmanović","High School","Dositeja Obradovića 6","RS","","Novi Grad","45.045922","16.373412","","",""
"Srednjoškolski centar šPale","High School","Njegoševa 7","RS","","Pale","43.809895","18.567489","","",""
"Srednjoškolski centar Petrovo","High School","Ozrenskih odreda bb","RS","","Petrovo","44.625579","18.360079","","",""
"Gimnazija Sveti Sava","High School","Nikole Pašića 6b","RS","","Prijedor","44.976306","16.709974","","",""
"Elektrotehnička škola","High School","Nikole Pašića 4","RS","","Prijedor","44.976272","16.708502","","",""
"Mašinska škola","High School","Nikole Pašića 4","RS","","Prijedor","44.976398","16.708597","","",""
"Poljoprivredno-prehrambena škola","High School","Nikole Pašića 4","RS","","Prijedor","44.976598","16.707727","","",""
"Ugostiteljsko-ekonomska škola","High School","Vuka Karadžića 16","RS","","Prijedor","44.975878","16.710252","","",""
"Medicinsko-tehnološka i građevinska škola","High School","Nikole Pašića 4","RS","","Prijedor","44.976574","16.707791","","",""
"Srednja i osnovna muzička škola","High School","Branislava Nušića 9","RS","","Prijedor","44.980501","16.7101","","",""
"Specijalna osnovna i srednja škola Đorđe Natošević","High School","Kralja Aleksandra 6","RS","","Prijedor","44.974787","16.710738","","",""
"Gimnazija","High School","Rade Vranješević 1","RS","","Prnjavor","44.866191","17.670629","","",""
"Srednja škola Prnjavor","High School","Rade Vranješević 1","RS","","Prnjavor","44.865793","17.670431","","",""
"Sednjoškolski centar Lazar Đukić","High School","Rade Jovanovića bb","RS","","Ribnik","44.415562","16.818405","","",""
"Srednja škola 27. januarš Rogatica","High School","Srpske sloge 116","RS","","Rogatica","43.805935","19.001498","","",""
"Srednjoškolski centar","High School","Cara Dušana bb","RS","","Rudo","43.618317","19.369462","","",""
"Srednja škola Sokolac","High School","Omladinska 2","RS","","Sokolac","43.931851","18.793426","","",""
"Mješoviti školski centar Petar Kočić","High School","Danka Mitrova bb","RS","","Srbac","45.096745","17.519864","","",""
"Srednjoškolski centar Srebrenica","High School","Svetosavska bb","RS","","Srebrenica","44.110899","19.294415","","",""
"Mješovita škola Nikola Tesla","High School","Karađorđeva bb","RS","","Teslić","44.603193","17.859599","","",""
"Srednja mješovita škola Jovan Dučić","High School","Karađorđeva bb","RS","","Teslić","44.603636","17.859432","","",""
"Gimnazija Jovan Dučić","High School","Vožda Karađorđa 1","RS","","Trebinje","42.71257","18.34018","","",""
"Centar srednjih škola","High School","Vožda Karađorđa 1","RS","","Trebinje","","","","",""
"Tehnička škola","High School","Vožda Karađorđa 1","RS","","Trebinje","42.712503","18.339652","","",""
"Srednja škola Mihajlo Petrović Alas","High School","Karađorđeva 19","RS","","Ugljevik","42.712334","18.340144","","",""
"Srednjoškolski centar Foča","High School","Cara Dušana bb","RS","","Foča","43.503755","18.783925","","",""
"Bogoslovija Sveti Petar Dabrobosanski","High School","Velečevo bb","RS","","Foča","43.494302","18.79976","38758212030","bogoslovija.svetipetar@gmail.com","https://www.bogoslovijafoca.org/"
"Srednjoškolski centar Petar Petrović Njegoš","High School","Kralja Petra I Oslobodioca 36","RS","","Čajniče","43.556581","19.071945","","",""
"Srednja škola","High School","Vojvode Mišića 21","RS","","Čelinac","44.727711","17.321222","","",""
"Srednja škola Nikola Tesla","High School","Cara Lazara bb","RS","","Šamac","45.058987","18.47291","","",""
"Srednja škola Petar II Petrović Njegoš","High School","Branka Radićevića bb","RS","","Šekovići","44.296699","18.860268","","",""
"Srednjoškolski centar","High School","Nikole Tesle 32","RS","","Šipovo","44.286421","17.087343","","",""